typ,typ_label,name,address,lat,lng,wertstoffinsel_glas,wertstoffinsel_kleider,wertstoffinsel_papier,google_maps_url
3.0,Grüngutannahmestelle,Grüngutannahmestelle Barsinghausen,"Blumenhof 3, 30890 Barsinghausen",52.315025174527,9.4599312543869,,,,"https://www.google.com/maps?q=52.315025174527,9.4599312543869"
3.0,Grüngutannahmestelle,Grüngutannahmestelle Kirchdorf,"Angerstr. 4, 30890 Barsinghausen",52.298425941901,9.5018916194109,,,,"https://www.google.com/maps?q=52.298425941901,9.5018916194109"
3.0,Grüngutannahmestelle,Grüngutannahmestelle Nordgoltern,"Grabenfeld 1, 30890 Barsinghausen",52.33761898894,9.4922009110451,,,,"https://www.google.com/maps?q=52.33761898894,9.4922009110451"
3.0,Grüngutannahmestelle,Grüngutannahmestelle Groß Munzel,"Osterende 30, 30890 Barsinghausen",52.364601348006,9.4822129771594,,,,"https://www.google.com/maps?q=52.364601348006,9.4822129771594"
3.0,Grüngutannahmestelle,Grüngutannahmestelle Winninghausen,"Düsterstraße 5a, 30890 Barsinghausen",52.325186786275,9.4365048408508,,,,"https://www.google.com/maps?q=52.325186786275,9.4365048408508"
3.0,Grüngutannahmestelle,Grüngutannahmestelle Otze,"Burgdorfer Str. 51 (Zufahrt über Hessenweg), 31303 Burgdorf",52.487203640286,10.008756816387,,,,"https://www.google.com/maps?q=52.487203640286,10.008756816387"
3.0,Grüngutannahmestelle,Grüngutannahmestelle Ramlingen,"Goldkuhle , 31303 Burgdorf",52.509907407512,9.9989640712738,,,,"https://www.google.com/maps?q=52.509907407512,9.9989640712738"
3.0,Grüngutannahmestelle,Grüngutannahmestelle Fuhrberg,"Kahlsweg (ca. 500m hinter dem Sportplatz), 30938 Burgwedel",52.576092833244,9.8403811454773,,,,"https://www.google.com/maps?q=52.576092833244,9.8403811454773"
3.0,Grüngutannahmestelle,Grüngutannahmestelle Thönse,"Neuwarmbüchener Straße , 30938 Burgwedel",52.492639146577,9.8993682861328,,,,"https://www.google.com/maps?q=52.492639146577,9.8993682861328"
3.0,Grüngutannahmestelle,Grüngutannahmestelle Wettmar,"Moodweg (Ecke Alter Damm) , 30938 Burgwedel",52.519691267991,9.9201929569244,,,,"https://www.google.com/maps?q=52.519691267991,9.9201929569244"
3.0,Grüngutannahmestelle,Grüngutannahmestelle Berenbostel,"Auf dem Kampe 50, 30827 Garbsen",52.435561273238,9.6292054653168,,,,"https://www.google.com/maps?q=52.435561273238,9.6292054653168"
3.0,Grüngutannahmestelle,"Grüngutannahmestelle Schloß Ricklingen, Garbsen","Nähe Burgstraße 125, 30826 Garbsen",52.423335,9.547402,,,,"https://www.google.com/maps?q=52.423335,9.547402"
3.0,Grüngutannahmestelle,Grüngutannahmestelle Gehrden,"Levester Straße 38, 30989 Gehrden",52.320528058383,9.5848846435547,,,,"https://www.google.com/maps?q=52.320528058383,9.5848846435547"
3.0,Grüngutannahmestelle,Grüngutannahmestelle Ohlendorf,"Bruchweg 20, 30966 Hemmingen",52.285071084691,9.7186517715454,,,,"https://www.google.com/maps?q=52.285071084691,9.7186517715454"
3.0,Grüngutannahmestelle,Grüngutannahmestelle Kirchhorst,"Krümpelweg 10, 30916 Isernhagen",52.449183800016,9.9146085977554,,,,"https://www.google.com/maps?q=52.449183800016,9.9146085977554"
3.0,Grüngutannahmestelle,Grüngutannahmestelle Niedernhägener Bauerschaft,"Am Ortfelde 72, 30916 Isernhagen",52.456016366324,9.8012638092041,,,,"https://www.google.com/maps?q=52.456016366324,9.8012638092041"
3.0,Grüngutannahmestelle,Grüngutannahmestelle Farster Bauerschaft,"Hauptstraße 25a, 30916 Isernhagen",52.469021465676,9.8363953828812,,,,"https://www.google.com/maps?q=52.469021465676,9.8363953828812"
3.0,Grüngutannahmestelle,Grüngutannahmestelle Ingeln,"Stiftungsstraße 1, 30880 Laatzen",52.275898084274,9.8971313238144,,,,"https://www.google.com/maps?q=52.275898084274,9.8971313238144"
3.0,Grüngutannahmestelle,Grüngutannahmestelle Kaltenweide,"Kananoher Straße (Ecke Auf der Heide - Einfahrt in der Feldmark) , 30855 Langenhagen",52.475704354521,9.7176218032837,,,,"https://www.google.com/maps?q=52.475704354521,9.7176218032837"
3.0,Grüngutannahmestelle,Grüngutannahmestelle Krähenwinkel,"Walsroder Straße 209, 30855 Langenhagen",52.458405879733,9.7429740428925,,,,"https://www.google.com/maps?q=52.458405879733,9.7429740428925"
3.0,Grüngutannahmestelle,Grüngutannahmestelle Schulenburg,"Dorfstraße 28, 30855 Langenhagen",52.444007997618,9.674813747406,,,,"https://www.google.com/maps?q=52.444007997618,9.674813747406"
3.0,Grüngutannahmestelle,Grüngutannahmestelle Arpke,"Zum Grafhorn , 31275 Lehrte",52.389096619773,10.100555419922,,,,"https://www.google.com/maps?q=52.389096619773,10.100555419922"
3.0,Grüngutannahmestelle,Grüngutannahmestelle Lehrte,"Sehnder Landstraße , 31275 Lehrte",52.348935234304,9.9803458193329,,,,"https://www.google.com/maps?q=52.348935234304,9.9803458193329"
3.0,Grüngutannahmestelle,Grüngutannahmestelle Amedorf,Pungemühle,52.597952607939,9.5441257953644,,,,"https://www.google.com/maps?q=52.597952607939,9.5441257953644"
3.0,Grüngutannahmestelle,Grüngutannahmestelle Esperke,Hoper Straße 3,52.636771476091,9.6097272634506,,,,"https://www.google.com/maps?q=52.636771476091,9.6097272634506"
3.0,Grüngutannahmestelle,Grüngutannahmestelle Mardorf,Haesterkamp 9,52.493057217872,9.2932426929474,,,,"https://www.google.com/maps?q=52.493057217872,9.2932426929474"
3.0,Grüngutannahmestelle,Grüngutannahmestelle Metel,Meteler Straße 8,52.547959828497,9.547124505043,,,,"https://www.google.com/maps?q=52.547959828497,9.547124505043"
3.0,Grüngutannahmestelle,Grüngutannahmestelle Poggenhagen,Am Schiffgraben 25,52.480742046311,9.4444227218628,,,,"https://www.google.com/maps?q=52.480742046311,9.4444227218628"
3.0,Grüngutannahmestelle,Grüngutannahmestelle Schneeren,Im Nordfeld,52.537565370465,9.3246030807495,,,,"https://www.google.com/maps?q=52.537565370465,9.3246030807495"
3.0,Grüngutannahmestelle,Grüngutannahmestelle Wulfelade,Lohbergstraße 10,52.572415403769,9.4977611303329,,,,"https://www.google.com/maps?q=52.572415403769,9.4977611303329"
3.0,Grüngutannahmestelle,Grüngutannahmestelle Koldingen,"Ruther Weg 1, 30982 Pattensen",52.271105489463,9.7966021299362,,,,"https://www.google.com/maps?q=52.271105489463,9.7966021299362"
3.0,Grüngutannahmestelle,Grüngutannahmestelle Benthe,"Hengstweg , 30952 Ronnenberg",52.339439931848,9.6299082040787,,,,"https://www.google.com/maps?q=52.339439931848,9.6299082040787"
3.0,Grüngutannahmestelle,Grüngutannahmestelle Ihme-Roloven,"Teichstraße 6, 30952 Ronnenberg",52.305130198767,9.6762996912003,,,,"https://www.google.com/maps?q=52.305130198767,9.6762996912003"
3.0,Grüngutannahmestelle,Grüngutannahmestelle Döteberg,"Hinterm Kampe , 30926 Seelze",52.371987269152,9.5946961641312,,,,"https://www.google.com/maps?q=52.371987269152,9.5946961641312"
3.0,Grüngutannahmestelle,Grüngutannahmestelle Bolzum,"Pfingstanger , 31319 Sehnde",52.301736579745,9.9457222223282,,,,"https://www.google.com/maps?q=52.301736579745,9.9457222223282"
3.0,Grüngutannahmestelle,Grüngutannahmestelle Ilten,"Glückauf-Straße , 31319 Sehnde",52.347541328334,9.9480128288269,,,,"https://www.google.com/maps?q=52.347541328334,9.9480128288269"
3.0,Grüngutannahmestelle,Grüngutannahmestelle Altenhagen,"Alte Landstraße 1, 31832 Springe",52.175432701448,9.5207047462463,,,,"https://www.google.com/maps?q=52.175432701448,9.5207047462463"
3.0,Grüngutannahmestelle,Grüngutannahmestelle Lüdersen,"Hiddestorfer Straße 8, 31832 Springe",52.251878477893,9.6742826700211,,,,"https://www.google.com/maps?q=52.251878477893,9.6742826700211"
3.0,Grüngutannahmestelle,Grüngutannahmestelle Völksen,"In der Ahnt , 31832 Springe",52.212850088118,9.6366995573044,,,,"https://www.google.com/maps?q=52.212850088118,9.6366995573044"
3.0,Grüngutannahmestelle,Grüngutannahmestelle Eltze,"Warmser Weg , 31311 Uetze",52.46250468827,10.271750092506,,,,"https://www.google.com/maps?q=52.46250468827,10.271750092506"
3.0,Grüngutannahmestelle,Grüngutannahmestelle Hänigsen,"Burgdorfer Berg (ca. 100m hinter Ortsausgang, Richtung Dachtmissen), 31311 Uetze",52.479660629189,10.081994533539,,,,"https://www.google.com/maps?q=52.479660629189,10.081994533539"
3.0,Grüngutannahmestelle,Grüngutannahmestelle Abbensen,"Dunkler Weg 9, 30900 Wedemark",52.566667172397,9.6146142482758,,,,"https://www.google.com/maps?q=52.566667172397,9.6146142482758"
3.0,Grüngutannahmestelle,Grüngutannahmestelle Bissendorf,"Isernhägener Damm 1, 30900 Wedemark",52.517954685685,9.7627633810043,,,,"https://www.google.com/maps?q=52.517954685685,9.7627633810043"
3.0,Grüngutannahmestelle,Grüngutannahmestelle Brelingen,"Düsternstraße 9, 30900 Wedemark",52.550424048746,9.6806207299232,,,,"https://www.google.com/maps?q=52.550424048746,9.6806207299232"
3.0,Grüngutannahmestelle,Grüngutannahmestelle Elze,"Hohenheider Straße , 30900 Wedemark",52.590817818371,9.7378699606024,,,,"https://www.google.com/maps?q=52.590817818371,9.7378699606024"
3.0,Grüngutannahmestelle,Grüngutannahmestelle Mellendorf,"Salhop 4, 30900 Wedemark",52.545715212131,9.7170590438849,,,,"https://www.google.com/maps?q=52.545715212131,9.7170590438849"
3.0,Grüngutannahmestelle,Grüngutannahmestelle Bredenbeck,Steinkrüger Weg 50,52.247500622771,9.6225589513779,,,,"https://www.google.com/maps?q=52.247500622771,9.6225589513779"
3.0,Grüngutannahmestelle,Grüngutannahmestelle Bokeloh,"Cronsbostel 8, 31515 Wunstorf",52.419758968482,9.3910253047943,,,,"https://www.google.com/maps?q=52.419758968482,9.3910253047943"
3.0,Grüngutannahmestelle,Grüngutannahmestelle Luthe,"Karl-Gutkes-Weg , 31515 Wunstorf",52.438385694883,9.4678535623857,,,,"https://www.google.com/maps?q=52.438385694883,9.4678535623857"
3.0,Grüngutannahmestelle,Grüngutannahmestelle Kolenfeld,"Bültenstr. 43, 31515 Wunstorf",52.381132906164,9.456077141749,,,,"https://www.google.com/maps?q=52.381132906164,9.456077141749"
1.0,Wertstoffhöfe,Heinr.-Nordhoff-Ring Nr.1 30826 Garbsen,"Heinr.-Nordhoff-Ring Nr. 1, 30826 Garbsen (Osterwald OE)",52.446764001702,9.5879226064384,,,,"https://www.google.com/maps?q=52.446764001702,9.5879226064384"
1.0,Wertstoffhöfe,Nordstraße 30989 Gehrden,"Nordstraße , 30989 Gehrden (auf d. Gelände der Pumpstation)",52.3251,9.60222,,,,"https://www.google.com/maps?q=52.3251,9.60222"
1.0,Wertstoffhöfe,R.-Diesel-Ring 3 31535 Neustadt a. Rbge,"R.-Diesel-Ring 3 31535 Neustadt a., Rbge (Neustadt a. Rbge)",52.507266299243,9.4810401645921,,,,"https://www.google.com/maps?q=52.507266299243,9.4810401645921"
1.0,Wertstoffhöfe,Ludwig-Erhard-Str. 22 30982 Pattensen,"Ludwig-Erhard-Str. 22, 30982 Pattensen (Pattensen)",52.262427777606,9.7794676669937,,,,"https://www.google.com/maps?q=52.262427777606,9.7794676669937"
1.0,Wertstoffhöfe,Mengendamm 15 30177 Hannover,"Mengendamm 15, 30177 Hannover (List)",52.399071618769,9.7581508973264,,,,"https://www.google.com/maps?q=52.399071618769,9.7581508973264"
1.0,Wertstoffhöfe,Empelder Straße 30952 Ronnenberg,"Empelder Straße , 30952 Ronnenberg (hinter den Kleingärten)",52.318850592725,9.6604622607647,,,,"https://www.google.com/maps?q=52.318850592725,9.6604622607647"
1.0,Wertstoffhöfe,Werftstr. 14 30926 Seelze,"Werftstr. 14, 30926 Seelze (Lohnde)",52.395402476672,9.567517036546,,,,"https://www.google.com/maps?q=52.395402476672,9.567517036546"
1.0,Wertstoffhöfe,Borsigring 31319 Sehnde,"Borsigring , 31319 Sehnde (Sehnde)",52.317097131359,9.9781028028552,,,,"https://www.google.com/maps?q=52.317097131359,9.9781028028552"
1.0,Wertstoffhöfe,Oppelner Straße 31832 Springe,"Oppelner Straße , 31832 Springe (Springe)",52.20977329345,9.5675488878521,,,,"https://www.google.com/maps?q=52.20977329345,9.5675488878521"
1.0,Wertstoffhöfe,Wietzegraben 43 30179 Hannover,"Wietzegraben 43, 30179 Hannover (Sahlkamp)",52.409947366808,9.7697163479084,,,,"https://www.google.com/maps?q=52.409947366808,9.7697163479084"
1.0,Wertstoffhöfe,Bornumer Str. 143 30453 Hannover,"Bornumer Str. 143, 30453 Hannover (Bornum)",52.351664458422,9.6921947881979,,,,"https://www.google.com/maps?q=52.351664458422,9.6921947881979"
1.0,Wertstoffhöfe,Auf Der Haube 3 30900 Wedemark,"Auf Der Haube 3, 30900 Wedemark (Bissendorf)",52.516131571938,9.7361282766384,,,,"https://www.google.com/maps?q=52.516131571938,9.7361282766384"
1.0,Wertstoffhöfe,Schörlingstr. 3a 30453 Hannover,"Schörlingstr. 3a, 30453 Hannover (Linden-Mitte)",52.36418326368,9.683798958676,,,,"https://www.google.com/maps?q=52.36418326368,9.683798958676"
1.0,Wertstoffhöfe,Hansastr. 7 30419 Hannover,"Hansastr. 7, 30419 Hannover (Nordhafen)",52.421529005922,9.6799507169444,,,,"https://www.google.com/maps?q=52.421529005922,9.6799507169444"
1.0,Wertstoffhöfe,Tiestestr. 10 30171 Hannover,"Tiestestr. 10, 30171 Hannover (Südstadt)",52.365363483591,9.7613335179974,,,,"https://www.google.com/maps?q=52.365363483591,9.7613335179974"
1.0,Wertstoffhöfe,Gertrud-Knebusch-Str. 2 30167 Hannover,"Gertrud-Knebusch-Str. 2, 30167 Hannover (Nordstadt)",52.38801279255,9.7281909210559,,,,"https://www.google.com/maps?q=52.38801279255,9.7281909210559"
2.0,Deponien und angeschlossene Wertstoffhöfe,Moorwaldweg 312 30659 Hannover,"Moorwaldweg 312, 30659 Hannover (Deponie Lahe)",52.410934155574,9.8575626831488,,,,"https://www.google.com/maps?q=52.410934155574,9.8575626831488"
2.0,Deponien und angeschlossene Wertstoffhöfe,Steinwedeler Straße 31303 Burgdorf,"Steinwedeler Straße , 31303 Burgdorf (Deponie Burgdorf)",52.431237134634,10.019282645434,,,,"https://www.google.com/maps?q=52.431237134634,10.019282645434"
2.0,Deponien und angeschlossene Wertstoffhöfe,31515 Wunstorf,31515 Wunstorf (Deponie Kolenfeld),52.384702169133,9.4510409924926,,,,"https://www.google.com/maps?q=52.384702169133,9.4510409924926"
5.0,Wertstoffinsel,Dahlienstr. Barsinghausen / Alt-Barsinghau - Ecke Langenäcker,"Dahlienstr. , Barsinghausen / Alt-Barsinghau",52.306141120487,9.4745159407875,True,False,False,"https://www.google.com/maps?q=52.306141120487,9.4745159407875"
5.0,Wertstoffinsel,Deisterstr. Barsinghausen / Alt-Barsinghau - Ecke Am Waldhof,"Deisterstr. , Barsinghausen / Alt-Barsinghau",52.298715377528,9.4630716136825,True,False,True,"https://www.google.com/maps?q=52.298715377528,9.4630716136825"
5.0,Wertstoffinsel,Kronskamp Barsinghausen / Bantorf - ggü. MC Donald´s,"Kronskamp , Barsinghausen / Bantorf",52.333842143556,9.4144643779511,True,False,False,"https://www.google.com/maps?q=52.333842143556,9.4144643779511"
5.0,Wertstoffinsel,Zur Kokemühle Barsinghausen / Barrigsen - Ecke Dunkle Straße,"Zur Kokemühle , Barsinghausen / Barrigsen",52.360412528273,9.4974474842666,True,False,True,"https://www.google.com/maps?q=52.360412528273,9.4974474842666"
5.0,Wertstoffinsel,Alte Dorfstr. 15 Barsinghausen / Eckerde - Altes Feuerwehrhaus,"Alte Dorfstr. 15 , Barsinghausen / Eckerde",52.32611977341,9.5169747593477,True,False,True,"https://www.google.com/maps?q=52.32611977341,9.5169747593477"
5.0,Wertstoffinsel,Stoppstr. Barsinghausen / Egestorf - Ecke Heinrich-Benne-Str. Edeka Parkplatz,"Stoppstr. , Barsinghausen / Egestorf",52.289104532281,9.5047414166154,True,False,True,"https://www.google.com/maps?q=52.289104532281,9.5047414166154"
5.0,Wertstoffinsel,Wennigser Str. Barsinghausen / Egestorf - Ecke Bahnhof,"Wennigser Str. , Barsinghausen / Egestorf",52.278665428838,9.515381680593,True,False,True,"https://www.google.com/maps?q=52.278665428838,9.515381680593"
5.0,Wertstoffinsel,Levester Str. 14 Barsinghausen / Göxe - Agravis,"Levester Str. 14 , Barsinghausen / Göxe",52.338740950677,9.5453178482743,True,False,True,"https://www.google.com/maps?q=52.338740950677,9.5453178482743"
5.0,Wertstoffinsel,Landstraße Barsinghausen / Kirchdorf - Ecke Die Heide,"Landstraße , Barsinghausen / Kirchdorf",52.296923831886,9.4947122258405,True,False,True,"https://www.google.com/maps?q=52.296923831886,9.4947122258405"
5.0,Wertstoffinsel,Max-Planck-Str Barsinghausen / Kirchdorf - Höhe Rehpfad,"Max-Planck-Str , Barsinghausen / Kirchdorf",52.287342209624,9.4832874222999,True,False,True,"https://www.google.com/maps?q=52.287342209624,9.4832874222999"
5.0,Wertstoffinsel,Am Deichfeld 27 Barsinghausen / Landringhausen - nähe Reitwiesenweg,"Am Deichfeld 27 , Barsinghausen / Landringhausen",52.353743802121,9.4614441171184,True,False,False,"https://www.google.com/maps?q=52.353743802121,9.4614441171184"
5.0,Wertstoffinsel,Hauptstr. Barsinghausen / Nordgoltern - Ecke Jupiterhof Parkplatz Freibad,"Hauptstr. , Barsinghausen / Nordgoltern",52.338310889563,9.5045088760255,True,False,True,"https://www.google.com/maps?q=52.338310889563,9.5045088760255"
5.0,Wertstoffinsel,Am Zimmereiplatz Ecke Mindener Barsinghausen / Stemmen - Busschleife,"Am Zimmereiplatz Ecke Mindener , Barsinghausen / Stemmen",52.341306972538,9.5164766500953,True,False,False,"https://www.google.com/maps?q=52.341306972538,9.5164766500953"
5.0,Wertstoffinsel,Feldweg Ecke Wichmarstr. Barsinghausen / Wichtringhause - Feuerwehr,"Feldweg Ecke Wichmarstr. , Barsinghausen / Wichtringhause",52.337147474632,9.4329004161331,True,False,True,"https://www.google.com/maps?q=52.337147474632,9.4329004161331"
5.0,Wertstoffinsel,Heerstr. Barsinghausen / Winninghausen - ggü. Friedhof zufahrt Wilhelm Busch Schule,"Heerstr. , Barsinghausen / Winninghausen",52.320487670718,9.4330019113049,True,False,True,"https://www.google.com/maps?q=52.320487670718,9.4330019113049"
5.0,Wertstoffinsel,An Der Mösch Burgdorf / Burgdorf - Ecke Schillerslager Str.,"An Der Mösch , Burgdorf / Burgdorf",52.444130278325,9.9949356885049,True,False,False,"https://www.google.com/maps?q=52.444130278325,9.9949356885049"
5.0,Wertstoffinsel,Eseringer Str. Burgdorf / Burgdorf - zw. Welfenstr u. Rübezahlweg,"Eseringer Str. , Burgdorf / Burgdorf",52.439347483426,10.001301025897,True,False,True,"https://www.google.com/maps?q=52.439347483426,10.001301025897"
5.0,Wertstoffinsel,Kleiner Brückendamm 29 Burgdorf / Burgdorf - Parkplatz ggü. Festplatz,"Kleiner Brückendamm 29 , Burgdorf / Burgdorf",52.446139715689,10.013461521881,True,False,True,"https://www.google.com/maps?q=52.446139715689,10.013461521881"
5.0,Wertstoffinsel,Marris-Mühlenweg Burgdorf / Burgdorf - Ecke Sperlingsweg,"Marris-Mühlenweg , Burgdorf / Burgdorf",52.453874643341,10.000438482054,True,False,True,"https://www.google.com/maps?q=52.453874643341,10.000438482054"
5.0,Wertstoffinsel,Scharlemannstr Burgdorf / Burgdorf - Höhe Stadion ggü. Bolzplatz,"Scharlemannstr , Burgdorf / Burgdorf",52.433154304131,10.017988314102,True,False,True,"https://www.google.com/maps?q=52.433154304131,10.017988314102"
5.0,Wertstoffinsel,Steinwedeler Str. 1 Burgdorf / Burgdorf - Deponie,"Steinwedeler Str. 1 , Burgdorf / Burgdorf",52.420800588266,10.01386563578,True,False,False,"https://www.google.com/maps?q=52.420800588266,10.01386563578"
5.0,Wertstoffinsel,Weserstr. Burgdorf / Burgdorf - Ecke Saalestr.,"Weserstr. , Burgdorf / Burgdorf",52.457910575489,9.9855473106383,True,False,True,"https://www.google.com/maps?q=52.457910575489,9.9855473106383"
5.0,Wertstoffinsel,Salzstr. Burgdorf / Dachtmissen - Ecke Am Mittelfeld,"Salzstr. , Burgdorf / Dachtmissen",52.464738897058,10.048804607532,True,False,True,"https://www.google.com/maps?q=52.464738897058,10.048804607532"
5.0,Wertstoffinsel,Rohrkampsweg Burgdorf / Heeßel - Ecke Dorfstr. Tankstelle,"Rohrkampsweg , Burgdorf / Heeßel",52.444668845459,9.9821325290404,True,False,True,"https://www.google.com/maps?q=52.444668845459,9.9821325290404"
5.0,Wertstoffinsel,Freiengericht Burgdorf / Otze -,"Freiengericht , Burgdorf / Otze",52.487728045848,10.01686202257,True,False,True,"https://www.google.com/maps?q=52.487728045848,10.01686202257"
5.0,Wertstoffinsel,Lehmkuhlenweg Burgdorf / Otze - Ecke Barwersweg,"Lehmkuhlenweg , Burgdorf / Otze",52.488910364978,10.004753338719,True,False,True,"https://www.google.com/maps?q=52.488910364978,10.004753338719"
5.0,Wertstoffinsel,Schwarzer Berg Burgdorf / Otze - Ecke Hauptstr. ggü. Plantagenweg,"Schwarzer Berg , Burgdorf / Otze",52.46154055219,10.02598775066,True,False,False,"https://www.google.com/maps?q=52.46154055219,10.02598775066"
5.0,Wertstoffinsel,Weidendamm Burgdorf / Ramlingen-Ehlershau - Ecke Edental,"Weidendamm , Burgdorf / Ramlingen-Ehlershau",52.526366361262,10.029694099124,True,False,True,"https://www.google.com/maps?q=52.526366361262,10.029694099124"
5.0,Wertstoffinsel,Zollstr. Burgdorf / Schillerslage - ehemalige B3 Richtung Alt Engenser Weg,"Zollstr. , Burgdorf / Schillerslage",52.471334695541,9.9756446966492,True,False,True,"https://www.google.com/maps?q=52.471334695541,9.9756446966492"
5.0,Wertstoffinsel,Alter Postweg Burgwedel / Engensen - nähe Karl-Jäger-Weg,"Alter Postweg , Burgwedel / Engensen",52.50283866163,9.9456096619744,True,False,True,"https://www.google.com/maps?q=52.50283866163,9.9456096619744"
5.0,Wertstoffinsel,Grasbruchweg 20 Burgwedel / Fuhrberg - Ecke Wielohweg,"Grasbruchweg 20 , Burgwedel / Fuhrberg",52.566627260751,9.861806207633,True,False,True,"https://www.google.com/maps?q=52.566627260751,9.861806207633"
5.0,Wertstoffinsel,Am Schützenplatz Ecke Fuhrberg Burgwedel / Großburgwedel - Festplatz,"Am Schützenplatz Ecke Fuhrberg , Burgwedel / Großburgwedel",52.498452870739,9.8593529565031,True,False,True,"https://www.google.com/maps?q=52.498452870739,9.8593529565031"
5.0,Wertstoffinsel,Auf der Ramhorst Burgwedel / Großburgwedel - FC Ramhorst,"Auf der Ramhorst , Burgwedel / Großburgwedel",52.481195375086,9.8637140282098,True,False,True,"https://www.google.com/maps?q=52.481195375086,9.8637140282098"
5.0,Wertstoffinsel,Pappelweg Burgwedel / Großburgwedel - Ecke An d. Wedel,"Pappelweg , Burgwedel / Großburgwedel",52.502372435528,9.8519305824094,True,False,True,"https://www.google.com/maps?q=52.502372435528,9.8519305824094"
5.0,Wertstoffinsel,Hornweg Burgwedel / Kleinburgwedel - Parkplatz TSV Kleinburgwedel,"Hornweg , Burgwedel / Kleinburgwedel",52.516232253615,9.8709294553465,True,False,True,"https://www.google.com/maps?q=52.516232253615,9.8709294553465"
5.0,Wertstoffinsel,Bruchstr. Burgwedel / Thönse - Ecke An d. Miere,"Bruchstr. , Burgwedel / Thönse",52.497063790872,9.9022363477047,True,False,True,"https://www.google.com/maps?q=52.497063790872,9.9022363477047"
5.0,Wertstoffinsel,Thönser Trift 75 Burgwedel / Wettmar - Ecke Meitzer Weg Parkplatz TSV Wettmar,"Thönser Trift 75 , Burgwedel / Wettmar",52.515873793241,9.9090322012116,True,False,True,"https://www.google.com/maps?q=52.515873793241,9.9090322012116"
5.0,Wertstoffinsel,Am Kanal Garbsen / Alt-Garbsen - Ecke Im Lerchenfeld,"Am Kanal , Garbsen / Alt-Garbsen",52.410573688399,9.5976588929766,True,False,True,"https://www.google.com/maps?q=52.410573688399,9.5976588929766"
5.0,Wertstoffinsel,Bachstr. Garbsen / Alt-Garbsen - Ecke Beethovenstr.,"Bachstr. , Garbsen / Alt-Garbsen",52.422321759707,9.585568054604,True,False,False,"https://www.google.com/maps?q=52.422321759707,9.585568054604"
5.0,Wertstoffinsel,Gutenbergstr. Garbsen / Alt-Garbsen - Praktika-Parkplatz,"Gutenbergstr. , Garbsen / Alt-Garbsen",52.420469720617,9.57272085785,True,False,True,"https://www.google.com/maps?q=52.420469720617,9.57272085785"
5.0,Wertstoffinsel,Hannoversche Str. Garbsen / Alt-Garbsen - Parkplatz TSV Havelse,"Hannoversche Str. , Garbsen / Alt-Garbsen",52.408864970176,9.6030751826162,True,False,True,"https://www.google.com/maps?q=52.408864970176,9.6030751826162"
5.0,Wertstoffinsel,Im Kleegrund Garbsen / Alt-Garbsen - Ecke Sandstr.,"Im Kleegrund , Garbsen / Alt-Garbsen",52.416647838854,9.6018727305655,True,False,False,"https://www.google.com/maps?q=52.416647838854,9.6018727305655"
5.0,Wertstoffinsel,Saturnring Garbsen / Auf Der Horst - Grundschule / Lehrerparkplatz,"Saturnring , Garbsen / Auf Der Horst",52.421950474919,9.6039742824716,True,False,True,"https://www.google.com/maps?q=52.421950474919,9.6039742824716"
5.0,Wertstoffinsel,Neuer Landweg 10 Garbsen / Berenbostel - ggü. Lidl,"Neuer Landweg 10 , Garbsen / Berenbostel",52.442684566419,9.6105546581614,True,True,True,"https://www.google.com/maps?q=52.442684566419,9.6105546581614"
5.0,Wertstoffinsel,Seeweg Garbsen / Berenbostel - Richtung Gutenbergstr.,"Seeweg , Garbsen / Berenbostel",52.434691710657,9.5875559973782,True,False,True,"https://www.google.com/maps?q=52.434691710657,9.5875559973782"
5.0,Wertstoffinsel,Farlingsweg Garbsen / Frielingen - Festplatz,"Farlingsweg , Garbsen / Frielingen",52.464417897091,9.5194618203368,True,False,True,"https://www.google.com/maps?q=52.464417897091,9.5194618203368"
5.0,Wertstoffinsel,Havelser Str. Garbsen / Garbsen-Mitte - Ecke Berenbosteler Str. P-Platz Nord-West-Zentrum,"Havelser Str. , Garbsen / Garbsen-Mitte",52.425051675557,9.5952075171288,True,False,True,"https://www.google.com/maps?q=52.425051675557,9.5952075171288"
5.0,Wertstoffinsel,Resser Str. 1a Garbsen / Heitlingen - Ecke Hauptstr.,"Resser Str. 1a , Garbsen / Heitlingen",52.46859089952,9.6182441056527,True,False,True,"https://www.google.com/maps?q=52.46859089952,9.6182441056527"
5.0,Wertstoffinsel,Steinwartskamp Garbsen / Horst - Ecke Andreaestr. Skaterpark,"Steinwartskamp , Garbsen / Horst",52.440491133392,9.5519723580332,True,False,True,"https://www.google.com/maps?q=52.440491133392,9.5519723580332"
5.0,Wertstoffinsel,Schützenstr. Garbsen / Meyenfeld - Ecke Im Bleeke,"Schützenstr. , Garbsen / Meyenfeld",52.44384904671,9.5681099730183,True,False,True,"https://www.google.com/maps?q=52.44384904671,9.5681099730183"
5.0,Wertstoffinsel,Hanosanstr. Garbsen / Osterwald Ue - Ecke Marienburger Str.,"Hanosanstr. , Garbsen / Osterwald Ue",52.458412822711,9.545323370253,True,False,True,"https://www.google.com/maps?q=52.458412822711,9.545323370253"
5.0,Wertstoffinsel,Karl-Prendel-Str. Richtung Am Garbsen / Schloß Ricklingen - Burgstraße,"Karl-Prendel-Str. Richtung Am , Garbsen / Schloß Ricklingen",52.428200593839,9.503784364616,True,False,True,"https://www.google.com/maps?q=52.428200593839,9.503784364616"
5.0,Wertstoffinsel,Am Hechtkamp Garbsen / Stelingen - Corinthstr. Parkplatz Turnclub,"Am Hechtkamp , Garbsen / Stelingen",52.441024800958,9.6202561827529,True,False,True,"https://www.google.com/maps?q=52.441024800958,9.6202561827529"
5.0,Wertstoffinsel,Heitlinger Str. Garbsen / Stelingen - Ecke Waidmannsweg,"Heitlinger Str. , Garbsen / Stelingen",52.450504118013,9.6247302426582,True,False,True,"https://www.google.com/maps?q=52.450504118013,9.6247302426582"
5.0,Wertstoffinsel,Ditterker Weg Gehrden / Gehrden - ggü. Am Spehrteich,"Ditterker Weg , Gehrden / Gehrden",52.320542581277,9.5940976922802,True,False,False,"https://www.google.com/maps?q=52.320542581277,9.5940976922802"
5.0,Wertstoffinsel,Nordstr. Gehrden / Gehrden - Wertstoffhof,"Nordstr. , Gehrden / Gehrden",52.325501569631,9.6019556857668,True,False,False,"https://www.google.com/maps?q=52.325501569631,9.6019556857668"
5.0,Wertstoffinsel,Parkstr. Gehrden / Gehrden - Ecke Lemmier Str.,"Parkstr. , Gehrden / Gehrden",52.306286772972,9.6023257292103,True,False,False,"https://www.google.com/maps?q=52.306286772972,9.6023257292103"
5.0,Wertstoffinsel,Mühlenweg Gehrden / Lenthe - Ecke Meierwiese,"Mühlenweg , Gehrden / Lenthe",52.359254393561,9.6137507312779,True,False,True,"https://www.google.com/maps?q=52.359254393561,9.6137507312779"
5.0,Wertstoffinsel,Osterstraße Gehrden / Leveste - am Friedhof,"Osterstraße , Gehrden / Leveste",52.320429573124,9.5563752449007,True,False,True,"https://www.google.com/maps?q=52.320429573124,9.5563752449007"
5.0,Wertstoffinsel,ggü. Große Str. 58 Gehrden / Northen - An der Pumpstation,"ggü. Große Str. 58 , Gehrden / Northen",52.348005426797,9.6036266322491,True,False,True,"https://www.google.com/maps?q=52.348005426797,9.6036266322491"
5.0,Wertstoffinsel,Am Bahndamm 17 Hannover / Ahlem - ggü. E-Center ( Parkbucht),"Am Bahndamm 17 , Hannover / Ahlem",52.385197497479,9.6706646014535,True,False,True,"https://www.google.com/maps?q=52.385197497479,9.6706646014535"
5.0,Wertstoffinsel,Am Bahndamm 54 Hannover / Ahlem - ggü. VW Raupers,"Am Bahndamm 54 , Hannover / Ahlem",52.388721629414,9.6595061898318,True,False,True,"https://www.google.com/maps?q=52.388721629414,9.6595061898318"
5.0,Wertstoffinsel,Geveker Kamp Hannover / Ahlem - ggü. Bergkammstr.,"Geveker Kamp , Hannover / Ahlem",52.374785507189,9.6676570490966,True,False,False,"https://www.google.com/maps?q=52.374785507189,9.6676570490966"
5.0,Wertstoffinsel,"Heisterbergallee 99 Hannover / Ahlem - vor Rewe, Nähe Am Asph","Heisterbergallee 99 , Hannover / Ahlem",52.376500096261,9.6601173844302,True,False,False,"https://www.google.com/maps?q=52.376500096261,9.6601173844302"
5.0,Wertstoffinsel,Krugstr. 10 Hannover / Ahlem - Höhe Feuerwehr,"Krugstr. 10 , Hannover / Ahlem",52.385092128135,9.6654469219252,True,False,True,"https://www.google.com/maps?q=52.385092128135,9.6654469219252"
5.0,Wertstoffinsel,Tegtmeyerallee 25 Hannover / Ahlem - In der Kurve,"Tegtmeyerallee 25 , Hannover / Ahlem",52.380435504521,9.6685503086623,True,False,False,"https://www.google.com/maps?q=52.380435504521,9.6685503086623"
5.0,Wertstoffinsel,Eisteichweg Ecke Wartheweg Hannover / Anderten - Parkplatz Sportfreunde Anderten,"Eisteichweg Ecke Wartheweg , Hannover / Anderten",52.366072423257,9.8498935967216,True,False,True,"https://www.google.com/maps?q=52.366072423257,9.8498935967216"
5.0,Wertstoffinsel,Freidingstr. 4 Hannover / Anderten - Höhe St.-Martins-Kirche,"Freidingstr. 4 , Hannover / Anderten",52.361366807533,9.8541208330074,True,False,True,"https://www.google.com/maps?q=52.361366807533,9.8541208330074"
5.0,Wertstoffinsel,Gollstr. 78 Hannover / Anderten - Nordwaldstr. / Kanal,"Gollstr. 78 , Hannover / Anderten",52.367820637354,9.8592831629893,True,False,False,"https://www.google.com/maps?q=52.367820637354,9.8592831629893"
5.0,Wertstoffinsel,Königsberger Ring 210 Hannover / Anderten - Richtung Lehrter Str.,"Königsberger Ring 210 , Hannover / Anderten",52.35859863349,9.8514976594365,True,False,True,"https://www.google.com/maps?q=52.35859863349,9.8514976594365"
5.0,Wertstoffinsel,Luhnenstr. 7 Hannover / Anderten - Ecke Krumme Straße,"Luhnenstr. 7 , Hannover / Anderten",52.363309855897,9.857697660013,True,False,True,"https://www.google.com/maps?q=52.363309855897,9.857697660013"
5.0,Wertstoffinsel,Ohefeldweg 15 Hannover / Anderten - Ecke Königsberger Ring,"Ohefeldweg 15 , Hannover / Anderten",52.356831399183,9.8534460274899,True,False,True,"https://www.google.com/maps?q=52.356831399183,9.8534460274899"
5.0,Wertstoffinsel,Sehnder Str.1 Hannover / Anderten - Ecke Gollstr.,"Sehnder Str.1 , Hannover / Anderten",52.359648613692,9.8579792036232,True,False,False,"https://www.google.com/maps?q=52.359648613692,9.8579792036232"
5.0,Wertstoffinsel,Benther-Berg-Str. 39 Hannover / Badenstedt - Höhe Salzhemmendorfer St,"Benther-Berg-Str. 39 , Hannover / Badenstedt",52.361470220886,9.6724640321183,True,False,False,"https://www.google.com/maps?q=52.361470220886,9.6724640321183"
5.0,Wertstoffinsel,Fränkische Straße 12 Hannover / Badenstedt - Bei der großen Werkhalle,"Fränkische Straße 12 , Hannover / Badenstedt",52.34975062363,9.6653858782438,True,False,True,"https://www.google.com/maps?q=52.34975062363,9.6653858782438"
5.0,Wertstoffinsel,Hermann-Ehlers-Allee 26 Hannover / Badenstedt - Höhe Frobeniusweg,"Hermann-Ehlers-Allee 26 , Hannover / Badenstedt",52.35458334769,9.6756338238986,True,False,True,"https://www.google.com/maps?q=52.35458334769,9.6756338238986"
5.0,Wertstoffinsel,Petermannstr. 49 Ecke Auf der Hannover / Badenstedt -,"Petermannstr. 49 Ecke Auf der , Hannover / Badenstedt",52.357035980861,9.682205559921,True,False,True,"https://www.google.com/maps?q=52.357035980861,9.682205559921"
5.0,Wertstoffinsel,Sternheimweg 33 Hannover / Badenstedt - Ecke K49 (Lenther Chaussee),"Sternheimweg 33 , Hannover / Badenstedt",52.356494293776,9.6572202362463,True,False,True,"https://www.google.com/maps?q=52.356494293776,9.6572202362463"
5.0,Wertstoffinsel,Alte Bemeroder Str. 100 Hannover / Bemerode - nahe Emslandstr.,"Alte Bemeroder Str. 100 , Hannover / Bemerode",52.344808914261,9.8220195467594,True,False,True,"https://www.google.com/maps?q=52.344808914261,9.8220195467594"
5.0,Wertstoffinsel,Anecampstr. 22 Hannover / Bemerode - Ecke Gerdingstr.,"Anecampstr. 22 , Hannover / Bemerode",52.34962175736,9.8344413372132,True,False,True,"https://www.google.com/maps?q=52.34962175736,9.8344413372132"
5.0,Wertstoffinsel,Anecampstr. 2A Hannover / Bemerode - Ecke Berkelmannstr.,"Anecampstr. 2A , Hannover / Bemerode",52.345999071365,9.8279724867238,True,False,True,"https://www.google.com/maps?q=52.345999071365,9.8279724867238"
5.0,Wertstoffinsel,Brüsseler Str. 5 Hannover / Bemerode - zwischen den Stichwegen,"Brüsseler Str. 5 , Hannover / Bemerode",52.324992543012,9.8221511132685,True,False,True,"https://www.google.com/maps?q=52.324992543012,9.8221511132685"
5.0,Wertstoffinsel,Feldbuschwende 2 Hannover / Bemerode - Ecke Oheriedentrift,"Feldbuschwende 2 , Hannover / Bemerode",52.342446412143,9.8370952929144,True,False,True,"https://www.google.com/maps?q=52.342446412143,9.8370952929144"
5.0,Wertstoffinsel,Försterkamp 7 Hannover / Bemerode - Ecke Jakobskamp,"Försterkamp 7 , Hannover / Bemerode",52.334820889888,9.8360266792604,True,False,False,"https://www.google.com/maps?q=52.334820889888,9.8360266792604"
5.0,Wertstoffinsel,Hinter Dem Dorfe 10 Hannover / Bemerode - Höhe der Mauer des Guts,"Hinter Dem Dorfe 10 , Hannover / Bemerode",52.341392646716,9.8258607593069,True,False,True,"https://www.google.com/maps?q=52.341392646716,9.8258607593069"
5.0,Wertstoffinsel,In der Bebie 1 Hannover / Bemerode - Höhe Hermann-Hesse-Str.,"In der Bebie 1 , Hannover / Bemerode",52.351702128408,9.8377546588099,True,False,True,"https://www.google.com/maps?q=52.351702128408,9.8377546588099"
5.0,Wertstoffinsel,Kattenbrookstrift 31 Hannover / Bemerode - Ecke Ortskamp,"Kattenbrookstrift 31 , Hannover / Bemerode",52.332363377907,9.8288038513748,True,False,True,"https://www.google.com/maps?q=52.332363377907,9.8288038513748"
5.0,Wertstoffinsel,Oheriedentrift 4 Hannover / Bemerode - Ecke Thie,"Oheriedentrift 4 , Hannover / Bemerode",52.338962102989,9.8339764630521,True,False,True,"https://www.google.com/maps?q=52.338962102989,9.8339764630521"
5.0,Wertstoffinsel,Wülfeler Str. 41 Hannover / Bemerode - Höhe Aschendorfer Str. Bushaltestelle,"Wülfeler Str. 41 , Hannover / Bemerode",52.338626128195,9.8190280219117,True,False,True,"https://www.google.com/maps?q=52.338626128195,9.8190280219117"
5.0,Wertstoffinsel,Bornumer Str. 143 Hannover / Bornum - Wertstoffhof,"Bornumer Str. 143 , Hannover / Bornum",52.351664458422,9.6921947881979,True,False,False,"https://www.google.com/maps?q=52.351664458422,9.6921947881979"
5.0,Wertstoffinsel,Im Dorfe 7 Hannover / Bornum - zw. Hudeplan und An der Feldmark,"Im Dorfe 7 , Hannover / Bornum",52.349455393942,9.6871245650513,True,False,True,"https://www.google.com/maps?q=52.349455393942,9.6871245650513"
5.0,Wertstoffinsel,Ada-Lessing-Str. 146 Hannover / Bothfeld - Ecke Im Wiesengrund,"Ada-Lessing-Str. 146 , Hannover / Bothfeld",52.421206739421,9.7815590023847,True,False,True,"https://www.google.com/maps?q=52.421206739421,9.7815590023847"
5.0,Wertstoffinsel,Ada-Lessing-Str. 154 Hannover / Bothfeld - Ecke Langenforther S,"Ada-Lessing-Str. 154 , Hannover / Bothfeld",52.42292324307,9.781662886594,True,False,True,"https://www.google.com/maps?q=52.42292324307,9.781662886594"
5.0,Wertstoffinsel,Adolf-Emmelmann-Str. 7 Hannover / Bothfeld - Ecke Gebrüder-Hartma,"Adolf-Emmelmann-Str. 7 , Hannover / Bothfeld",52.409041712041,9.8018228048869,True,True,False,"https://www.google.com/maps?q=52.409041712041,9.8018228048869"
5.0,Wertstoffinsel,An den Hilligenwöhren 3 Hannover / Bothfeld - Einmündung Carl-Log,"An den Hilligenwöhren 3 , Hannover / Bothfeld",52.421377596088,9.7910175634851,True,False,True,"https://www.google.com/maps?q=52.421377596088,9.7910175634851"
5.0,Wertstoffinsel,Eichenweg Hannover / Bothfeld - Nähe Burgwedeler Str.,"Eichenweg , Hannover / Bothfeld",52.429099135911,9.8018925783859,True,False,True,"https://www.google.com/maps?q=52.429099135911,9.8018925783859"
5.0,Wertstoffinsel,Gartenheimstr. 23 Hannover / Bothfeld - vor Schule,"Gartenheimstr. 23 , Hannover / Bothfeld",52.419600715801,9.803867140772,True,False,True,"https://www.google.com/maps?q=52.419600715801,9.803867140772"
5.0,Wertstoffinsel,Hartenbrakenstr. 48 Hannover / Bothfeld - Höhe Oldekopstr.,"Hartenbrakenstr. 48 , Hannover / Bothfeld",52.424339801885,9.8063504780151,True,False,True,"https://www.google.com/maps?q=52.424339801885,9.8063504780151"
5.0,Wertstoffinsel,Im Heidkampe 20 Hannover / Bothfeld - Ecke Klein Buchholzer Kirch,"Im Heidkampe 20 , Hannover / Bothfeld",52.41048271225,9.8054214599394,True,False,True,"https://www.google.com/maps?q=52.41048271225,9.8054214599394"
5.0,Wertstoffinsel,Kugelfangtrift 134 Hannover / Bothfeld - Nähe Neidenburger Weg,"Kugelfangtrift 134 , Hannover / Bothfeld",52.415381695835,9.782794019237,True,False,True,"https://www.google.com/maps?q=52.415381695835,9.782794019237"
5.0,Wertstoffinsel,Laher Kirchweg 16 Hannover / Bothfeld - Nähe Luise-Blume-Str.,"Laher Kirchweg 16 , Hannover / Bothfeld",52.411857858398,9.8094308075857,True,False,True,"https://www.google.com/maps?q=52.411857858398,9.8094308075857"
5.0,Wertstoffinsel,Posener Str. 55 Hannover / Bothfeld - Spielplatz Nähe Eulenkamp,"Posener Str. 55 , Hannover / Bothfeld",52.408267021226,9.7913710484751,True,False,True,"https://www.google.com/maps?q=52.408267021226,9.7913710484751"
5.0,Wertstoffinsel,Prinz-Albrecht-Ring 67 Hannover / Bothfeld - Nähe V-Markt,"Prinz-Albrecht-Ring 67 , Hannover / Bothfeld",52.41339180662,9.7913451584942,True,False,True,"https://www.google.com/maps?q=52.41339180662,9.7913451584942"
5.0,Wertstoffinsel,Riethorst 15 Hannover / Bothfeld - Einmündung Thieshof,"Riethorst 15 , Hannover / Bothfeld",52.410852749484,9.8157048082904,True,False,True,"https://www.google.com/maps?q=52.410852749484,9.8157048082904"
5.0,Wertstoffinsel,Sahlkamp Hannover / Bothfeld - zw. Ada-Lessing-Str. u. Cranzer Weg,"Sahlkamp , Hannover / Bothfeld",52.410269435788,9.7836444133858,True,False,False,"https://www.google.com/maps?q=52.410269435788,9.7836444133858"
5.0,Wertstoffinsel,Tollenbrink Hannover / Bothfeld - von Sündernstr. aus hinter HEM,"Tollenbrink , Hannover / Bothfeld",52.413789260218,9.7950867920303,True,False,True,"https://www.google.com/maps?q=52.413789260218,9.7950867920303"
5.0,Wertstoffinsel,Bischofsholer Damm 43 Hannover / Bult - Ecke Heiligengeiststr.,"Bischofsholer Damm 43 , Hannover / Bult",52.36689486025,9.7678222262232,True,False,True,"https://www.google.com/maps?q=52.36689486025,9.7678222262232"
5.0,Wertstoffinsel,Bultstr. 16 Hannover / Bult - Landesbühne / DB-Brücke,"Bultstr. 16 , Hannover / Bult",52.372529385902,9.7584748450138,True,False,False,"https://www.google.com/maps?q=52.372529385902,9.7584748450138"
5.0,Wertstoffinsel,Lindemannallee 23 Parkplatz Na Hannover / Bult - Pf,"Lindemannallee 23 Parkplatz Na , Hannover / Bult",52.359044374065,9.7708433394552,True,False,True,"https://www.google.com/maps?q=52.359044374065,9.7708433394552"
5.0,Wertstoffinsel,Willestr. 2 Hannover / Bult - Nähe Freundallee,"Willestr. 2 , Hannover / Bult",52.368527908593,9.7710818526684,True,False,True,"https://www.google.com/maps?q=52.368527908593,9.7710818526684"
5.0,Wertstoffinsel,Am Fuhrenkampe 21 Hannover / Burg - Ecke Innersteweg,"Am Fuhrenkampe 21 , Hannover / Burg",52.409281369297,9.6927876644679,True,False,True,"https://www.google.com/maps?q=52.409281369297,9.6927876644679"
5.0,Wertstoffinsel,Am Herrenhäuser Bahnhof 18 Hannover / Burg - Schierker Weg,"Am Herrenhäuser Bahnhof 18 , Hannover / Burg",52.399963319377,9.6903781964835,True,False,True,"https://www.google.com/maps?q=52.399963319377,9.6903781964835"
5.0,Wertstoffinsel,Gretelriede 42 Hannover / Burg - Ecke Zellerfelder Allee,"Gretelriede 42 , Hannover / Burg",52.408830038742,9.6915604022033,True,False,False,"https://www.google.com/maps?q=52.408830038742,9.6915604022033"
5.0,Wertstoffinsel,Harzburger Platz 11 Hannover / Burg - Nähe Goslarsche Str.,"Harzburger Platz 11 , Hannover / Burg",52.404259961489,9.6905187648637,True,False,True,"https://www.google.com/maps?q=52.404259961489,9.6905187648637"
5.0,Wertstoffinsel,Vinnhorster Weg 19 Hannover / Burg - Höhe Altenauer Weg,"Vinnhorster Weg 19 , Hannover / Burg",52.400386440076,9.6933538551393,True,False,True,"https://www.google.com/maps?q=52.400386440076,9.6933538551393"
5.0,Wertstoffinsel,Ferdinand-Wilhelm-Fricke-Weg 1 Hannover / Calenberger Neustad - in Höhe Jugendherberge,"Ferdinand-Wilhelm-Fricke-Weg 1 , Hannover / Calenberger Neustad",52.354328658587,9.7305297266265,True,False,True,"https://www.google.com/maps?q=52.354328658587,9.7305297266265"
5.0,Wertstoffinsel,Goetheplatz 9A Hannover / Calenberger Neustad - zw. Humbordt- u. Feuerwehrstr.,"Goetheplatz 9A , Hannover / Calenberger Neustad",52.372377720984,9.7238795824369,True,False,True,"https://www.google.com/maps?q=52.372377720984,9.7238795824369"
5.0,Wertstoffinsel,Mittelstraße Hannover / Calenberger Neustad - Ecke Adolfstr.,"Mittelstraße , Hannover / Calenberger Neustad",52.368531478937,9.7250651646484,True,False,False,"https://www.google.com/maps?q=52.368531478937,9.7250651646484"
5.0,Wertstoffinsel,Wilhelmshavener Str. 16 Hannover / Calenberger Neustad - Ecke Weddingenufer,"Wilhelmshavener Str. 16 , Hannover / Calenberger Neustad",52.377356469482,9.7168360204389,True,False,True,"https://www.google.com/maps?q=52.377356469482,9.7168360204389"
5.0,Wertstoffinsel,Davenstedter Markt Hannover / Davenstedt - Ecke Carlo-Schmidt-Allee,"Davenstedter Markt , Hannover / Davenstedt",52.363221681865,9.6774838431753,True,False,True,"https://www.google.com/maps?q=52.363221681865,9.6774838431753"
5.0,Wertstoffinsel,Freboldstr.20 Hannover / Davenstedt - Ecke Davenstedter Str.,"Freboldstr.20 , Hannover / Davenstedt",52.364462188578,9.6600407534249,True,False,True,"https://www.google.com/maps?q=52.364462188578,9.6600407534249"
5.0,Wertstoffinsel,In der Steinbreite 99A Hannover / Davenstedt - Ecke Davenstedter Holz,"In der Steinbreite 99A , Hannover / Davenstedt",52.37168821285,9.662072689624,True,False,True,"https://www.google.com/maps?q=52.37168821285,9.662072689624"
5.0,Wertstoffinsel,Lehmannstr. 2 Hannover / Davenstedt - ggü. Ecke Davenstedter,"Lehmannstr. 2 , Hannover / Davenstedt",52.36465485937,9.6721158520241,True,False,True,"https://www.google.com/maps?q=52.36465485937,9.6721158520241"
5.0,Wertstoffinsel,Einmündung Landwehrstr.,"Abelmannstr. 1, Hannover / Döhren",52.3365701864,9.762159903256,True,False,True,"https://www.google.com/maps?q=52.3365701864,9.762159903256"
5.0,Wertstoffinsel,Brückstr. 3 Hannover / Döhren - Höhe Glockseeschule,"Brückstr. 3 , Hannover / Döhren",52.335285890255,9.7605527357037,True,False,False,"https://www.google.com/maps?q=52.335285890255,9.7605527357037"
5.0,Wertstoffinsel,Helmstedter Str. 1 Hannover / Döhren - Ecke Hildesheimer Str.,"Helmstedter Str. 1 , Hannover / Döhren",52.3421154667,9.7666295978553,True,False,True,"https://www.google.com/maps?q=52.3421154667,9.7666295978553"
5.0,Wertstoffinsel,Hildesheimer Str. 282 Hannover / Döhren - zw. Donaustr. Rheinstr,"Hildesheimer Str. 282 , Hannover / Döhren",52.336052677887,9.769871114641,True,False,True,"https://www.google.com/maps?q=52.336052677887,9.769871114641"
5.0,Wertstoffinsel,Peiner Str. 9 vor Bürgeramt Hannover / Döhren - Stadtteilbiblio,"Peiner Str. 9 vor Bürgeramt , Hannover / Döhren",52.338808092806,9.7705941513765,True,False,True,"https://www.google.com/maps?q=52.338808092806,9.7705941513765"
5.0,Wertstoffinsel,Wiehbergstr. 77 Hannover / Döhren - Ecke Kastanienallee,"Wiehbergstr. 77 , Hannover / Döhren",52.332344242007,9.7677667898236,True,False,True,"https://www.google.com/maps?q=52.332344242007,9.7677667898236"
5.0,Wertstoffinsel,Heisenbergstr. 14 Hannover / Groß-Buchholz - Ecke Gerhard-Lossin-Str.,"Heisenbergstr. 14 , Hannover / Groß-Buchholz",52.387890630144,9.8131214121659,True,False,True,"https://www.google.com/maps?q=52.387890630144,9.8131214121659"
5.0,Wertstoffinsel,Meitnerstr.6 Hannover / Groß-Buchholz -,"Meitnerstr.6 , Hannover / Groß-Buchholz",52.390405031427,9.8148575524185,True,False,True,"https://www.google.com/maps?q=52.390405031427,9.8148575524185"
5.0,Wertstoffinsel,Milanstraße Höhe Leddinweg Hannover / Groß-Buchholz - Hundeauslauffläche,"Milanstraße Höhe Leddinweg , Hannover / Groß-Buchholz",52.393123109489,9.8222262137842,True,False,False,"https://www.google.com/maps?q=52.393123109489,9.8222262137842"
5.0,Wertstoffinsel,Neue-Land-Str. 4 Hannover / Groß-Buchholz - Wertstoffhof,"Neue-Land-Str. 4 , Hannover / Groß-Buchholz",52.39247429966,9.800170511692,True,False,False,"https://www.google.com/maps?q=52.39247429966,9.800170511692"
5.0,Wertstoffinsel,Nobelring 55 Hannover / Groß-Buchholz - Ecke Osterfelddamm,"Nobelring 55 , Hannover / Groß-Buchholz",52.392869786957,9.8172689868595,True,False,True,"https://www.google.com/maps?q=52.392869786957,9.8172689868595"
5.0,Wertstoffinsel,Nußriede Hannover / Groß-Buchholz - Straßenknick am Nobelring,"Nußriede , Hannover / Groß-Buchholz",52.38888901568,9.8091281401545,True,False,True,"https://www.google.com/maps?q=52.38888901568,9.8091281401545"
5.0,Wertstoffinsel,Nußriede 28 Hannover / Groß-Buchholz - Ecke Osterfelddamm,"Nußriede 28 , Hannover / Groß-Buchholz",52.390024195145,9.8166286282926,True,False,True,"https://www.google.com/maps?q=52.390024195145,9.8166286282926"
5.0,Wertstoffinsel,Osterfelddamm 12 Hannover / Groß-Buchholz - Höhe GDA-Wohnstift,"Osterfelddamm 12 , Hannover / Groß-Buchholz",52.386554176574,9.823059253922,True,False,True,"https://www.google.com/maps?q=52.386554176574,9.823059253922"
5.0,Wertstoffinsel,Pappelwiese 6 Hannover / Groß-Buchholz - ggü. Henniesruh,"Pappelwiese 6 , Hannover / Groß-Buchholz",52.404575131389,9.8263786620497,True,False,True,"https://www.google.com/maps?q=52.404575131389,9.8263786620497"
5.0,Wertstoffinsel,Paracelsusweg 2 Hannover / Groß-Buchholz - Ecke In den Sieben Stücken,"Paracelsusweg 2 , Hannover / Groß-Buchholz",52.407746428625,9.8163678462822,True,False,True,"https://www.google.com/maps?q=52.407746428625,9.8163678462822"
5.0,Wertstoffinsel,Pasteurallee 124 Hannover / Groß-Buchholz - Messe-Schnellweg-Brücke,"Pasteurallee 124 , Hannover / Groß-Buchholz",52.39929894851,9.8132282273926,True,False,True,"https://www.google.com/maps?q=52.39929894851,9.8132282273926"
5.0,Wertstoffinsel,Podbielskistr. 299 Hannover / Groß-Buchholz - Jugendzentrum / Nordost-,"Podbielskistr. 299 , Hannover / Groß-Buchholz",52.404609237077,9.7951863341783,True,False,True,"https://www.google.com/maps?q=52.404609237077,9.7951863341783"
5.0,Wertstoffinsel,Querickestr. 3 Hannover / Groß-Buchholz - Höhe Porsche-Zentrum,"Querickestr. 3 , Hannover / Groß-Buchholz",52.402459567045,9.7939864576252,True,False,False,"https://www.google.com/maps?q=52.402459567045,9.7939864576252"
5.0,Wertstoffinsel,Silberstr. 12 Hannover / Groß-Buchholz - Höhe Nahversorger,"Silberstr. 12 , Hannover / Groß-Buchholz",52.399835820758,9.808358292882,True,False,False,"https://www.google.com/maps?q=52.399835820758,9.808358292882"
5.0,Wertstoffinsel,Krepenstr. 5 Hannover / Hainholz - Ecke Schachtebeckweg,"Krepenstr. 5 , Hannover / Hainholz",52.408622578123,9.7113741527486,True,False,False,"https://www.google.com/maps?q=52.408622578123,9.7113741527486"
5.0,Wertstoffinsel,An der Breiten Wiese 46 Hannover / Heideviertel - Ecke Müdener Weg,"An der Breiten Wiese 46 , Hannover / Heideviertel",52.379871211247,9.8247714306172,True,False,True,"https://www.google.com/maps?q=52.379871211247,9.8247714306172"
5.0,Wertstoffinsel,An der Breiten Wiese 71 Hannover / Heideviertel - Vor Wendeplatte,"An der Breiten Wiese 71 , Hannover / Heideviertel",52.376916370855,9.8217488744266,True,False,True,"https://www.google.com/maps?q=52.376916370855,9.8217488744266"
5.0,Wertstoffinsel,Heidering 1A Hannover / Heideviertel - Nähe Steimbker Hof,"Heidering 1A , Hannover / Heideviertel",52.380730168889,9.8123874979066,True,False,True,"https://www.google.com/maps?q=52.380730168889,9.8123874979066"
5.0,Wertstoffinsel,Heidering 58 Hannover / Heideviertel - Nähe Dorfmarkhof,"Heidering 58 , Hannover / Heideviertel",52.383545434663,9.8187276925521,True,False,True,"https://www.google.com/maps?q=52.383545434663,9.8187276925521"
5.0,Wertstoffinsel,Misburger Str. 99 Hannover / Heideviertel - Ecke Ahldener Str.,"Misburger Str. 99 , Hannover / Heideviertel",52.380813077586,9.8147103386708,True,False,True,"https://www.google.com/maps?q=52.380813077586,9.8147103386708"
5.0,Wertstoffinsel,"Dorotheenstr. 5A Hannover / Herrenhausen - Festplatz, Höhe Herrenhäus","Dorotheenstr. 5A , Hannover / Herrenhausen",52.391927348351,9.6854767709173,True,False,True,"https://www.google.com/maps?q=52.391927348351,9.6854767709173"
5.0,Wertstoffinsel,Haltenhoffstr. 167 Hannover / Herrenhausen - Nähe Hegebläc,"Haltenhoffstr. 167 , Hannover / Herrenhausen",52.396310412659,9.6908502776433,True,False,False,"https://www.google.com/maps?q=52.396310412659,9.6908502776433"
5.0,Wertstoffinsel,Haltenhoffstr. 243 Hannover / Herrenhausen - Ecke Herrenhäuser Straße,"Haltenhoffstr. 243 , Hannover / Herrenhausen",52.3957600135,9.6787756532645,True,False,True,"https://www.google.com/maps?q=52.3957600135,9.6787756532645"
5.0,Wertstoffinsel,Mandelslohstr. 1 Hannover / Herrenhausen - Nähe Schaumburgstr.,"Mandelslohstr. 1 , Hannover / Herrenhausen",52.393443553549,9.6937300114226,True,False,True,"https://www.google.com/maps?q=52.393443553549,9.6937300114226"
5.0,Wertstoffinsel,Markgrafstr. Hannover / Herrenhausen - Abzweig Herrenhäuser Str,"Markgrafstr. , Hannover / Herrenhausen",52.393541042746,9.6831651070728,True,False,True,"https://www.google.com/maps?q=52.393541042746,9.6831651070728"
5.0,Wertstoffinsel,Albert-Schweitzer-Hof 2 Hannover / Kirchrode - Ecke Tiergartenstr.,"Albert-Schweitzer-Hof 2 , Hannover / Kirchrode",52.362677245531,9.8201629361555,True,False,True,"https://www.google.com/maps?q=52.362677245531,9.8201629361555"
5.0,Wertstoffinsel,Lange-Feld-Str. 29A Hannover / Kirchrode - Höhe Ottweilerstr.,"Lange-Feld-Str. 29A , Hannover / Kirchrode",52.359418189397,9.8156090437874,True,False,True,"https://www.google.com/maps?q=52.359418189397,9.8156090437874"
5.0,Wertstoffinsel,Lange-Hop-Str. 115 Hannover / Kirchrode - an Südschnellwegbrücke,"Lange-Hop-Str. 115 , Hannover / Kirchrode",52.351794154131,9.8207983623667,True,False,True,"https://www.google.com/maps?q=52.351794154131,9.8207983623667"
5.0,Wertstoffinsel,Tiergartenstr. 117 Hannover / Kirchrode - Nähe Leonardo Hotel,"Tiergartenstr. 117 , Hannover / Kirchrode",52.362084278954,9.832957878756,True,False,True,"https://www.google.com/maps?q=52.362084278954,9.832957878756"
5.0,Wertstoffinsel,Berckhusenstr. 125 Hannover / Kleefeld - Nähe Einmündung Fuhrberger,"Berckhusenstr. 125 , Hannover / Kleefeld",52.378245287886,9.8050110669422,True,False,True,"https://www.google.com/maps?q=52.378245287886,9.8050110669422"
5.0,Wertstoffinsel,Ebellstr.12 Hannover / Kleefeld - Nähe DB-Brücke,"Ebellstr.12 , Hannover / Kleefeld",52.373365290072,9.796769711672,True,False,True,"https://www.google.com/maps?q=52.373365290072,9.796769711672"
5.0,Wertstoffinsel,Helstorfer Str. 7 Hannover / Kleefeld - ggü Heise-Verlag,"Helstorfer Str. 7 , Hannover / Kleefeld",52.380518503255,9.8065362801251,True,False,True,"https://www.google.com/maps?q=52.380518503255,9.8065362801251"
5.0,Wertstoffinsel,"Kleestr.2 Hannover / Kleefeld - Vor Eilenriede, Nähe DB-Brücke","Kleestr.2 , Hannover / Kleefeld",52.372444754849,9.7824900358815,True,False,False,"https://www.google.com/maps?q=52.372444754849,9.7824900358815"
5.0,Wertstoffinsel,Lathusenstr.11 Hannover / Kleefeld - Ecke Pertzstr. vor Parkplatz Lidl,"Lathusenstr.11 , Hannover / Kleefeld",52.377374979891,9.7981199736513,True,False,True,"https://www.google.com/maps?q=52.377374979891,9.7981199736513"
5.0,Wertstoffinsel,Rupsteinstr.9 Hannover / Kleefeld - Senator-Bauer-Str.,"Rupsteinstr.9 , Hannover / Kleefeld",52.372934493461,9.7899608318417,True,False,False,"https://www.google.com/maps?q=52.372934493461,9.7899608318417"
5.0,Wertstoffinsel,Schweriner Str. 29 Hannover / Kleefeld - ggü. Mecklenburger Str.,"Schweriner Str. 29 , Hannover / Kleefeld",52.379103125586,9.7911433787302,True,False,True,"https://www.google.com/maps?q=52.379103125586,9.7911433787302"
5.0,Wertstoffinsel,Uhlhornstr. 1 Hannover / Kleefeld - Ecke Kirchröder Str.,"Uhlhornstr. 1 , Hannover / Kleefeld",52.371896614653,9.7918959398466,True,False,True,"https://www.google.com/maps?q=52.371896614653,9.7918959398466"
5.0,Wertstoffinsel,Oldenburger Allee 6 Hannover / Lahe - Ecke Rotenburger Str.,"Oldenburger Allee 6 , Hannover / Lahe",52.417753991471,9.8265662037468,True,False,True,"https://www.google.com/maps?q=52.417753991471,9.8265662037468"
5.0,Wertstoffinsel,Kasseler Str. 17C Hannover / Leinhausen - Nähe Bremer Str.,"Kasseler Str. 17C , Hannover / Leinhausen",52.398467870341,9.6737612160031,True,False,True,"https://www.google.com/maps?q=52.398467870341,9.6737612160031"
5.0,Wertstoffinsel,Dieselstr. 10 Hannover / Limmer - Nähe Eichenbrink,"Dieselstr. 10 , Hannover / Limmer",52.376423816346,9.6845903148133,True,False,True,"https://www.google.com/maps?q=52.376423816346,9.6845903148133"
5.0,Wertstoffinsel,Liepmannstr. 6 Hannover / Limmer - ggü.Fössebad Nähe Friedhofstr,"Liepmannstr. 6 , Hannover / Limmer",52.372906824751,9.6971833041272,True,False,True,"https://www.google.com/maps?q=52.372906824751,9.6971833041272"
5.0,Wertstoffinsel,Wunstorfer Str. Hannover / Limmer - Ecke Franz-Nausse-Str. 4A,"Wunstorfer Str. , Hannover / Limmer",52.375844654699,9.6944825117632,True,False,False,"https://www.google.com/maps?q=52.375844654699,9.6944825117632"
5.0,Wertstoffinsel,Wunstorfer Str. 72 Hannover / Limmer - zw. Varrelmannstr u. Spa,"Wunstorfer Str. 72 , Hannover / Limmer",52.378809243572,9.6871834602299,True,False,False,"https://www.google.com/maps?q=52.378809243572,9.6871834602299"
5.0,Wertstoffinsel,"Zimmermannstr. 21 Hannover / Limmer - Nähe ""Auf dem Brinke""","Zimmermannstr. 21 , Hannover / Limmer",52.374466188019,9.6934473003047,True,False,True,"https://www.google.com/maps?q=52.374466188019,9.6934473003047"
5.0,Wertstoffinsel,Badenstedter Str. 19 Hannover / Linden-Mitte - ggü. Ihme-Schule,"Badenstedter Str. 19 , Hannover / Linden-Mitte",52.366108753399,9.7094720396365,True,False,False,"https://www.google.com/maps?q=52.366108753399,9.7094720396365"
5.0,Wertstoffinsel,Bartweg Hannover / Linden-Mitte - Ecke Badenstedter Str.,"Bartweg , Hannover / Linden-Mitte",52.360424239815,9.6855178159638,True,False,False,"https://www.google.com/maps?q=52.360424239815,9.6855178159638"
5.0,Wertstoffinsel,"Posthornstr. 27 Hannover / Linden-Mitte - ggü. Einmündung "" Von-Alten","Posthornstr. 27 , Hannover / Linden-Mitte",52.364990210087,9.714565042188,True,False,True,"https://www.google.com/maps?q=52.364990210087,9.714565042188"
5.0,Wertstoffinsel,Schörlingstr. 3A Hannover / Linden-Mitte - Wertstoffhof,"Schörlingstr. 3A , Hannover / Linden-Mitte",52.363474261966,9.6835824080439,True,False,False,"https://www.google.com/maps?q=52.363474261966,9.6835824080439"
5.0,Wertstoffinsel,Elisenstr. Hannover / Linden-Nord - Ecke Spinnereistr. ggü. Heizkraftwerk,"Elisenstr. , Hannover / Linden-Nord",52.37196183858,9.7139137273039,True,False,True,"https://www.google.com/maps?q=52.37196183858,9.7139137273039"
5.0,Wertstoffinsel,Noltestr. 22 Hannover / Linden-Nord - Nähe Betlehemplatz,"Noltestr. 22 , Hannover / Linden-Nord",52.372048245408,9.7055130730159,True,False,True,"https://www.google.com/maps?q=52.372048245408,9.7055130730159"
5.0,Wertstoffinsel,Allerweg 9 Hannover / Linden-Süd - ggü. AWO,"Allerweg 9 , Hannover / Linden-Süd",52.36245521162,9.7174759736941,True,False,False,"https://www.google.com/maps?q=52.36245521162,9.7174759736941"
5.0,Wertstoffinsel,Am Spielfelde 11 Hannover / Linden-Süd - Ecke Lindener Berg 27,"Am Spielfelde 11 , Hannover / Linden-Süd",52.363575494383,9.7076250714643,True,False,False,"https://www.google.com/maps?q=52.363575494383,9.7076250714643"
5.0,Wertstoffinsel,Auestr.4 Hannover / Linden-Süd - Ecke Laportestr.,"Auestr.4 , Hannover / Linden-Süd",52.36390239629,9.7204807157339,True,False,False,"https://www.google.com/maps?q=52.36390239629,9.7204807157339"
5.0,Wertstoffinsel,Ricklinger Str. 136 Hannover / Linden-Süd - Höhe Humboldtschule,"Ricklinger Str. 136 , Hannover / Linden-Süd",52.357172067673,9.7198866816081,True,False,True,"https://www.google.com/maps?q=52.357172067673,9.7198866816081"
5.0,Wertstoffinsel,Am Welfenplatz 3 Hannover / List - ggü. Albrecht-Dürer-Schule,"Am Welfenplatz 3 , Hannover / List",52.385809413034,9.7413200249938,True,False,False,"https://www.google.com/maps?q=52.385809413034,9.7413200249938"
5.0,Wertstoffinsel,Böcklinplatz 2 Hannover / List - ggü. Podbielskistr.,"Böcklinplatz 2 , Hannover / List",52.399135725304,9.7800813200903,True,False,True,"https://www.google.com/maps?q=52.399135725304,9.7800813200903"
5.0,Wertstoffinsel,Bonifatiusplatz 1 Hannover / List - ggü. Comeniusschule,"Bonifatiusplatz 1 , Hannover / List",52.388889866008,9.7461326531701,True,False,True,"https://www.google.com/maps?q=52.388889866008,9.7461326531701"
5.0,Wertstoffinsel,Bunsenstr. 1 Hannover / List - Einmündung Wittekamp,"Bunsenstr. 1 , Hannover / List",52.394701474595,9.7526383158323,True,False,True,"https://www.google.com/maps?q=52.394701474595,9.7526383158323"
5.0,Wertstoffinsel,Ferdinand-Wallbrecht-Str. 43 Hannover / List - Moltkeplatz,"Ferdinand-Wallbrecht-Str. 43 , Hannover / List",52.393397362413,9.7456208276129,True,False,False,"https://www.google.com/maps?q=52.393397362413,9.7456208276129"
5.0,Wertstoffinsel,Hinrichsring 10 Westseite Hannover / List - ggü. Apotheke,"Hinrichsring 10 Westseite , Hannover / List",52.405413621252,9.7769727484493,True,False,True,"https://www.google.com/maps?q=52.405413621252,9.7769727484493"
5.0,Wertstoffinsel,Klopstockstr. Hannover / List - Ecke Pelikanstr.,"Klopstockstr. , Hannover / List",52.399849913062,9.771260308533,True,False,True,"https://www.google.com/maps?q=52.399849913062,9.771260308533"
5.0,Wertstoffinsel,Lister Str. 41 Hannover / List - Nähe Einmündung Seidelstr.,"Lister Str. 41 , Hannover / List",52.389743780532,9.7504232389767,True,False,True,"https://www.google.com/maps?q=52.389743780532,9.7504232389767"
5.0,Wertstoffinsel,Mengendamm 15 Hannover / List - Wertstoffhof,"Mengendamm 15 , Hannover / List",52.399071618769,9.7581508973264,True,False,False,"https://www.google.com/maps?q=52.399071618769,9.7581508973264"
5.0,Wertstoffinsel,Podbielskistr. 259 Hannover / List - Ecke Grethe-Jürgens-Str.,"Podbielskistr. 259 , Hannover / List",52.402123598329,9.7877627701597,True,False,True,"https://www.google.com/maps?q=52.402123598329,9.7877627701597"
5.0,Wertstoffinsel,Röntgenstr. 21 Hannover / List - Höhe Kollenrodtstr.,"Röntgenstr. 21 , Hannover / List",52.393293693705,9.7492195952281,True,False,True,"https://www.google.com/maps?q=52.393293693705,9.7492195952281"
5.0,Wertstoffinsel,Spannhagenstr. 45 Hannover / List - Ecke Hinrichsring,"Spannhagenstr. 45 , Hannover / List",52.403535830172,9.7808792002635,True,False,True,"https://www.google.com/maps?q=52.403535830172,9.7808792002635"
5.0,Wertstoffinsel,Tannenbergallee 1 Hannover / List - Höhe Niedersachsenring,"Tannenbergallee 1 , Hannover / List",52.399246659495,9.7490264632933,True,False,True,"https://www.google.com/maps?q=52.399246659495,9.7490264632933"
5.0,Wertstoffinsel,Waldstr. 8 Hannover / List - Einmündung De-Haen-Platz,"Waldstr. 8 , Hannover / List",52.392387971016,9.7530986132469,True,False,True,"https://www.google.com/maps?q=52.392387971016,9.7530986132469"
5.0,Wertstoffinsel,Große Pranke 3 Hannover / Marienwerder - Waldstr. Garbsen Anlieferung Netto,"Große Pranke 3 , Hannover / Marienwerder",52.405115697768,9.6187822407878,True,False,True,"https://www.google.com/maps?q=52.405115697768,9.6187822407878"
5.0,Wertstoffinsel,Westermannweg 3 Hannover / Marienwerder - Ecke Quantelholz,"Westermannweg 3 , Hannover / Marienwerder",52.406395580288,9.6215931937126,True,False,True,"https://www.google.com/maps?q=52.406395580288,9.6215931937126"
5.0,Wertstoffinsel,Westermannweg 30 Hannover / Marienwerder - Ecke Augustinerweg,"Westermannweg 30 , Hannover / Marienwerder",52.405237652816,9.6263543699513,True,False,True,"https://www.google.com/maps?q=52.405237652816,9.6263543699513"
5.0,Wertstoffinsel,Am Forstkamp 41 Hannover / Misburg-Nord - Ecke Gustav-Bratke-Str.,"Am Forstkamp 41 , Hannover / Misburg-Nord",52.395704920969,9.8499777797658,True,False,False,"https://www.google.com/maps?q=52.395704920969,9.8499777797658"
5.0,Wertstoffinsel,Am Seelberg 35 Hannover / Misburg-Nord - Nähe Feuerwache,"Am Seelberg 35 , Hannover / Misburg-Nord",52.387507097303,9.8447361319598,True,False,True,"https://www.google.com/maps?q=52.387507097303,9.8447361319598"
5.0,Wertstoffinsel,Hannoversche Str. 2 Hannover / Misburg-Nord - Parkplatz Meyers Garten,"Hannoversche Str. 2 , Hannover / Misburg-Nord",52.390222333521,9.8534874388484,True,False,True,"https://www.google.com/maps?q=52.390222333521,9.8534874388484"
5.0,Wertstoffinsel,Kleinertstr. 13C Hannover / Misburg-Nord - am Bunker,"Kleinertstr. 13C , Hannover / Misburg-Nord",52.38396819818,9.8315771526176,True,False,True,"https://www.google.com/maps?q=52.38396819818,9.8315771526176"
5.0,Wertstoffinsel,Schierholzstr. 123 Hannover / Misburg-Nord - Nähe Heinrich-Heine-Ring,"Schierholzstr. 123 , Hannover / Misburg-Nord",52.39960849657,9.8282113254666,True,False,True,"https://www.google.com/maps?q=52.39960849657,9.8282113254666"
5.0,Wertstoffinsel,Seckbruchstr. 20 Hannover / Misburg-Nord - Parkplatz Bürgerhaus,"Seckbruchstr. 20 , Hannover / Misburg-Nord",52.393862817585,9.8622578596184,True,False,True,"https://www.google.com/maps?q=52.393862817585,9.8622578596184"
5.0,Wertstoffinsel,Uferzeile 2 Hannover / Misburg-Nord -,"Uferzeile 2 , Hannover / Misburg-Nord",52.387542973496,9.8333488496165,True,False,True,"https://www.google.com/maps?q=52.387542973496,9.8333488496165"
5.0,Wertstoffinsel,Waldstr. 77 Waldfriedhof Hannover / Misburg-Nord - Buswendeschleife,"Waldstr. 77 Waldfriedhof , Hannover / Misburg-Nord",52.399759204959,9.8562730354295,True,False,True,"https://www.google.com/maps?q=52.399759204959,9.8562730354295"
5.0,Wertstoffinsel,Zu den Mergelbrüchen 2 Hannover / Misburg-Süd - Nähe Anderter Str.,"Zu den Mergelbrüchen 2 , Hannover / Misburg-Süd",52.370402627174,9.8627556856254,True,False,True,"https://www.google.com/maps?q=52.370402627174,9.8627556856254"
5.0,Wertstoffinsel,Berliner Allee 22 Ärztehaus / Hannover / Mitte -,"Berliner Allee 22 Ärztehaus / , Hannover / Mitte",52.374220731328,9.7512618216151,True,False,True,"https://www.google.com/maps?q=52.374220731328,9.7512618216151"
5.0,Wertstoffinsel,Leinstr. 16 30159 Hannover-Mitte,"Leinstr. 16 , 30159 Hannover / Mitte",52.36979008478281,9.73621342596393,True,False,True,"https://www.google.com/maps?q=52.36979008478281,9.73621342596393"
5.0,Wertstoffinsel,Nikolaistr. 8 Hannover / Mitte - Höhe Astor Parkplatz,"Nikolaistr. 8 , Hannover / Mitte",52.380430439244,9.7330907338643,True,False,True,"https://www.google.com/maps?q=52.380430439244,9.7330907338643"
5.0,Wertstoffinsel,Warmbüchenstr. 4/Arnswaldtstr. Hannover / Mitte -,"Warmbüchenstr. 4/Arnswaldtstr. , Hannover / Mitte",52.370389695763,9.7471722057122,True,False,True,"https://www.google.com/maps?q=52.370389695763,9.7471722057122"
5.0,Wertstoffinsel,Am Mittelfelde 117 Hannover / Mittelfeld - Nähe Giesener Str.,"Am Mittelfelde 117 , Hannover / Mittelfeld",52.334228624155,9.7981649383709,True,False,True,"https://www.google.com/maps?q=52.334228624155,9.7981649383709"
5.0,Wertstoffinsel,Am Mittelfelde 65 Hannover / Mittelfeld - Ecke Karlsruher Str.,"Am Mittelfelde 65 , Hannover / Mittelfeld",52.331291988276,9.7896443364939,True,False,True,"https://www.google.com/maps?q=52.331291988276,9.7896443364939"
5.0,Wertstoffinsel,Beuthener Str. 23 Hannover / Mittelfeld - Ecke Glatzer Str. Höhe Schule,"Beuthener Str. 23 , Hannover / Mittelfeld",52.333211104599,9.7876825659968,True,False,True,"https://www.google.com/maps?q=52.333211104599,9.7876825659968"
5.0,Wertstoffinsel,Lehrter Platz 5 Hannover / Mittelfeld - Parknischen vor Spielplatz,"Lehrter Platz 5 , Hannover / Mittelfeld",52.332212617597,9.7944743819328,True,False,True,"https://www.google.com/maps?q=52.332212617597,9.7944743819328"
5.0,Wertstoffinsel,Beckstr.23 Hannover / Mühlenberg - Nähe Julius-Leber-Weg,"Beckstr.23 , Hannover / Mühlenberg",52.346387319223,9.6844198489548,True,False,True,"https://www.google.com/maps?q=52.346387319223,9.6844198489548"
5.0,Wertstoffinsel,Goerdelerstr. 2 Hannover / Mühlenberg - Ecke Ossietzkyring,"Goerdelerstr. 2 , Hannover / Mühlenberg",52.341967503914,9.6915295862717,True,False,True,"https://www.google.com/maps?q=52.341967503914,9.6915295862717"
5.0,Wertstoffinsel,Leuschnerstr. 40 Hannover / Mühlenberg - Nähe Bonhoefferstr.,"Leuschnerstr. 40 , Hannover / Mühlenberg",52.34327196082,9.686764473725,True,False,True,"https://www.google.com/maps?q=52.34327196082,9.686764473725"
5.0,Wertstoffinsel,Schollweg 14 Hannover / Mühlenberg - Beim Garagenhof,"Schollweg 14 , Hannover / Mühlenberg",52.344605556014,9.6893394195535,True,False,True,"https://www.google.com/maps?q=52.344605556014,9.6893394195535"
5.0,Wertstoffinsel,"Tresckowstr. 16 Hannover / Mühlenberg - Nahversorger, gegenüber EON","Tresckowstr. 16 , Hannover / Mühlenberg",52.34093780547,9.6938767717264,True,False,True,"https://www.google.com/maps?q=52.34093780547,9.6938767717264"
5.0,Wertstoffinsel,Hansatr. 7 Hannover / Nordhafen - Wertstoffhof,"Hansatr. 7 , Hannover / Nordhafen",52.421529005922,9.6799507169444,True,False,False,"https://www.google.com/maps?q=52.421529005922,9.6799507169444"
5.0,Wertstoffinsel,Mecklenheidestr. 24 Hannover / Nordhafen - Nähe Dorparter Str.,"Mecklenheidestr. 24 , Hannover / Nordhafen",52.419124956957,9.6898833960968,True,False,True,"https://www.google.com/maps?q=52.419124956957,9.6898833960968"
5.0,Wertstoffinsel,Am Kläperberg 11 Hannover / Nordstadt - ggü. Hintere Schöneworth,"Am Kläperberg 11 , Hannover / Nordstadt",52.39096392648,9.723434162651,True,False,True,"https://www.google.com/maps?q=52.39096392648,9.723434162651"
5.0,Wertstoffinsel,Appelstr. 9 Hannover / Nordstadt - in Sackgasse vor Uni-Instituten,"Appelstr. 9 , Hannover / Nordstadt",52.388803761982,9.7134800834597,True,False,False,"https://www.google.com/maps?q=52.388803761982,9.7134800834597"
5.0,Wertstoffinsel,"Arndtstr. 1 Hannover / Nordstadt - vor Sozialamt, hinter Abzweig Tür","Arndtstr. 1 , Hannover / Nordstadt",52.381621247523,9.7280710704871,True,False,False,"https://www.google.com/maps?q=52.381621247523,9.7280710704871"
5.0,Wertstoffinsel,Sandstr. 20 Hannover / Nordstadt - vor Wertstoffhof Gertrud-Knebusch,"Sandstr. 20 , Hannover / Nordstadt",52.38801279255,9.7281909210559,True,False,False,"https://www.google.com/maps?q=52.38801279255,9.7281909210559"
5.0,Wertstoffinsel,Göttinger Chaussee 101 Hannover / Oberricklingen - Höhe Auto SB-Wäsche,"Göttinger Chaussee 101 , Hannover / Oberricklingen",52.34430275607,9.7175490772815,True,False,True,"https://www.google.com/maps?q=52.34430275607,9.7175490772815"
5.0,Wertstoffinsel,Munzeler Str. 25 Hannover / Oberricklingen - Höhe Gehrdener Straße,"Munzeler Str. 25 , Hannover / Oberricklingen",52.344966033323,9.6998998774131,True,False,True,"https://www.google.com/maps?q=52.344966033323,9.6998998774131"
5.0,Wertstoffinsel,Tillystr. 33 Ecke Göttinger Ch Hannover / Oberricklingen - Lidl Parkplatz,"Tillystr. 33 Ecke Göttinger Ch , Hannover / Oberricklingen",52.336966690166,9.7175037206368,True,False,True,"https://www.google.com/maps?q=52.336966690166,9.7175037206368"
5.0,Wertstoffinsel,Wallensteinstr. 25 Hannover / Oberricklingen - Ecke Torstensonstr.,"Wallensteinstr. 25 , Hannover / Oberricklingen",52.341989821077,9.7119923547437,True,False,True,"https://www.google.com/maps?q=52.341989821077,9.7119923547437"
5.0,Wertstoffinsel,Friesenstr. 30 Hannover / Oststadt - Parkstreifen vor Einmündung,"Friesenstr. 30 , Hannover / Oststadt",52.382372447289,9.7531044927719,True,False,True,"https://www.google.com/maps?q=52.382372447289,9.7531044927719"
5.0,Wertstoffinsel,Heinrichstr. 3 Hannover / Oststadt - Ecke Berliner Allee,"Heinrichstr. 3 , Hannover / Oststadt",52.377957811105,9.7489012456527,True,False,True,"https://www.google.com/maps?q=52.377957811105,9.7489012456527"
5.0,Wertstoffinsel,Lister Meile 4 Hannover / Oststadt - Höhe Berliner Allee ( Pavill,"Lister Meile 4 , Hannover / Oststadt",52.38030386165,9.7447097388865,True,False,False,"https://www.google.com/maps?q=52.38030386165,9.7447097388865"
5.0,Wertstoffinsel,An der Bauerwiese 5 Hannover / Ricklingen - ggü. Eickenriede,"An der Bauerwiese 5 , Hannover / Ricklingen",52.341425683351,9.7278510239912,True,False,True,"https://www.google.com/maps?q=52.341425683351,9.7278510239912"
5.0,Wertstoffinsel,ggü. Bebelstr. Hannover / Ricklingen - Am Bunker u. d. Fußgä,"ggü. Bebelstr. , Hannover / Ricklingen",52.350978607613,9.7197126465973,True,False,False,"https://www.google.com/maps?q=52.350978607613,9.7197126465973"
5.0,Wertstoffinsel,Pfarrstr. 45 Hannover / Ricklingen - Schünemannplatz ggü. NP-Markt,"Pfarrstr. 45 , Hannover / Ricklingen",52.347055742845,9.7231429241511,True,False,True,"https://www.google.com/maps?q=52.347055742845,9.7231429241511"
5.0,Wertstoffinsel,Ada-Lessing-Str. 83 Hannover / Sahlkamp - Höhe Rhönweg,"Ada-Lessing-Str. 83 , Hannover / Sahlkamp",52.413405811878,9.781127034365,True,False,True,"https://www.google.com/maps?q=52.413405811878,9.781127034365"
5.0,Wertstoffinsel,Elmstraße Hannover / Sahlkamp - Ecke Schwarzwaldstraße,"Elmstraße , Hannover / Sahlkamp",52.413702906635,9.7783387534179,True,False,True,"https://www.google.com/maps?q=52.413702906635,9.7783387534179"
5.0,Wertstoffinsel,Hägewiesen 110 Hannover / Sahlkamp - Ecke Vogelsbergstr.,"Hägewiesen 110 , Hannover / Sahlkamp",52.415792914774,9.7763317673109,True,False,True,"https://www.google.com/maps?q=52.415792914774,9.7763317673109"
5.0,Wertstoffinsel,Hägewiesen 145 Hannover / Sahlkamp - Ecke Kugelfangtrift,"Hägewiesen 145 , Hannover / Sahlkamp",52.416838565253,9.7717919442498,True,False,True,"https://www.google.com/maps?q=52.416838565253,9.7717919442498"
5.0,Wertstoffinsel,Holzwiesen 127 Hannover / Sahlkamp - Ecke Kugelfangtrift,"Holzwiesen 127 , Hannover / Sahlkamp",52.418179574918,9.7646543792569,True,False,True,"https://www.google.com/maps?q=52.418179574918,9.7646543792569"
5.0,Wertstoffinsel,Sahlkamp 137 Nähe Wietzegraben Hannover / Sahlkamp - Bunker,"Sahlkamp 137 Nähe Wietzegraben , Hannover / Sahlkamp",52.410413100278,9.7686071273661,True,False,True,"https://www.google.com/maps?q=52.410413100278,9.7686071273661"
5.0,Wertstoffinsel,Am Schafbrinke Hannover / Seelhorst - Ecke Graefenhainweg,"Am Schafbrinke , Hannover / Seelhorst",52.34814152852,9.7813708211517,True,False,False,"https://www.google.com/maps?q=52.34814152852,9.7813708211517"
5.0,Wertstoffinsel,Eupener Str. 1 Hannover / Seelhorst - Nettoparkplatz,"Eupener Str. 1 , Hannover / Seelhorst",52.343839976795,9.7806197228003,True,False,False,"https://www.google.com/maps?q=52.343839976795,9.7806197228003"
5.0,Wertstoffinsel,Peinerstr. 103 Hannover / Seelhorst - Ecke Hedwig-Bollhagen-Str.,"Peinerstr. 103 , Hannover / Seelhorst",52.341414695258,9.7857145910303,True,False,True,"https://www.google.com/maps?q=52.341414695258,9.7857145910303"
5.0,Wertstoffinsel,Alte Stöckener Str. 85 Hannover / Stöcken - Sackgasse Rückseite,"Alte Stöckener Str. 85 , Hannover / Stöcken",52.413895253496,9.6513540569254,True,False,True,"https://www.google.com/maps?q=52.413895253496,9.6513540569254"
5.0,Wertstoffinsel,Alter Damm 6 Hannover / Stöcken - Höhe Stelinger Str. vor Norma,"Alter Damm 6 , Hannover / Stöcken",52.426331682304,9.6492430769388,True,False,False,"https://www.google.com/maps?q=52.426331682304,9.6492430769388"
5.0,Wertstoffinsel,Eichsfelder Str. 66 Hannover / Stöcken - zw. Kastanienweg und Hohensteinweg,"Eichsfelder Str. 66 , Hannover / Stöcken",52.409535425449,9.6641828754501,True,False,False,"https://www.google.com/maps?q=52.409535425449,9.6641828754501"
5.0,Wertstoffinsel,Hogrefestr. 11 Hannover / Stöcken - Nähe Moorhoffstr,"Hogrefestr. 11 , Hannover / Stöcken",52.409159998588,9.6621925764304,True,False,True,"https://www.google.com/maps?q=52.409159998588,9.6621925764304"
5.0,Wertstoffinsel,Hogrefestr. 41 Richtung Am Sta Hannover / Stöcken - Gemeindeholzstr.,"Hogrefestr. 41 Richtung Am Sta , Hannover / Stöcken",52.412069288705,9.6644414715746,True,False,True,"https://www.google.com/maps?q=52.412069288705,9.6644414715746"
5.0,Wertstoffinsel,Stöckener Str. 83 Hannover / Stöcken - Höhe Alveser Weg,"Stöckener Str. 83 , Hannover / Stöcken",52.401395640634,9.666383017005,True,False,True,"https://www.google.com/maps?q=52.401395640634,9.666383017005"
5.0,Wertstoffinsel,Alte Döhrener Str. 61 Hannover / Südstadt - Gilde-Brauerei,"Alte Döhrener Str. 61 , Hannover / Südstadt",52.355469610893,9.7521625379912,True,False,True,"https://www.google.com/maps?q=52.355469610893,9.7521625379912"
5.0,Wertstoffinsel,An der Tiefenriede 31 Hannover / Südstadt - Nähe Altenbekener Damm,"An der Tiefenriede 31 , Hannover / Südstadt",52.356448477641,9.7579645581863,True,False,True,"https://www.google.com/maps?q=52.356448477641,9.7579645581863"
5.0,Wertstoffinsel,An der Weide 25 Hannover / Südstadt - Höhe Lidl / Spielsalon,"An der Weide 25 , Hannover / Südstadt",52.362008910093,9.7642864057091,True,False,True,"https://www.google.com/maps?q=52.362008910093,9.7642864057091"
5.0,Wertstoffinsel,Bertha-von-Suttner-Platz 9 Hannover / Südstadt - Höhe Stresemanna,"Bertha-von-Suttner-Platz 9 , Hannover / Südstadt",52.359160464263,9.7612562719755,True,False,True,"https://www.google.com/maps?q=52.359160464263,9.7612562719755"
5.0,Wertstoffinsel,Große Düwelstr. 7 Hannover / Südstadt - Am Südbahnhof,"Große Düwelstr. 7 , Hannover / Südstadt",52.369457724244,9.7607870104271,True,False,False,"https://www.google.com/maps?q=52.369457724244,9.7607870104271"
5.0,Wertstoffinsel,Hildesheimer Str. 27 Hannover / Südstadt - Ecke Adelheidsstr.,"Hildesheimer Str. 27 , Hannover / Südstadt",52.365058938102,9.7470675816681,True,False,True,"https://www.google.com/maps?q=52.365058938102,9.7470675816681"
5.0,Wertstoffinsel,Hoppenstedtstr. 4 Hannover / Südstadt - Nähe Schützengesellschaft,"Hoppenstedtstr. 4 , Hannover / Südstadt",52.35244639809,9.7581603777453,True,False,True,"https://www.google.com/maps?q=52.35244639809,9.7581603777453"
5.0,Wertstoffinsel,Jordanstr. 17 Hannover / Südstadt - Bertha-von-Suttner-Platz,"Jordanstr. 17 , Hannover / Südstadt",52.360684440007,9.7619432955359,True,False,True,"https://www.google.com/maps?q=52.360684440007,9.7619432955359"
5.0,Wertstoffinsel,Krausenstr. 27A Hannover / Südstadt - Ecke Heidornstr.,"Krausenstr. 27A , Hannover / Südstadt",52.364636324037,9.7583690358512,True,False,True,"https://www.google.com/maps?q=52.364636324037,9.7583690358512"
5.0,Wertstoffinsel,Luhterstr. 42 Hannover / Südstadt - Ecke Große Barlinge,"Luhterstr. 42 , Hannover / Südstadt",52.366802821598,9.7527809413373,True,False,True,"https://www.google.com/maps?q=52.366802821598,9.7527809413373"
5.0,Wertstoffinsel,Mendelssohnstr. 26A Hannover / Südstadt - Höhe Engelhardstr.,"Mendelssohnstr. 26A , Hannover / Südstadt",52.357175298286,9.7553779255931,True,False,False,"https://www.google.com/maps?q=52.357175298286,9.7553779255931"
5.0,Wertstoffinsel,Stephansplatz Hannover / Südstadt - Höhe Bandelstr.,"Stephansplatz , Hannover / Südstadt",52.362013697093,9.7537422224429,True,False,True,"https://www.google.com/maps?q=52.362013697093,9.7537422224429"
5.0,Wertstoffinsel,Stresemannallee 34 Hannover / Südstadt - Nähe Bugenhagen-Kirche,"Stresemannallee 34 , Hannover / Südstadt",52.354323174093,9.7640950831546,True,False,True,"https://www.google.com/maps?q=52.354323174093,9.7640950831546"
5.0,Wertstoffinsel,Tiestestr. 8 Hannover / Südstadt -,"Tiestestr. 8 , Hannover / Südstadt",52.365187759372,9.7620942035962,True,False,False,"https://www.google.com/maps?q=52.365187759372,9.7620942035962"
5.0,Wertstoffinsel,Dresdener Str. Hannover / Vahrenheide - Ecke Leipziger Str.,"Dresdener Str. , Hannover / Vahrenheide",52.411953945027,9.7526967373875,True,False,True,"https://www.google.com/maps?q=52.411953945027,9.7526967373875"
5.0,Wertstoffinsel,Holzwiesen Hannover / Vahrenheide - Ecke Emmy Lanzke Weg,"Holzwiesen , Hannover / Vahrenheide",52.41329376716,9.7624820977016,True,False,False,"https://www.google.com/maps?q=52.41329376716,9.7624820977016"
5.0,Wertstoffinsel,Kugelfangtrift Hannover / Vahrenheide - Höhe Peter-Strasser-Allee,"Kugelfangtrift , Hannover / Vahrenheide",52.420363334992,9.756413249198,True,False,True,"https://www.google.com/maps?q=52.420363334992,9.756413249198"
5.0,Wertstoffinsel,Leipziger Str. 120 Hannover / Vahrenheide - Vogtländer Hof,"Leipziger Str. 120 , Hannover / Vahrenheide",52.416838866902,9.7606464526401,True,False,True,"https://www.google.com/maps?q=52.416838866902,9.7606464526401"
5.0,Wertstoffinsel,Plauener Str.26 Hannover / Vahrenheide - Nähe Sahlkamp,"Plauener Str.26 , Hannover / Vahrenheide",52.411164381328,9.7594755854376,True,False,True,"https://www.google.com/maps?q=52.411164381328,9.7594755854376"
5.0,Wertstoffinsel,Weimarer Allee 4 Hannover / Vahrenheide - Höhe Thüringer Str.,"Weimarer Allee 4 , Hannover / Vahrenheide",52.413176867745,9.7412789449753,True,False,True,"https://www.google.com/maps?q=52.413176867745,9.7412789449753"
5.0,Wertstoffinsel,Auf dem Dorn 18 Hannover / Vahrenwald - Höhe Bunnenbergstr. / KIK,"Auf dem Dorn 18 , Hannover / Vahrenwald",52.39474991336,9.7232756241084,True,False,False,"https://www.google.com/maps?q=52.39474991336,9.7232756241084"
5.0,Wertstoffinsel,Büttnerstr. 21 Hannover / Vahrenwald - Vor dem DHL-Gebäude,"Büttnerstr. 21 , Hannover / Vahrenwald",52.404143448362,9.7322930781774,True,False,True,"https://www.google.com/maps?q=52.404143448362,9.7322930781774"
5.0,Wertstoffinsel,Dragonerstr. 17 Hannover / Vahrenwald - Nähe Vahrenwalder Kirche,"Dragonerstr. 17 , Hannover / Vahrenwald",52.394978534432,9.7343164502839,True,False,True,"https://www.google.com/maps?q=52.394978534432,9.7343164502839"
5.0,Wertstoffinsel,Dragonerstr. 34 Hannover / Vahrenwald - Nähe Isernhagener Str.,"Dragonerstr. 34 , Hannover / Vahrenwald",52.394384814618,9.7387007988234,True,False,True,"https://www.google.com/maps?q=52.394384814618,9.7387007988234"
5.0,Wertstoffinsel,Grabbestr. 20 Hannover / Vahrenwald - Ecke Halkettstraße,"Grabbestr. 20 , Hannover / Vahrenwald",52.39322088688,9.732141669945,True,False,False,"https://www.google.com/maps?q=52.39322088688,9.732141669945"
5.0,Wertstoffinsel,Heinrich-Kirchweger-Platz Hannover / Vahrenwald - Emil-Meyer-Str. 3,"Heinrich-Kirchweger-Platz , Hannover / Vahrenwald",52.39100634092,9.7282401867487,True,False,True,"https://www.google.com/maps?q=52.39100634092,9.7282401867487"
5.0,Wertstoffinsel,Isernhagener Str. 103-107 Hannover / Vahrenwald - ggü. bei Aral,"Isernhagener Str. 103-107 , Hannover / Vahrenwald",52.397838275222,9.739963661379,True,False,True,"https://www.google.com/maps?q=52.397838275222,9.739963661379"
5.0,Wertstoffinsel,Philipsbornstr. 1 Hannover / Vahrenwald - vor Conti-Einfahrt,"Philipsbornstr. 1 , Hannover / Vahrenwald",52.388570793352,9.7324614782719,True,False,True,"https://www.google.com/maps?q=52.388570793352,9.7324614782719"
5.0,Wertstoffinsel,Plüschowstr. 2 Hannover / Vahrenwald - Ecke Hirtenweg / Parkplatz,"Plüschowstr. 2 , Hannover / Vahrenwald",52.403404029823,9.7398656885012,True,False,True,"https://www.google.com/maps?q=52.403404029823,9.7398656885012"
5.0,Wertstoffinsel,Raiffeisenstr. Hannover / Vahrenwald - Ecke Hamburger Allee 74,"Raiffeisenstr. , Hannover / Vahrenwald",52.384892857018,9.735486172317,True,False,True,"https://www.google.com/maps?q=52.384892857018,9.735486172317"
5.0,Wertstoffinsel,Rolandstr. 1 Hannover / Vahrenwald - Ecke Iserhagener Str,"Rolandstr. 1 , Hannover / Vahrenwald",52.388072532094,9.735965152575,True,False,True,"https://www.google.com/maps?q=52.388072532094,9.735965152575"
5.0,Wertstoffinsel,Rotermundstr. 22 Hannover / Vahrenwald - Ecke Melanchthonstr.,"Rotermundstr. 22 , Hannover / Vahrenwald",52.396871141562,9.7350239356041,True,False,True,"https://www.google.com/maps?q=52.396871141562,9.7350239356041"
5.0,Wertstoffinsel,Windausstr. 2 Hannover / Vahrenwald - vor Finanzämtern / BBS,"Windausstr. 2 , Hannover / Vahrenwald",52.406495730846,9.7371537469749,True,False,True,"https://www.google.com/maps?q=52.406495730846,9.7371537469749"
5.0,Wertstoffinsel,Alt-Vinnhorst 21 Hannover / Vinnhorst - im Krummen Sieke,"Alt-Vinnhorst 21 , Hannover / Vinnhorst",52.420915203818,9.6973521284739,True,False,True,"https://www.google.com/maps?q=52.420915203818,9.6973521284739"
5.0,Wertstoffinsel,Beneckeallee 8 Hannover / Vinnhorst - Höhe Zufahrt Dammstr.,"Beneckeallee 8 , Hannover / Vinnhorst",52.416658630878,9.7041074981087,True,False,True,"https://www.google.com/maps?q=52.416658630878,9.7041074981087"
5.0,Wertstoffinsel,Friedenauer Str. 40 Hannover / Vinnhorst - Nähe Eibenweg,"Friedenauer Str. 40 , Hannover / Vinnhorst",52.414478986625,9.7137620522404,True,False,True,"https://www.google.com/maps?q=52.414478986625,9.7137620522404"
5.0,Wertstoffinsel,Riepestr. 9 Hannover / Waldhausen - Nähe Heuerstr.,"Riepestr. 9 , Hannover / Waldhausen",52.3440100019,9.7600565273179,True,False,True,"https://www.google.com/maps?q=52.3440100019,9.7600565273179"
5.0,Wertstoffinsel,Wiener Str.28 Hannover / Waldhausen - Nähe Salzburger Str. DB Brücke,"Wiener Str.28 , Hannover / Waldhausen",52.345524090094,9.7678336103428,True,False,False,"https://www.google.com/maps?q=52.345524090094,9.7678336103428"
5.0,Wertstoffinsel,Danziger Str. 5 Hannover / Wettbergen - Wendehammer,"Danziger Str. 5 , Hannover / Wettbergen",52.325823310945,9.6971472628386,True,False,True,"https://www.google.com/maps?q=52.325823310945,9.6971472628386"
5.0,Wertstoffinsel,Hauptstr. 8 Hannover / Wettbergen - gegenüber Einmündung Peperfeld,"Hauptstr. 8 , Hannover / Wettbergen",52.326646650916,9.6839537524658,True,False,True,"https://www.google.com/maps?q=52.326646650916,9.6839537524658"
5.0,Wertstoffinsel,In der Rehre 22 Hannover / Wettbergen - Ecke Auf dem Kampe,"In der Rehre 22 , Hannover / Wettbergen",52.328829016008,9.6951400743206,True,False,True,"https://www.google.com/maps?q=52.328829016008,9.6951400743206"
5.0,Wertstoffinsel,Jütlandstr. Hannover / Wettbergen - Ecke Kopenhagener Str. 91,"Jütlandstr. , Hannover / Wettbergen",52.332565957569,9.6926157178371,True,False,True,"https://www.google.com/maps?q=52.332565957569,9.6926157178371"
5.0,Wertstoffinsel,Parkplatz Rewe Hannover / Wettbergen -,"Parkplatz Rewe , Hannover / Wettbergen",52.32870783391,9.7049701070052,True,False,False,"https://www.google.com/maps?q=52.32870783391,9.7049701070052"
5.0,Wertstoffinsel,Tresckowstr. 32 Hannover / Wettbergen - Ecke Wehrleweg,"Tresckowstr. 32 , Hannover / Wettbergen",52.33812943085,9.6929081228542,True,False,True,"https://www.google.com/maps?q=52.33812943085,9.6929081228542"
5.0,Wertstoffinsel,"Tresckowstr. 72 Hannover / Wettbergen - Bereich ""An den Sportplätze","Tresckowstr. 72 , Hannover / Wettbergen",52.336010122231,9.6894112429065,True,False,True,"https://www.google.com/maps?q=52.336010122231,9.6894112429065"
5.0,Wertstoffinsel,Am Eisenwerk Hannover / Wülfel - Richtung Hildesheimer Str.,"Am Eisenwerk , Hannover / Wülfel",52.326589032478,9.7830160391709,True,False,True,"https://www.google.com/maps?q=52.326589032478,9.7830160391709"
5.0,Wertstoffinsel,Loccumer Str. 53 Hannover / Wülfel - Ecke Völgerstr.,"Loccumer Str. 53 , Hannover / Wülfel",52.332239241823,9.7769519940474,True,False,True,"https://www.google.com/maps?q=52.332239241823,9.7769519940474"
5.0,Wertstoffinsel,Wilkenburger Str. 2 Hannover / Wülfel - Ecke Dorfstr.,"Wilkenburger Str. 2 , Hannover / Wülfel",52.324547301653,9.780426853481,True,False,True,"https://www.google.com/maps?q=52.324547301653,9.780426853481"
5.0,Wertstoffinsel,Hoyerstr. 1 Hannover / Wülferode - Ecke Kirchbichler Straße,"Hoyerstr. 1 , Hannover / Wülferode",52.326875639045,9.8507857216515,True,False,True,"https://www.google.com/maps?q=52.326875639045,9.8507857216515"
5.0,Wertstoffinsel,ggü. Haus Nr. 37 Hannover / Zoo - Nähe Kaiserallee,"ggü. Haus Nr. 37 , Hannover / Zoo",52.379965510188,9.7625249063002,True,False,True,"https://www.google.com/maps?q=52.379965510188,9.7625249063002"
5.0,Wertstoffinsel,Hiddestorfer Str. Hemmingen / Arnum - Am Freibad,"Hiddestorfer Str. , Hemmingen / Arnum",52.295670023397,9.7340219370875,True,False,True,"https://www.google.com/maps?q=52.295670023397,9.7340219370875"
5.0,Wertstoffinsel,Hoher Holzweg Hemmingen / Arnum - vor Betriebshof Stadt Hemmingen / Auf Parkplatz,"Hoher Holzweg , Hemmingen / Arnum",52.308723042988,9.7255250594615,True,False,True,"https://www.google.com/maps?q=52.308723042988,9.7255250594615"
5.0,Wertstoffinsel,Pattenser Feldweg Hemmingen / Arnum - Ecke Blumenweg,"Pattenser Feldweg , Hemmingen / Arnum",52.296104984335,9.7421088695054,True,False,True,"https://www.google.com/maps?q=52.296104984335,9.7421088695054"
5.0,Wertstoffinsel,Arnumer Str Hemmingen / Harkenbleck - Apfelbaumallee,"Arnumer Str , Hemmingen / Harkenbleck",52.291626507666,9.7634409967241,True,False,True,"https://www.google.com/maps?q=52.291626507666,9.7634409967241"
5.0,Wertstoffinsel,Hohe Bünte Hemmingen / Hemmingen-Westerfe - Am Schwimmbad / Parkplatz,"Hohe Bünte , Hemmingen / Hemmingen-Westerfe",52.328672613369,9.7401297261742,True,False,True,"https://www.google.com/maps?q=52.328672613369,9.7401297261742"
5.0,Wertstoffinsel,Max-von-Laue-Str. 999 Hemmingen / Hemmingen-Westerfe -,"Max-von-Laue-Str. 999 , Hemmingen / Hemmingen-Westerfe",52.320978302865,9.7209570920917,True,False,False,"https://www.google.com/maps?q=52.320978302865,9.7209570920917"
5.0,Wertstoffinsel,Sundernstr. / Wertstoffinsel Hemmingen / Hemmingen-Westerfe -,"Sundernstr. / Wertstoffinsel , Hemmingen / Hemmingen-Westerfe",,,True,False,False,"https://www.google.com/maps?q=nan,nan"
5.0,Wertstoffinsel,Am Damm Hemmingen / Wilkenburg - Ecke Kirchstr. Teppichscheune,"Am Damm , Hemmingen / Wilkenburg",52.31327927502,9.7601607984007,True,False,False,"https://www.google.com/maps?q=52.31327927502,9.7601607984007"
5.0,Wertstoffinsel,Am Walde Isernhagen / Altwarmbüchen - Ecke Hannoversche Straße,"Am Walde , Isernhagen / Altwarmbüchen",52.435342520234,9.8724523174887,True,False,False,"https://www.google.com/maps?q=52.435342520234,9.8724523174887"
5.0,Wertstoffinsel,Farrelweg Isernhagen / Altwarmbüchen - zw. Mozartstr. und Königsberger Str.,"Farrelweg , Isernhagen / Altwarmbüchen",52.434225260666,9.8493213187149,True,False,False,"https://www.google.com/maps?q=52.434225260666,9.8493213187149"
5.0,Wertstoffinsel,Seestr. Isernhagen / Altwarmbüchen - Am Sportverein Parkplatz,"Seestr. , Isernhagen / Altwarmbüchen",52.428873305656,9.8596316389023,True,False,False,"https://www.google.com/maps?q=52.428873305656,9.8596316389023"
5.0,Wertstoffinsel,Stettiner Str. Isernhagen / Altwarmbüchen - Parkplatz Rathaus,"Stettiner Str. , Isernhagen / Altwarmbüchen",52.430656608815,9.8517384522663,True,False,False,"https://www.google.com/maps?q=52.430656608815,9.8517384522663"
5.0,Wertstoffinsel,Wietzeaue Isernhagen / Altwarmbüchen - Nähe Etternkamp,"Wietzeaue , Isernhagen / Altwarmbüchen",52.437947839384,9.8467449294631,True,False,False,"https://www.google.com/maps?q=52.437947839384,9.8467449294631"
5.0,Wertstoffinsel,Burgwedeler Str. Isernhagen / Isernhagen Hb - Ecke An der Beeke,"Burgwedeler Str. , Isernhagen / Isernhagen Hb",52.47285297609,9.7943252830647,True,False,False,"https://www.google.com/maps?q=52.47285297609,9.7943252830647"
5.0,Wertstoffinsel,Stahlstr. Ecke Bahnhofstr. Isernhagen / Isernhagen Hb - Schützengesellschaft,"Stahlstr. Ecke Bahnhofstr. , Isernhagen / Isernhagen Hb",52.485024340702,9.8025705022684,True,False,True,"https://www.google.com/maps?q=52.485024340702,9.8025705022684"
5.0,Wertstoffinsel,Kircher Vorfeld Ecke Simon-Win Isernhagen / Isernhagen Kb - Parkplatz,"Kircher Vorfeld Ecke Simon-Win , Isernhagen / Isernhagen Kb",52.460447535638,9.8217578397577,True,False,True,"https://www.google.com/maps?q=52.460447535638,9.8217578397577"
5.0,Wertstoffinsel,Auf Dem Kley 45 Isernhagen / Neuwarmbüchen - Wendehammer,"Auf Dem Kley 45 , Isernhagen / Neuwarmbüchen",52.454751549416,9.8799439630656,True,False,False,"https://www.google.com/maps?q=52.454751549416,9.8799439630656"
5.0,Wertstoffinsel,Faster Str. Isernhagen / Neuwarmbüchen - Ecke An d. Worth Parkplatz,"Faster Str. , Isernhagen / Neuwarmbüchen",52.467136975372,9.8840330416996,True,False,False,"https://www.google.com/maps?q=52.467136975372,9.8840330416996"
5.0,Wertstoffinsel,Alter Markt Ecke Alte Rathauss Laatzen / Alt-Laatzen - Am Flebbehof,"Alter Markt Ecke Alte Rathauss , Laatzen / Alt-Laatzen",52.317036632936,9.7850187015335,True,False,False,"https://www.google.com/maps?q=52.317036632936,9.7850187015335"
5.0,Wertstoffinsel,Auf der Dehne Laatzen / Alt-Laatzen - ggü. Sportliche Vereinigung Laatzen Parkplatz,"Auf der Dehne , Laatzen / Alt-Laatzen",52.320721475356,9.7838661385155,True,False,True,"https://www.google.com/maps?q=52.320721475356,9.7838661385155"
5.0,Wertstoffinsel,Dammackerweg 999 / Ecke Osterb Laatzen / Gleidingen -,"Dammackerweg 999 / Ecke Osterb , Laatzen / Gleidingen",,,True,False,False,"https://www.google.com/maps?q=nan,nan"
5.0,Wertstoffinsel,Ritterstr. 1 Laatzen / Gleidingen - Richtung Schützenhaus,"Ritterstr. 1 , Laatzen / Gleidingen",52.276204606536,9.8317426367476,True,False,False,"https://www.google.com/maps?q=52.276204606536,9.8317426367476"
5.0,Wertstoffinsel,Ahornstraße Laatzen / Grasdorf - Ecke Bahnweg,"Ahornstraße , Laatzen / Grasdorf",52.302185093516,9.8062121403643,True,False,False,"https://www.google.com/maps?q=52.302185093516,9.8062121403643"
5.0,Wertstoffinsel,Gladiolenweg Laatzen / Grasdorf - ggü. Garagenhof,"Gladiolenweg , Laatzen / Grasdorf",52.302778841872,9.8087894820735,True,False,False,"https://www.google.com/maps?q=52.302778841872,9.8087894820735"
5.0,Wertstoffinsel,Hermann-Löns-Str. Laatzen / Grasdorf - Ecke Eduard-Mörike-Straße,"Hermann-Löns-Str. , Laatzen / Grasdorf",52.290519649285,9.8147242245547,True,False,True,"https://www.google.com/maps?q=52.290519649285,9.8147242245547"
5.0,Wertstoffinsel,Heidfeldweg Laatzen / Ingeln/Oesselse - Ecke Heinrich-Heine-Weg,"Heidfeldweg , Laatzen / Ingeln/Oesselse",52.28026244256,9.8760877343646,True,False,False,"https://www.google.com/maps?q=52.28026244256,9.8760877343646"
5.0,Wertstoffinsel,Mannheimer Str. Laatzen / Mitte I - Ecke Würzburger Str. hinter Bauhaus,"Mannheimer Str. , Laatzen / Mitte I",52.306897750563,9.8033495990516,True,False,False,"https://www.google.com/maps?q=52.306897750563,9.8033495990516"
5.0,Wertstoffinsel,Domagkstr. Laatzen / Mitte II - Ecke Albert-Schweitzer-Str.,"Domagkstr. , Laatzen / Mitte II",52.307985268549,9.8099844460373,True,False,True,"https://www.google.com/maps?q=52.307985268549,9.8099844460373"
5.0,Wertstoffinsel,Mergenthaler Str. Laatzen / Mitte II - Ecke Senefelderstr.,"Mergenthaler Str. , Laatzen / Mitte II",52.311522004695,9.8042254374961,True,False,True,"https://www.google.com/maps?q=52.311522004695,9.8042254374961"
5.0,Wertstoffinsel,Pestalozzistr. 20 Laatzen / Mitte II - ggü. Garagenhof,"Pestalozzistr. 20 , Laatzen / Mitte II",52.309700494851,9.8155017103887,True,False,True,"https://www.google.com/maps?q=52.309700494851,9.8155017103887"
5.0,Wertstoffinsel,Lange Weihe 16 Laatzen / Mitte III - ggü. Lortzingweg,"Lange Weihe 16 , Laatzen / Mitte III",52.300385278778,9.8221059225713,True,False,True,"https://www.google.com/maps?q=52.300385278778,9.8221059225713"
5.0,Wertstoffinsel,Burgstr. Laatzen / Rethen/Leine - Ecke Steinweg,"Burgstr. , Laatzen / Rethen/Leine",52.286186629516,9.8250097635987,True,False,True,"https://www.google.com/maps?q=52.286186629516,9.8250097635987"
5.0,Wertstoffinsel,Marggraf Laatzen / Rethen/Leine - Ecke Spindelweg,"Marggraf , Laatzen / Rethen/Leine",52.280189419287,9.8289148388449,True,False,True,"https://www.google.com/maps?q=52.280189419287,9.8289148388449"
5.0,Wertstoffinsel,Pattenser Str. / Laatzen / Rethen/Leine -,"Pattenser Str. / , Laatzen / Rethen/Leine",52.290539459823,9.8183607659794,True,False,False,"https://www.google.com/maps?q=52.290539459823,9.8183607659794"
5.0,Wertstoffinsel,Zur Sehlwiese Laatzen / Rethen/Leine - Ecke Am Bahnhof,"Zur Sehlwiese , Laatzen / Rethen/Leine",52.284179709664,9.8214247870208,True,False,False,"https://www.google.com/maps?q=52.284179709664,9.8214247870208"
5.0,Wertstoffinsel,Klusmoor Langenhagen / Engelbostel - Höhe Tennisplatz,"Klusmoor , Langenhagen / Engelbostel",52.444110222501,9.6614217920664,True,False,False,"https://www.google.com/maps?q=52.444110222501,9.6614217920664"
5.0,Wertstoffinsel,Am Kielenkamp Ecke Berliner Al Langenhagen / Godshorn - Parkplatz,"Am Kielenkamp Ecke Berliner Al , Langenhagen / Godshorn",52.433235515821,9.6967817051611,True,False,False,"https://www.google.com/maps?q=52.433235515821,9.6967817051611"
5.0,Wertstoffinsel,Desbrocksriede Langenhagen / Godshorn - Ecke Eschenweg,"Desbrocksriede , Langenhagen / Godshorn",52.431253094745,9.6790119251455,True,False,True,"https://www.google.com/maps?q=52.431253094745,9.6790119251455"
5.0,Wertstoffinsel,Lohkamp Langenhagen / Godshorn - Ecke Alt-Godshorn,"Lohkamp , Langenhagen / Godshorn",52.439394242333,9.6982617164982,True,False,True,"https://www.google.com/maps?q=52.439394242333,9.6982617164982"
5.0,Wertstoffinsel,Schulenburger Mühle Ecke Schäf Langenhagen / Godshorn - Wendeplatz,"Schulenburger Mühle Ecke Schäf , Langenhagen / Godshorn",52.435735490395,9.6812431974651,True,False,True,"https://www.google.com/maps?q=52.435735490395,9.6812431974651"
5.0,Wertstoffinsel,Bertha-von-Suttner-Ring Langenhagen / Kaltenweide - Ecke Kaltenweider Platz,"Bertha-von-Suttner-Ring , Langenhagen / Kaltenweide",52.480744853245,9.7347717827654,True,False,False,"https://www.google.com/maps?q=52.480744853245,9.7347717827654"
5.0,Wertstoffinsel,Hainhäuser Weg Langenhagen / Kaltenweide - Siedlung Twenge Richtung Hainhaus,"Hainhäuser Weg , Langenhagen / Kaltenweide",52.481010908106,9.7567462009247,True,False,True,"https://www.google.com/maps?q=52.481010908106,9.7567462009247"
5.0,Wertstoffinsel,Zellerie Langenhagen / Kaltenweide - An der Feuerwehr,"Zellerie , Langenhagen / Kaltenweide",52.474776933003,9.7286800710506,True,False,True,"https://www.google.com/maps?q=52.474776933003,9.7286800710506"
5.0,Wertstoffinsel,An Der Celler Bahn Langenhagen / Krähenwinkel - Ecke Hoher Kamp,"An Der Celler Bahn , Langenhagen / Krähenwinkel",52.463721073671,9.7527109420449,True,False,True,"https://www.google.com/maps?q=52.463721073671,9.7527109420449"
5.0,Wertstoffinsel,Emil-Berliner-Str. Langenhagen / Langenhagen - Ecke Ilmenauweg,"Emil-Berliner-Str. , Langenhagen / Langenhagen",52.430506942824,9.7532333898074,True,False,True,"https://www.google.com/maps?q=52.430506942824,9.7532333898074"
5.0,Wertstoffinsel,Hans-Böckler-Str. 54 Langenhagen / Langenhagen - vor Parkplatz Famila,"Hans-Böckler-Str. 54 , Langenhagen / Langenhagen",52.430635978402,9.7180384194869,True,False,False,"https://www.google.com/maps?q=52.430635978402,9.7180384194869"
5.0,Wertstoffinsel,Höhe Nr. 27 Langenhagen / Langenhagen - Parkplatz IGS Langenhagen,"Höhe Nr. 27 , Langenhagen / Langenhagen",52.439984217795,9.7459362672805,True,False,False,"https://www.google.com/maps?q=52.439984217795,9.7459362672805"
5.0,Wertstoffinsel,Konrad-Adenauer-Str. Langenhagen / Langenhagen - Nähe Iffezheimer Weg,"Konrad-Adenauer-Str. , Langenhagen / Langenhagen",52.440020175882,9.7459368745651,True,False,True,"https://www.google.com/maps?q=52.440020175882,9.7459368745651"
5.0,Wertstoffinsel,Kurt-Schumacher-Allee Langenhagen / Langenhagen - Richtung Emil-Berliner-Str.,"Kurt-Schumacher-Allee , Langenhagen / Langenhagen",52.43088350586,9.7491508513737,True,False,False,"https://www.google.com/maps?q=52.43088350586,9.7491508513737"
5.0,Wertstoffinsel,Leibnizstraße Langenhagen / Langenhagen - Ecke Heesternweg,"Leibnizstraße , Langenhagen / Langenhagen",52.449240549802,9.7451214738444,True,False,True,"https://www.google.com/maps?q=52.449240549802,9.7451214738444"
5.0,Wertstoffinsel,Leibnizstraße Langenhagen / Langenhagen - Ecke Heesternweg höhe Sportplatz,"Leibnizstraße , Langenhagen / Langenhagen",52.449004997613,9.7510915923462,True,False,True,"https://www.google.com/maps?q=52.449004997613,9.7510915923462"
5.0,Wertstoffinsel,Niedersachsenstraße Langenhagen / Langenhagen - Ecke Falterweg,"Niedersachsenstraße , Langenhagen / Langenhagen",52.451327850626,9.726085698274,True,False,True,"https://www.google.com/maps?q=52.451327850626,9.726085698274"
5.0,Wertstoffinsel,Poggenaue Langenhagen / Langenhagen - Ecke Reuterdamm,"Poggenaue , Langenhagen / Langenhagen",52.453311616828,9.7623048425268,True,False,True,"https://www.google.com/maps?q=52.453311616828,9.7623048425268"
5.0,Wertstoffinsel,Dorfstr. Langenhagen / Schulenburg - Nähe Im Spann,"Dorfstr. , Langenhagen / Schulenburg",52.449721925111,9.6770151381552,True,False,True,"https://www.google.com/maps?q=52.449721925111,9.6770151381552"
5.0,Wertstoffinsel,Parkplatz Schwanenburg,"Ahltener Str. , Lehrte / Ahlten",52.372987176819,9.9579198535001,True,False,False,"https://www.google.com/maps?q=52.372987176819,9.9579198535001"
5.0,Wertstoffinsel,An der Feuerwehr Lehrte / Ahlten - Ecke Im Wiesengrund Parkplatz,"An der Feuerwehr , Lehrte / Ahlten",52.365276019864,9.9050859903531,True,False,True,"https://www.google.com/maps?q=52.365276019864,9.9050859903531"
5.0,Wertstoffinsel,Im Kleifeld Lehrte / Ahlten - Parkplatz TSG Ahlten,"Im Kleifeld , Lehrte / Ahlten",52.360664222352,9.9085455935987,True,False,True,"https://www.google.com/maps?q=52.360664222352,9.9085455935987"
5.0,Wertstoffinsel,Planetenstr. Höhe Am Rehwinkel Lehrte / Ahlten - Kreisverkehr,"Planetenstr. Höhe Am Rehwinkel , Lehrte / Ahlten",52.371441607208,9.9216341886248,True,False,False,"https://www.google.com/maps?q=52.371441607208,9.9216341886248"
5.0,Wertstoffinsel,Bauernwinkel Lehrte / Aligse - Ecke Dammfeldstr.,"Bauernwinkel , Lehrte / Aligse",52.403265006566,9.9747596964745,True,False,False,"https://www.google.com/maps?q=52.403265006566,9.9747596964745"
5.0,Wertstoffinsel,Knüppelsdorfer Weg Lehrte / Arpke - Höhe Bahnhof,"Knüppelsdorfer Weg , Lehrte / Arpke",52.391361303627,10.085170155844,True,False,True,"https://www.google.com/maps?q=52.391361303627,10.085170155844"
5.0,Wertstoffinsel,Forellenweg Lehrte / Hämelerwald - Ecke Dammweg,"Forellenweg , Lehrte / Hämelerwald",52.344916272534,10.107300793257,True,False,True,"https://www.google.com/maps?q=52.344916272534,10.107300793257"
5.0,Wertstoffinsel,Heinrich-Kobbe-Str. Lehrte / Hämelerwald - ggü. Haus-Nr. 2,"Heinrich-Kobbe-Str. , Lehrte / Hämelerwald",52.354971048255,10.110811862955,True,False,True,"https://www.google.com/maps?q=52.354971048255,10.110811862955"
5.0,Wertstoffinsel,Riedweg Lehrte / Hämelerwald - Parkplatz Schulzentrum,"Riedweg , Lehrte / Hämelerwald",52.359004415125,10.117859006937,True,False,True,"https://www.google.com/maps?q=52.359004415125,10.117859006937"
5.0,Wertstoffinsel,Am Fleith Lehrte / Immensen - Parkplatz Sporthalle,"Am Fleith , Lehrte / Immensen",52.392965858161,10.058932697027,True,False,True,"https://www.google.com/maps?q=52.392965858161,10.058932697027"
5.0,Wertstoffinsel,Grafhornstr. 23 Lehrte / Immensen - vor Hundewiese,"Grafhornstr. 23 , Lehrte / Immensen",52.399573080026,10.066043215141,True,False,True,"https://www.google.com/maps?q=52.399573080026,10.066043215141"
5.0,Wertstoffinsel,Am Lindenberg Lehrte / Lehrte - Ecke Hofwinkel,"Am Lindenberg , Lehrte / Lehrte",52.370766262379,9.9809624662311,True,False,False,"https://www.google.com/maps?q=52.370766262379,9.9809624662311"
5.0,Wertstoffinsel,Am Pfingstanger 3 Lehrte / Lehrte - Parkplatz ggü.,"Am Pfingstanger 3 , Lehrte / Lehrte",52.375308958002,9.9850001078855,True,False,False,"https://www.google.com/maps?q=52.375308958002,9.9850001078855"
5.0,Wertstoffinsel,An Der Masch Lehrte / Lehrte - Parkplatz Turnhalle,"An Der Masch , Lehrte / Lehrte",52.371858361171,9.9782838700782,True,False,True,"https://www.google.com/maps?q=52.371858361171,9.9782838700782"
5.0,Wertstoffinsel,Bullenweg Ecke Westring Lehrte / Lehrte - Edeka,"Bullenweg Ecke Westring , Lehrte / Lehrte",52.369207030683,9.9595272154092,True,False,True,"https://www.google.com/maps?q=52.369207030683,9.9595272154092"
5.0,Wertstoffinsel,Dürerring Lehrte / Lehrte - Grünanlage am Lehrter Bach,"Dürerring , Lehrte / Lehrte",52.363132443834,9.9690591096399,True,False,True,"https://www.google.com/maps?q=52.363132443834,9.9690591096399"
5.0,Wertstoffinsel,Gartenstr. Lehrte / Lehrte - Rathausparkplatz,"Gartenstr. , Lehrte / Lehrte",52.373413663177,9.9739407354197,True,False,True,"https://www.google.com/maps?q=52.373413663177,9.9739407354197"
5.0,Wertstoffinsel,Schillerstraße Lehrte / Lehrte - Ecke Falkenstraße,"Schillerstraße , Lehrte / Lehrte",52.382814657013,9.9710621309321,True,False,True,"https://www.google.com/maps?q=52.382814657013,9.9710621309321"
5.0,Wertstoffinsel,Stackmannstr. Lehrte / Lehrte - Ecke Burgdorfer Str.,"Stackmannstr. , Lehrte / Lehrte",52.383223894929,9.9737745953895,True,False,False,"https://www.google.com/maps?q=52.383223894929,9.9737745953895"
5.0,Wertstoffinsel,Steinstraße Lehrte / Lehrte - Ecke Hohnhorstweg,"Steinstraße , Lehrte / Lehrte",52.387579628026,9.9959266121571,True,False,False,"https://www.google.com/maps?q=52.387579628026,9.9959266121571"
5.0,Wertstoffinsel,Südring Lehrte / Lehrte - Höhe Köhlerheide-Ost,"Südring , Lehrte / Lehrte",52.364692214102,9.97508541473,True,False,True,"https://www.google.com/maps?q=52.364692214102,9.97508541473"
5.0,Wertstoffinsel,Westring Lehrte / Lehrte - Höhe Iltener Str.,"Westring , Lehrte / Lehrte",52.365833211322,9.9631258806289,True,False,False,"https://www.google.com/maps?q=52.365833211322,9.9631258806289"
5.0,Wertstoffinsel,Brinkstr. Lehrte / Sievershausen - ggü. Hausnummer 6,"Brinkstr. , Lehrte / Sievershausen",52.373193774077,10.132774753147,True,False,True,"https://www.google.com/maps?q=52.373193774077,10.132774753147"
5.0,Wertstoffinsel,Hämelerwalder Str. Lehrte / Sievershausen - Wendehammer,"Hämelerwalder Str. , Lehrte / Sievershausen",52.36427782629,10.123044352193,True,False,True,"https://www.google.com/maps?q=52.36427782629,10.123044352193"
5.0,Wertstoffinsel,Kleegarten Lehrte / Sievershausen - Parkplatz Walter Kolb Turnhalle,"Kleegarten , Lehrte / Sievershausen",52.371406214511,10.125075986515,True,False,True,"https://www.google.com/maps?q=52.371406214511,10.125075986515"
5.0,Wertstoffinsel,Am Sportheim bei der Feuerwehr Lehrte / Steinwedel - Parkplatz,"Am Sportheim bei der Feuerwehr , Lehrte / Steinwedel",52.411011196153,9.9935727335839,True,False,False,"https://www.google.com/maps?q=52.411011196153,9.9935727335839"
5.0,Wertstoffinsel,Alte Dorfstr. Neustadt a. Rbge. / Bevensen - Ecke Alpestr.,"Alte Dorfstr. , Neustadt a. Rbge. / Bevensen",52.611923511162,9.480428787345,True,False,True,"https://www.google.com/maps?q=52.611923511162,9.480428787345"
5.0,Wertstoffinsel,Steinweg 29 Neustadt a. Rbge. / Bordenau - an der Feuerwehr,"Steinweg 29 , Neustadt a. Rbge. / Bordenau",52.461618223298,9.4776723619856,True,False,True,"https://www.google.com/maps?q=52.461618223298,9.4776723619856"
5.0,Wertstoffinsel,An Der Schule Neustadt a. Rbge. / Borstel - Ecke Im Or,"An Der Schule , Neustadt a. Rbge. / Borstel",52.587195616423,9.3887020094568,True,False,True,"https://www.google.com/maps?q=52.587195616423,9.3887020094568"
5.0,Wertstoffinsel,Seutenborn Hinter Hausnummer 8 Neustadt a. Rbge. / Büren -,"Seutenborn Hinter Hausnummer 8 , Neustadt a. Rbge. / Büren",52.590762405202,9.4974538342674,True,False,True,"https://www.google.com/maps?q=52.590762405202,9.4974538342674"
5.0,Wertstoffinsel,Speckenwiesen Neustadt a. Rbge. / Dudensen - Ecke Meyerkamp,"Speckenwiesen , Neustadt a. Rbge. / Dudensen",52.599267367064,9.4501852638352,True,False,True,"https://www.google.com/maps?q=52.599267367064,9.4501852638352"
5.0,Wertstoffinsel,Zum Tannenbruch Neustadt a. Rbge. / Eilvese - Ecke Eilverser Hauptstr.,"Zum Tannenbruch , Neustadt a. Rbge. / Eilvese",52.546164814872,9.4151195509952,True,False,True,"https://www.google.com/maps?q=52.546164814872,9.4151195509952"
5.0,Wertstoffinsel,Zur Näsch Neustadt a. Rbge. / Evensen - Ortsausgang,"Zur Näsch , Neustadt a. Rbge. / Evensen",52.575852105502,9.5296171606942,True,False,True,"https://www.google.com/maps?q=52.575852105502,9.5296171606942"
5.0,Wertstoffinsel,Am Gänseberg 2b Neustadt a. Rbge. / Hagen - nähe Hagener Str.,"Am Gänseberg 2b , Neustadt a. Rbge. / Hagen",52.576870016831,9.431657037192,True,False,True,"https://www.google.com/maps?q=52.576870016831,9.431657037192"
5.0,Wertstoffinsel,Walsroder Str. Ecke Unterm Hei Neustadt a. Rbge. / Helstorf - Agravis,"Walsroder Str. Ecke Unterm Hei , Neustadt a. Rbge. / Helstorf",52.587823740278,9.5893066462034,True,False,True,"https://www.google.com/maps?q=52.587823740278,9.5893066462034"
5.0,Wertstoffinsel,Zur Alten Schule Neustadt a. Rbge. / Laderholz - Ecke Brunnenbostel,"Zur Alten Schule , Neustadt a. Rbge. / Laderholz",52.624927090603,9.4750016481056,True,False,True,"https://www.google.com/maps?q=52.624927090603,9.4750016481056"
5.0,Wertstoffinsel,Am Poggenpohl Neustadt a. Rbge. / Lutter - Ecke Lutterstr.,"Am Poggenpohl , Neustadt a. Rbge. / Lutter",52.616098807603,9.5054215187152,True,False,True,"https://www.google.com/maps?q=52.616098807603,9.5054215187152"
5.0,Wertstoffinsel,Amedorfer Str. 25 Neustadt a. Rbge. / Mandelsloh - Parkplatz Combi Markt,"Amedorfer Str. 25 , Neustadt a. Rbge. / Mandelsloh",52.59907683484,9.5639886724167,True,False,True,"https://www.google.com/maps?q=52.59907683484,9.5639886724167"
5.0,Wertstoffinsel,Pferdeweg Neustadt a. Rbge. / Mardorf - Ecke Mardorfer Str.,"Pferdeweg , Neustadt a. Rbge. / Mardorf",52.492914950975,9.2956377371034,True,False,True,"https://www.google.com/maps?q=52.492914950975,9.2956377371034"
5.0,Wertstoffinsel,Strandweg Neustadt a. Rbge. / Mardorf - Weiße Düne,"Strandweg , Neustadt a. Rbge. / Mardorf",52.494074963462,9.3327780586131,True,False,False,"https://www.google.com/maps?q=52.494074963462,9.3327780586131"
5.0,Wertstoffinsel,Warteweg Neustadt a. Rbge. / Mardorf - Nähe Mardorfer Tennis Club,"Warteweg , Neustadt a. Rbge. / Mardorf",52.489224665342,9.3044201364846,True,False,False,"https://www.google.com/maps?q=52.489224665342,9.3044201364846"
5.0,Wertstoffinsel,Zum Duvenwinkel Neustadt a. Rbge. / Mariensee - Hagener Bach,"Zum Duvenwinkel , Neustadt a. Rbge. / Mariensee",52.562205841573,9.4919084531062,True,False,True,"https://www.google.com/maps?q=52.562205841573,9.4919084531062"
5.0,Wertstoffinsel,Im Wiebusche Neustadt a. Rbge. / Neustadt - Ecke Im Auenland,"Im Wiebusche , Neustadt a. Rbge. / Neustadt",52.51680893783,9.4479567411581,True,False,True,"https://www.google.com/maps?q=52.51680893783,9.4479567411581"
5.0,Wertstoffinsel,Nicolaitorstraße Ecke Münchhau Neustadt a. Rbge. / Neustadt - Parkplatz,"Nicolaitorstraße Ecke Münchhau , Neustadt a. Rbge. / Neustadt",52.509810655465,9.460675227299,True,False,True,"https://www.google.com/maps?q=52.509810655465,9.460675227299"
5.0,Wertstoffinsel,Rudolf-Diesel-Ring Neustadt a. Rbge. / Neustadt - vorm Wertstoffhof,"Rudolf-Diesel-Ring , Neustadt a. Rbge. / Neustadt",52.507222188155,9.4808334103445,True,False,False,"https://www.google.com/maps?q=52.507222188155,9.4808334103445"
5.0,Wertstoffinsel,Siemensstr. 2-4 Neustadt a. Rbge. / Neustadt - Parkpl. REWE,"Siemensstr. 2-4 , Neustadt a. Rbge. / Neustadt",52.500525673056,9.4555252603842,True,False,True,"https://www.google.com/maps?q=52.500525673056,9.4555252603842"
5.0,Wertstoffinsel,Niederstöckener Str. Neustadt a. Rbge. / Niedernstö - Im Mühlenort (Raiffeisen),"Niederstöckener Str. , Neustadt a. Rbge. / Niedernstö",52.646962570607,9.5724531005923,True,False,True,"https://www.google.com/maps?q=52.646962570607,9.5724531005923"
5.0,Wertstoffinsel,Am Heisterholz Neustadt a. Rbge. / Nöpke - ggü. Freibad,"Am Heisterholz , Neustadt a. Rbge. / Nöpke",52.599852949876,9.3834101271149,True,False,True,"https://www.google.com/maps?q=52.599852949876,9.3834101271149"
5.0,Wertstoffinsel,An Der Waldbühne 37 ggü. Neustadt a. Rbge. / Otternhage -,"An Der Waldbühne 37 ggü. , Neustadt a. Rbge. / Otternhage",52.513553736641,9.5327581310438,True,False,True,"https://www.google.com/maps?q=52.513553736641,9.5327581310438"
5.0,Wertstoffinsel,Am Brinke Ecke Alter Sandberg Neustadt a. Rbge. / Schneeren - Feuerwehr,"Am Brinke Ecke Alter Sandberg , Neustadt a. Rbge. / Schneeren",52.531856078563,9.3280365800832,True,False,True,"https://www.google.com/maps?q=52.531856078563,9.3280365800832"
5.0,Wertstoffinsel,Zum Barge Neustadt a. Rbge. / Stöckendre - Ecke L191 Ortseingang,"Zum Barge , Neustadt a. Rbge. / Stöckendre",52.661553590453,9.5742849239196,True,False,True,"https://www.google.com/maps?q=52.661553590453,9.5742849239196"
5.0,Wertstoffinsel,In Suttorf Neustadt a. Rbge. / Suttorf - ggü. Im Eschfeld,"In Suttorf , Neustadt a. Rbge. / Suttorf",52.533164926508,9.485996481666,True,False,True,"https://www.google.com/maps?q=52.533164926508,9.485996481666"
5.0,Wertstoffinsel,Moorenne Neustadt a. Rbge. / Welze - Ecke Seufzerallee,"Moorenne , Neustadt a. Rbge. / Welze",52.584710188643,9.5429043987073,True,False,True,"https://www.google.com/maps?q=52.584710188643,9.5429043987073"
5.0,Wertstoffinsel,Wiesenstraße Pattensen / Hüpede - zw. Bennigser Str. und An der Halbe,"Wiesenstraße , Pattensen / Hüpede",52.241163595128,9.7289628960272,True,False,True,"https://www.google.com/maps?q=52.241163595128,9.7289628960272"
5.0,Wertstoffinsel,Zum Holze Pattensen / Jeinsen - ggü. Ostlandstr.,"Zum Holze , Pattensen / Jeinsen",52.21726963529,9.789889456479,True,False,True,"https://www.google.com/maps?q=52.21726963529,9.789889456479"
5.0,Wertstoffinsel,Ludwig-Erhard-Str. 22 Pattensen / Pattensen - Wertstoffhof,"Ludwig-Erhard-Str. 22 , Pattensen / Pattensen",52.263132070253,9.7790111230976,True,False,False,"https://www.google.com/maps?q=52.263132070253,9.7790111230976"
5.0,Wertstoffinsel,Piester Weg Pattensen / Pattensen - Ecke Braunschweiger Str.,"Piester Weg , Pattensen / Pattensen",52.258682078996,9.7665819665644,True,False,True,"https://www.google.com/maps?q=52.258682078996,9.7665819665644"
5.0,Wertstoffinsel,Redener Weg 46 Pattensen / Pattensen - Parkplatz Fuchsbach,"Redener Weg 46 , Pattensen / Pattensen",52.269102121473,9.7707624756303,True,False,True,"https://www.google.com/maps?q=52.269102121473,9.7707624756303"
5.0,Wertstoffinsel,Rudolf-Harbig-Str. Pattensen / Pattensen - zum Motoballplatz,"Rudolf-Harbig-Str. , Pattensen / Pattensen",52.262533477223,9.7478342950737,True,False,False,"https://www.google.com/maps?q=52.262533477223,9.7478342950737"
5.0,Wertstoffinsel,Grünes Tal 999 Pattensen / Schulenburg/Leine -,"Grünes Tal 999 , Pattensen / Schulenburg/Leine",52.193356056953,9.7732847627543,True,False,False,"https://www.google.com/maps?q=52.193356056953,9.7732847627543"
5.0,Wertstoffinsel,Am Sportpark 7 Ronnenberg / Empelde - Parkplatz,"Am Sportpark 7 , Ronnenberg / Empelde",52.338690636419,9.6751714130545,True,False,True,"https://www.google.com/maps?q=52.338690636419,9.6751714130545"
5.0,Wertstoffinsel,Berliner Str. 25 hinter Penny Ronnenberg / Empelde - S Bahn Zugang,"Berliner Str. 25 hinter Penny , Ronnenberg / Empelde",52.340291756892,9.6687079741359,True,False,False,"https://www.google.com/maps?q=52.340291756892,9.6687079741359"
5.0,Wertstoffinsel,Nenndorfer Str. Ronnenberg / Empelde - vor Bahnübergang,"Nenndorfer Str. , Ronnenberg / Empelde",52.344378944468,9.6724982800576,True,False,True,"https://www.google.com/maps?q=52.344378944468,9.6724982800576"
5.0,Wertstoffinsel,Mühlenweg 28 Parkplatz Nabu Ronnenberg / Ihme-Roloven - Kindertagesstätte,"Mühlenweg 28 Parkplatz Nabu , Ronnenberg / Ihme-Roloven",52.301090584174,9.6753913130855,True,False,True,"https://www.google.com/maps?q=52.301090584174,9.6753913130855"
5.0,Wertstoffinsel,Am Denkmal 999 Ronnenberg / Linderte -,"Am Denkmal 999 , Ronnenberg / Linderte",,,True,False,True,"https://www.google.com/maps?q=nan,nan"
5.0,Wertstoffinsel,Weetzer Kirchweg Ronnenberg / Ronnenberg - ggü. Friedhof,"Weetzer Kirchweg , Ronnenberg / Ronnenberg",52.311670531268,9.6501165260969,True,False,False,"https://www.google.com/maps?q=52.311670531268,9.6501165260969"
5.0,Wertstoffinsel,Bröhnstr. Ronnenberg / Weetzen - Ecke Haferkamp,"Bröhnstr. , Ronnenberg / Weetzen",52.299964842675,9.6368932559246,True,False,False,"https://www.google.com/maps?q=52.299964842675,9.6368932559246"
5.0,Wertstoffinsel,Vörier Str. Ronnenberg / Weetzen - Ecke Sutfeldweg,"Vörier Str. , Ronnenberg / Weetzen",52.290942576061,9.6394176717308,True,False,True,"https://www.google.com/maps?q=52.290942576061,9.6394176717308"
5.0,Wertstoffinsel,Hatefeld Seelze / Almhorst - auf dem Festplatz,"Hatefeld , Seelze / Almhorst",52.379819350326,9.5699322909192,True,False,True,"https://www.google.com/maps?q=52.379819350326,9.5699322909192"
5.0,Wertstoffinsel,Raiffeisenstr. Seelze / Dedensen - Festplatz / Dirtpark,"Raiffeisenstr. , Seelze / Dedensen",52.401029860323,9.5083840988503,True,False,False,"https://www.google.com/maps?q=52.401029860323,9.5083840988503"
5.0,Wertstoffinsel,Friesenstr. Seelze / Gümmer - Ecke Graseweg,"Friesenstr. , Seelze / Gümmer",52.405448940076,9.5318223639868,True,False,True,"https://www.google.com/maps?q=52.405448940076,9.5318223639868"
5.0,Wertstoffinsel,Wasserfurche Ecke Im Tale Seelze / Harenberg - Rückwertig Garagenhof,"Wasserfurche Ecke Im Tale , Seelze / Harenberg",52.381653934683,9.6266670306973,True,False,True,"https://www.google.com/maps?q=52.381653934683,9.6266670306973"
5.0,Wertstoffinsel,Osterende Seelze / Kirchwehren - Ortsausgang Richtung L390,"Osterende , Seelze / Kirchwehren",52.364944992907,9.5726340897835,True,False,True,"https://www.google.com/maps?q=52.364944992907,9.5726340897835"
5.0,Wertstoffinsel,Alte Aue Ecke Akazienstraße Seelze / Letter - Mini Golf,"Alte Aue Ecke Akazienstraße , Seelze / Letter",52.397516623347,9.6327706370462,True,False,False,"https://www.google.com/maps?q=52.397516623347,9.6327706370462"
5.0,Wertstoffinsel,Möllerkamp Ecke Wiesenweg Seelze / Letter - Wendehammer,"Möllerkamp Ecke Wiesenweg , Seelze / Letter",52.401523003373,9.6334011983279,True,False,False,"https://www.google.com/maps?q=52.401523003373,9.6334011983279"
5.0,Wertstoffinsel,Nico-Flatau-Platz Seelze / Letter - Parkplatz,"Nico-Flatau-Platz , Seelze / Letter",52.407004538268,9.642226476529,True,False,True,"https://www.google.com/maps?q=52.407004538268,9.642226476529"
5.0,Wertstoffinsel,Max-Planck-Str. Seelze / Letter-Süd - Ecke Albert-Einstein-Str.,"Max-Planck-Str. , Seelze / Letter-Süd",52.387982394091,9.6419062899246,True,False,False,"https://www.google.com/maps?q=52.387982394091,9.6419062899246"
5.0,Wertstoffinsel,Fährweg Seelze / Lohnde - Parkplatz SC Lohnde 96,"Fährweg , Seelze / Lohnde",52.403317147426,9.5612244500296,True,False,True,"https://www.google.com/maps?q=52.403317147426,9.5612244500296"
5.0,Wertstoffinsel,Werftstr. 14 Seelze / Lohnde - vor Wertstoffhof,"Werftstr. 14 , Seelze / Lohnde",52.395402476672,9.567517036546,True,False,False,"https://www.google.com/maps?q=52.395402476672,9.567517036546"
5.0,Wertstoffinsel,Humboldtstr. Seelze / Seelze - Ecke Hannoversche Str.,"Humboldtstr. , Seelze / Seelze",52.394897610567,9.5987844716277,True,False,False,"https://www.google.com/maps?q=52.394897610567,9.5987844716277"
5.0,Wertstoffinsel,Kantstr. Seelze / Seelze - zw. Heinrich-Heine-Str. und Südstr.,"Kantstr. , Seelze / Seelze",52.392597856379,9.5894804046995,True,False,True,"https://www.google.com/maps?q=52.392597856379,9.5894804046995"
5.0,Wertstoffinsel,Wunstorfer Str. Seelze / Seelze - Höhe Parkplatz Moitje Kolonie,"Wunstorfer Str. , Seelze / Seelze",52.397123654776,9.5778271007257,True,False,False,"https://www.google.com/maps?q=52.397123654776,9.5778271007257"
5.0,Wertstoffinsel,An den Grachten Seelze / Seelze-Süd - Wendeplatz,"An den Grachten , Seelze / Seelze-Süd",52.388601234547,9.5868409665918,True,False,False,"https://www.google.com/maps?q=52.388601234547,9.5868409665918"
5.0,Wertstoffinsel,Heinrich-Beensen-Str. Seelze / Velber - Parkplatz Kita,"Heinrich-Beensen-Str. , Seelze / Velber",52.365403083701,9.6508756208878,True,False,True,"https://www.google.com/maps?q=52.365403083701,9.6508756208878"
5.0,Wertstoffinsel,Freien Str. Sehnde / Bilm - Ecke Kleifeld,"Freien Str. , Sehnde / Bilm",52.340486141315,9.9147520058177,True,False,True,"https://www.google.com/maps?q=52.340486141315,9.9147520058177"
5.0,Wertstoffinsel,Ost-West-Straße Ecke Fliederst Sehnde / Dolgen - Parkplatz Dorfkindergarten,"Ost-West-Straße Ecke Fliederst , Sehnde / Dolgen",52.318390214385,10.050534750827,True,False,False,"https://www.google.com/maps?q=52.318390214385,10.050534750827"
5.0,Wertstoffinsel,Stiegfeldweg Sehnde / Evern - Am Sportplatz / Feldwegzufahrt,"Stiegfeldweg , Sehnde / Evern",52.318826611576,10.017108549099,True,False,True,"https://www.google.com/maps?q=52.318826611576,10.017108549099"
5.0,Wertstoffinsel,Am Zimmerplatz Sehnde / Haimar - Ecke Harberstr.,"Am Zimmerplatz , Sehnde / Haimar",52.304975971732,10.04443839631,True,False,True,"https://www.google.com/maps?q=52.304975971732,10.04443839631"
5.0,Wertstoffinsel,Bilmer Str. Sehnde / Höver - Richtung Hannoversche Str.,"Bilmer Str. , Sehnde / Höver",52.35091239702,9.8975543070786,True,False,False,"https://www.google.com/maps?q=52.35091239702,9.8975543070786"
5.0,Wertstoffinsel,Lerchengrund Sehnde / Ilten - Ecke Am Park,"Lerchengrund , Sehnde / Ilten",52.340208301825,9.9353109056876,True,False,True,"https://www.google.com/maps?q=52.340208301825,9.9353109056876"
5.0,Wertstoffinsel,Rathausstr. Sehnde / Ilten - Ecke Glückauf-Sraße,"Rathausstr. , Sehnde / Ilten",52.346072138514,9.9373431215235,True,False,True,"https://www.google.com/maps?q=52.346072138514,9.9373431215235"
5.0,Wertstoffinsel,Wieckäckernstr. Sehnde / Klein Lobke - Nähe Schlosserberg,"Wieckäckernstr. , Sehnde / Klein Lobke",52.283674135828,10.016904442866,True,False,False,"https://www.google.com/maps?q=52.283674135828,10.016904442866"
5.0,Wertstoffinsel,Müllinger Str. Sehnde / Müllingen - Ecke Alte Schmiede,"Müllinger Str. , Sehnde / Müllingen",52.293562442451,9.9090487989123,True,False,True,"https://www.google.com/maps?q=52.293562442451,9.9090487989123"
5.0,Wertstoffinsel,Triftstr. Sehnde / Rethmar - Nähe Bergfeld S,"Triftstr. , Sehnde / Rethmar",52.317321884585,10.003826084167,True,False,True,"https://www.google.com/maps?q=52.317321884585,10.003826084167"
5.0,Wertstoffinsel,Borsigring Sehnde / Sehnde - am Wertstoffhof,"Borsigring , Sehnde / Sehnde",52.323286711737,9.9819662349034,True,False,False,"https://www.google.com/maps?q=52.323286711737,9.9819662349034"
5.0,Wertstoffinsel,Dieselstr. Sehnde / Sehnde - Ecke Borsigring nur Glascontainer,"Dieselstr. , Sehnde / Sehnde",52.31830288607,9.9768969948911,True,False,False,"https://www.google.com/maps?q=52.31830288607,9.9768969948911"
5.0,Wertstoffinsel,Steinweg Sehnde / Sehnde - Parkplatz,"Steinweg , Sehnde / Sehnde",52.316557881135,9.9660608886906,True,False,True,"https://www.google.com/maps?q=52.316557881135,9.9660608886906"
5.0,Wertstoffinsel,Hohenfelser Str. Sehnde / Wehmingen - zw. An der Landstr. u. Im Buchenkamp,"Hohenfelser Str. , Sehnde / Wehmingen",52.295347127994,9.9338229978449,True,False,True,"https://www.google.com/maps?q=52.295347127994,9.9338229978449"
5.0,Wertstoffinsel,Kaiserstr. Springe / Alferde - Ecke Drüstenstraße,"Kaiserstr. , Springe / Alferde",52.16305702084,9.704337852306,True,False,True,"https://www.google.com/maps?q=52.16305702084,9.704337852306"
5.0,Wertstoffinsel,Hohbrink Springe / Altenhagen I - ggü. Dorfgemeinschaftshaus,"Hohbrink , Springe / Altenhagen I",52.171614890759,9.5211187479886,True,False,False,"https://www.google.com/maps?q=52.171614890759,9.5211187479886"
5.0,Wertstoffinsel,Allerfeldstr. hinter Immengart Springe / Bennigsen - Straßenknick,"Allerfeldstr. hinter Immengart , Springe / Bennigsen",52.235656417209,9.6769310447239,True,False,False,"https://www.google.com/maps?q=52.235656417209,9.6769310447239"
5.0,Wertstoffinsel,Friedrich-Ludwig-Jahn-Str. Eck Springe / Bennigsen - Feuerwehr,"Friedrich-Ludwig-Jahn-Str. Eck , Springe / Bennigsen",52.242047501985,9.6661024516405,True,False,False,"https://www.google.com/maps?q=52.242047501985,9.6661024516405"
5.0,Wertstoffinsel,Gleiwitzer Str. Springe / Bennigsen - Ecke Breslauer Str. Höhe Freibad,"Gleiwitzer Str. , Springe / Bennigsen",52.237020804867,9.6533892215457,True,False,False,"https://www.google.com/maps?q=52.237020804867,9.6533892215457"
5.0,Wertstoffinsel,Medefelder Str. Springe / Bennigsen - Parkplatz Grundschule,"Medefelder Str. , Springe / Bennigsen",52.235946404699,9.6718100940946,True,False,False,"https://www.google.com/maps?q=52.235946404699,9.6718100940946"
5.0,Wertstoffinsel,Am Namenlosen Knick Springe / Eldagsen - Ecke Knickstraße,"Am Namenlosen Knick , Springe / Eldagsen",52.171929498297,9.6562663735647,True,False,False,"https://www.google.com/maps?q=52.171929498297,9.6562663735647"
5.0,Wertstoffinsel,Hindenburgallee Ecke Kirchhofs Springe / Eldagsen - Sportplatz,"Hindenburgallee Ecke Kirchhofs , Springe / Eldagsen",52.168030200843,9.6606100957686,True,False,False,"https://www.google.com/maps?q=52.168030200843,9.6606100957686"
5.0,Wertstoffinsel,Suderbruchtrift Springe / Gestorf - Parkplatz TSV Gestorf,"Suderbruchtrift , Springe / Gestorf",52.211006451469,9.7071302937946,True,False,True,"https://www.google.com/maps?q=52.211006451469,9.7071302937946"
5.0,Wertstoffinsel,Leftjestraße Springe / Holtensen - Ecke Dorfstraße,"Leftjestraße , Springe / Holtensen",52.160948217752,9.6775512878476,True,False,True,"https://www.google.com/maps?q=52.160948217752,9.6775512878476"
5.0,Wertstoffinsel,Zur Hallermühle Springe / Mittelrode - Richtung Mittelroder Str.,"Zur Hallermühle , Springe / Mittelrode",52.201206496312,9.6508738323392,True,False,False,"https://www.google.com/maps?q=52.201206496312,9.6508738323392"
5.0,Wertstoffinsel,Auf dem Burghof 3 neben Polize Springe / Springe - Parkplatz,"Auf dem Burghof 3 neben Polize , Springe / Springe",52.206706099795,9.5565048880556,True,False,True,"https://www.google.com/maps?q=52.206706099795,9.5565048880556"
5.0,Wertstoffinsel,Friedrich-Bähre-Str. Springe / Springe - ggü. Käthe-Kollwitz-Str.,"Friedrich-Bähre-Str. , Springe / Springe",52.215434591873,9.5662744305351,True,False,True,"https://www.google.com/maps?q=52.215434591873,9.5662744305351"
5.0,Wertstoffinsel,Jägerallee Springe / Springe - Ecke Industriestr.,"Jägerallee , Springe / Springe",52.215076370567,9.552701423243,True,False,True,"https://www.google.com/maps?q=52.215076370567,9.552701423243"
5.0,Wertstoffinsel,Oppelner Str. Springe / Springe - Wertstoffhof,"Oppelner Str. , Springe / Springe",52.205213606905,9.5697004828154,True,False,False,"https://www.google.com/maps?q=52.205213606905,9.5697004828154"
5.0,Wertstoffinsel,Reichspr.-Ebert-Str. Springe / Springe - Ecke Sudetenstraße,"Reichspr.-Ebert-Str. , Springe / Springe",52.211146059686,9.5662638076452,True,False,True,"https://www.google.com/maps?q=52.211146059686,9.5662638076452"
5.0,Wertstoffinsel,Wolfstalstr. Ecke Schiergrund Springe / Springe - Bushaltestelle,"Wolfstalstr. Ecke Schiergrund , Springe / Springe",52.206219810594,9.5392452894574,True,False,False,"https://www.google.com/maps?q=52.206219810594,9.5392452894574"
5.0,Wertstoffinsel,Nach den Dellen 13 Springe / Völksen - Ecke Gartenstr.,"Nach den Dellen 13 , Springe / Völksen",52.218707435468,9.619906374981,True,False,True,"https://www.google.com/maps?q=52.218707435468,9.619906374981"
5.0,Wertstoffinsel,Spielburg Springe / Völksen - Höhe Am Sportplatz,"Spielburg , Springe / Völksen",52.215799879858,9.6307559956995,True,False,True,"https://www.google.com/maps?q=52.215799879858,9.6307559956995"
5.0,Wertstoffinsel,Hänigser Kirchweg Nähe Schilfb Uetze / Altmerdingsen - Bushaltestelle,"Hänigser Kirchweg Nähe Schilfb , Uetze / Altmerdingsen",52.463465576402,10.129482452559,True,False,False,"https://www.google.com/maps?q=52.463465576402,10.129482452559"
5.0,Wertstoffinsel,Zum Bahnhof Uetze / Dedenhausen - P+R Dedenhausen,"Zum Bahnhof , Uetze / Dedenhausen",52.432101253499,10.237735638545,True,False,True,"https://www.google.com/maps?q=52.432101253499,10.237735638545"
5.0,Wertstoffinsel,Bahnhofstr. 98 Uetze / Dollbergen - ggü. Autohaus Milan,"Bahnhofstr. 98 , Uetze / Dollbergen",52.421351426613,10.181170060406,True,False,True,"https://www.google.com/maps?q=52.421351426613,10.181170060406"
5.0,Wertstoffinsel,Kötnerstr. 2 Uetze / Eltze - Ecke Peiner Str.,"Kötnerstr. 2 , Uetze / Eltze",52.455781416053,10.265082141099,True,False,True,"https://www.google.com/maps?q=52.455781416053,10.265082141099"
5.0,Wertstoffinsel,Am Ölfeld Uetze / Hänigsen - Ecke Altmerdingser Str.,"Am Ölfeld , Uetze / Hänigsen",52.477662181216,10.102767679763,True,False,True,"https://www.google.com/maps?q=52.477662181216,10.102767679763"
5.0,Wertstoffinsel,Uetzer Kirchweg Ecke Am Immenb Uetze / Katensen - Feldweg,"Uetzer Kirchweg Ecke Am Immenb , Uetze / Katensen",52.438055209367,10.172245597084,True,False,True,"https://www.google.com/maps?q=52.438055209367,10.172245597084"
5.0,Wertstoffinsel,Hauptstr. Uetze / Obershagen - K 125 Bus Wendeschleife,"Hauptstr. , Uetze / Obershagen",52.504623857884,10.060612246964,True,False,True,"https://www.google.com/maps?q=52.504623857884,10.060612246964"
5.0,Wertstoffinsel,Hooptweg Uetze / Schwüblingsen - An den Keimhäusern,"Hooptweg , Uetze / Schwüblingsen",52.41276431608,10.129745134788,True,False,True,"https://www.google.com/maps?q=52.41276431608,10.129745134788"
5.0,Wertstoffinsel,Am Spring Uetze / Uetze - Bodestr.11 Freibad,"Am Spring , Uetze / Uetze",52.460033094221,10.202251937026,True,False,True,"https://www.google.com/maps?q=52.460033094221,10.202251937026"
5.0,Wertstoffinsel,Praklastr. Uetze / Uetze - Wendehammer,"Praklastr. , Uetze / Uetze",52.469374563255,10.216315566402,True,False,True,"https://www.google.com/maps?q=52.469374563255,10.216315566402"
5.0,Wertstoffinsel,Am Mühlenberg Sportplatz Wedemark / Bissendorf - Festplatz,"Am Mühlenberg Sportplatz , Wedemark / Bissendorf",52.527440068194,9.7506600490179,True,False,True,"https://www.google.com/maps?q=52.527440068194,9.7506600490179"
5.0,Wertstoffinsel,Auf Der Haube 9 Wedemark / Bissendorf - Wendeplatte,"Auf Der Haube 9 , Wedemark / Bissendorf",52.516655524196,9.7357243946674,True,False,True,"https://www.google.com/maps?q=52.516655524196,9.7357243946674"
5.0,Wertstoffinsel,Georg-Reimann-Str. Wedemark / Bissendorf - ggü. Hausnummer 11,"Georg-Reimann-Str. , Wedemark / Bissendorf",52.523975195413,9.7383671500319,True,False,True,"https://www.google.com/maps?q=52.523975195413,9.7383671500319"
5.0,Wertstoffinsel,Am Sportplatz Wedemark / Brelingen - Parkplatz Sportgaststätte,"Am Sportplatz , Wedemark / Brelingen",52.552093429511,9.6725720352471,True,False,False,"https://www.google.com/maps?q=52.552093429511,9.6725720352471"
5.0,Wertstoffinsel,Wasserwerkstr. Ecke Bruchweg Wedemark / Elze - Kuckucksweg,"Wasserwerkstr. Ecke Bruchweg , Wedemark / Elze",52.585233686462,9.7429091083534,True,False,True,"https://www.google.com/maps?q=52.585233686462,9.7429091083534"
5.0,Wertstoffinsel,Hessenweg 2 Wedemark / Gailhof - Autohof Mellendorf,"Hessenweg 2 , Wedemark / Gailhof",52.552707694062,9.7777724734579,True,False,False,"https://www.google.com/maps?q=52.552707694062,9.7777724734579"
5.0,Wertstoffinsel,Sommerbosteler Str. Wedemark / Hellendorf - Ecke Meitzer Str.,"Sommerbosteler Str. , Wedemark / Hellendorf",52.563022032102,9.733726455865,True,False,True,"https://www.google.com/maps?q=52.563022032102,9.733726455865"
5.0,Wertstoffinsel,Hastraweg Wedemark / Meitze - Richtung Umspannwerk,"Hastraweg , Wedemark / Meitze",52.566559281134,9.7685160109289,True,False,True,"https://www.google.com/maps?q=52.566559281134,9.7685160109289"
5.0,Wertstoffinsel,Am Freizeitpark Wedemark / Mellendorf - Jugendhalle,"Am Freizeitpark , Wedemark / Mellendorf",52.546711844619,9.7497942903796,True,False,False,"https://www.google.com/maps?q=52.546711844619,9.7497942903796"
5.0,Wertstoffinsel,Am Rutenberge Wedemark / Mellendorf - Ecke Hermann-Löns-Str.,"Am Rutenberge , Wedemark / Mellendorf",52.544095283867,9.7238552221658,True,False,True,"https://www.google.com/maps?q=52.544095283867,9.7238552221658"
5.0,Wertstoffinsel,Am Spring Wedemark / Negenborn - Ecke Werner-von-Negenborn-Straße,"Am Spring , Wedemark / Negenborn",52.553110830929,9.6365256919853,True,False,True,"https://www.google.com/maps?q=52.553110830929,9.6365256919853"
5.0,Wertstoffinsel,Osterbergstr. Wedemark / Resse - ggü. Waldfriedhof,"Osterbergstr. , Wedemark / Resse",52.502950541593,9.6202434755409,True,False,False,"https://www.google.com/maps?q=52.502950541593,9.6202434755409"
5.0,Wertstoffinsel,Fuhrenkamp Wedemark / Scherenbostel - Ecke Ostpreußenweg Bushaltestelle,"Fuhrenkamp , Wedemark / Scherenbostel",52.525009762849,9.7222295802438,True,False,True,"https://www.google.com/maps?q=52.525009762849,9.7222295802438"
5.0,Wertstoffinsel,Lindenstraße 37 Wedemark / Wennebostel - Parkplatz Edeka,"Lindenstraße 37 , Wedemark / Wennebostel",52.529219409474,9.7521940019276,True,False,True,"https://www.google.com/maps?q=52.529219409474,9.7521940019276"
5.0,Wertstoffinsel,Im Büntefeld Wennigsen / Holtensen - Ecke Am Sportplatz,"Im Büntefeld , Wennigsen / Holtensen",52.264741169152,9.626482772814,True,False,False,"https://www.google.com/maps?q=52.264741169152,9.626482772814"
5.0,Wertstoffinsel,Weetzener Str. Wennigsen / Sorsum - Höhe Buschweg,"Weetzener Str. , Wennigsen / Sorsum",52.279612381208,9.6074315333237,True,False,True,"https://www.google.com/maps?q=52.279612381208,9.6074315333237"
5.0,Wertstoffinsel,Hauptstr. Wennigsen / Wennigsen - Friedhofsparkplatz,"Hauptstr. , Wennigsen / Wennigsen",52.273243117826,9.5740604101119,True,False,True,"https://www.google.com/maps?q=52.273243117826,9.5740604101119"
5.0,Wertstoffinsel,Heisterweg Wennigsen / Wennigsen - Ecke Werner-von-Siemens-Str.,"Heisterweg , Wennigsen / Wennigsen",52.279605112042,9.5710497321691,True,False,True,"https://www.google.com/maps?q=52.279605112042,9.5710497321691"
5.0,Wertstoffinsel,Am Waldwinkel Wennigsen / Wennigser Mark - Neue Kohlenstraße / Wanderparkplatz,"Am Waldwinkel , Wennigsen / Wennigser Mark",52.274060925933,9.5156800259915,True,False,True,"https://www.google.com/maps?q=52.274060925933,9.5156800259915"
5.0,Wertstoffinsel,Am Bruche Wunstorf / Blumenau - Ecke Leinechaussee,"Am Bruche , Wunstorf / Blumenau",52.432184427619,9.4523639654537,True,False,False,"https://www.google.com/maps?q=52.432184427619,9.4523639654537"
5.0,Wertstoffinsel,Am Bruche Ecke Leinechaussee Wunstorf / Blumenau - Garagenhof,"Am Bruche Ecke Leinechaussee , Wunstorf / Blumenau",52.432195160844,9.4519081052385,True,False,True,"https://www.google.com/maps?q=52.432195160844,9.4519081052385"
5.0,Wertstoffinsel,Alte Dorfstr Wunstorf / Bokeloh - höhe Alter Damm,"Alte Dorfstr , Wunstorf / Bokeloh",52.411064668732,9.3813446407786,True,False,True,"https://www.google.com/maps?q=52.411064668732,9.3813446407786"
5.0,Wertstoffinsel,Am Schützenplatz Wunstorf / Bokeloh - Ecke Schaumburger Str.,"Am Schützenplatz , Wunstorf / Bokeloh",52.417915554802,9.3784776572647,True,False,True,"https://www.google.com/maps?q=52.417915554802,9.3784776572647"
5.0,Wertstoffinsel,Hattorfstr. Wunstorf / Bokeloh - ggü. Hausnummer 19,"Hattorfstr. , Wunstorf / Bokeloh",52.42141846248,9.3878306811254,True,False,True,"https://www.google.com/maps?q=52.42141846248,9.3878306811254"
5.0,Wertstoffinsel,Sigmundshaller Str. Ecke Stein Wunstorf / Bokeloh - Parkplatz,"Sigmundshaller Str. Ecke Stein , Wunstorf / Bokeloh",52.420542036862,9.3752503859407,True,False,True,"https://www.google.com/maps?q=52.420542036862,9.3752503859407"
5.0,Wertstoffinsel,Am Bahnhof Wunstorf / Großenheidorn - Ecke an der Mehrzweckhalle,"Am Bahnhof , Wunstorf / Großenheidorn",52.456408387788,9.3852241027356,True,False,True,"https://www.google.com/maps?q=52.456408387788,9.3852241027356"
5.0,Wertstoffinsel,Brahmsstr. Wunstorf / Großenheidorn - Ecke Wagnerstr.,"Brahmsstr. , Wunstorf / Großenheidorn",52.460583668652,9.4003319222637,True,False,True,"https://www.google.com/maps?q=52.460583668652,9.4003319222637"
5.0,Wertstoffinsel,Zur Großen Loh Wunstorf / Idensen - Mehrzweckhalle,"Zur Großen Loh , Wunstorf / Idensen",52.398281112603,9.3551171592848,True,False,True,"https://www.google.com/maps?q=52.398281112603,9.3551171592848"
5.0,Wertstoffinsel,Brinkstraße Wunstorf / Idensermoor - Ecke Im Busche,"Brinkstraße , Wunstorf / Idensermoor",52.391573975795,9.3522124660058,True,False,False,"https://www.google.com/maps?q=52.391573975795,9.3522124660058"
5.0,Wertstoffinsel,Schulstr. ggü. Grundschule Wunstorf / Klein Heidorn - Parkplatz,"Schulstr. ggü. Grundschule , Wunstorf / Klein Heidorn",52.445714865167,9.4181766411746,True,False,True,"https://www.google.com/maps?q=52.445714865167,9.4181766411746"
5.0,Wertstoffinsel,Ewipper Weg Wunstorf / Kolenfeld - Ecke Mühlenweg,"Ewipper Weg , Wunstorf / Kolenfeld",52.394031612745,9.4540753010353,True,False,True,"https://www.google.com/maps?q=52.394031612745,9.4540753010353"
5.0,Wertstoffinsel,Kirchdamm 13 Wunstorf / Kolenfeld - Parkplatz Grundschule,"Kirchdamm 13 , Wunstorf / Kolenfeld",52.385868019119,9.451802233121,True,False,True,"https://www.google.com/maps?q=52.385868019119,9.451802233121"
5.0,Wertstoffinsel,Kastanienallee Wunstorf / Liethe - Ecke Liether Schweiz ggü. Hausnr. 15,"Kastanienallee , Wunstorf / Liethe",52.449460000578,9.4533796586767,True,False,True,"https://www.google.com/maps?q=52.449460000578,9.4533796586767"
5.0,Wertstoffinsel,Adolf-Oesterheld-Str. Wunstorf / Luthe - Ecke Ahornstr. Kleintierpraxis,"Adolf-Oesterheld-Str. , Wunstorf / Luthe",52.424769476341,9.4679943332994,True,False,True,"https://www.google.com/maps?q=52.424769476341,9.4679943332994"
5.0,Wertstoffinsel,Am Lehmstich 23 Wunstorf / Luthe - Nähe Am Lehmgraben,"Am Lehmstich 23 , Wunstorf / Luthe",52.429017319219,9.4691571043735,True,False,True,"https://www.google.com/maps?q=52.429017319219,9.4691571043735"
5.0,Wertstoffinsel,An Der Tongrube Wunstorf / Luthe - Ecke Buchfinkenweg,"An Der Tongrube , Wunstorf / Luthe",52.42471161706,9.477964546806,True,False,False,"https://www.google.com/maps?q=52.42471161706,9.477964546806"
5.0,Wertstoffinsel,Sahlenkamp Wunstorf / Luthe - Bauhof,"Sahlenkamp , Wunstorf / Luthe",52.414456399175,9.4544467817345,True,False,True,"https://www.google.com/maps?q=52.414456399175,9.4544467817345"
5.0,Wertstoffinsel,Sportplatzstr. Wunstorf / Mesmerode - Parkplatz,"Sportplatzstr. , Wunstorf / Mesmerode",52.413099157907,9.3574709175834,True,False,True,"https://www.google.com/maps?q=52.413099157907,9.3574709175834"
5.0,Wertstoffinsel,Bleichenstr. Wunstorf / Steinhude - Ecke Pickertsberg,"Bleichenstr. , Wunstorf / Steinhude",52.461966029128,9.3763384206193,True,False,True,"https://www.google.com/maps?q=52.461966029128,9.3763384206193"
5.0,Wertstoffinsel,Hohenfelder Str. 15a Wunstorf / Steinhude - Höhe Autohändler,"Hohenfelder Str. 15a , Wunstorf / Steinhude",52.453133396984,9.3719661535956,True,False,True,"https://www.google.com/maps?q=52.453133396984,9.3719661535956"
5.0,Wertstoffinsel,Masurenplatz 8 Wunstorf / Steinhude - am Spielplatz,"Masurenplatz 8 , Wunstorf / Steinhude",52.460557863105,9.3752961446814,True,False,True,"https://www.google.com/maps?q=52.460557863105,9.3752961446814"
5.0,Wertstoffinsel,Meerstraße 10 Wunstorf / Steinhude - Ecke Bruchdamm Sporthalle Steinhude,"Meerstraße 10 , Wunstorf / Steinhude",52.450729423162,9.3525811648154,True,False,True,"https://www.google.com/maps?q=52.450729423162,9.3525811648154"
5.0,Wertstoffinsel,Zum Pageskampe Wunstorf / Steinhude - ggü Hausnr. 30 Ecke Sölterweg,"Zum Pageskampe , Wunstorf / Steinhude",52.450474595224,9.3595833544696,True,False,True,"https://www.google.com/maps?q=52.450474595224,9.3595833544696"
5.0,Wertstoffinsel,Amtsstr. Wunstorf / Wunstorf - Ecke Schlobbenriede Parkplatz,"Amtsstr. , Wunstorf / Wunstorf",52.423664709998,9.4248503147221,True,False,False,"https://www.google.com/maps?q=52.423664709998,9.4248503147221"
5.0,Wertstoffinsel,Düendorfer Weg Wunstorf / Wunstorf - ggü. Hausnummer 59,"Düendorfer Weg , Wunstorf / Wunstorf",52.41704875998,9.4245808771618,True,False,False,"https://www.google.com/maps?q=52.41704875998,9.4245808771618"
5.0,Wertstoffinsel,Hagenburger Str. 20 Wunstorf / Wunstorf - Parkplatz Marktkauf,"Hagenburger Str. 20 , Wunstorf / Wunstorf",52.430451666743,9.4200324751905,True,False,False,"https://www.google.com/maps?q=52.430451666743,9.4200324751905"
5.0,Wertstoffinsel,König-Ludwig-Str. Wunstorf / Wunstorf - Höhe Spielplatz,"König-Ludwig-Str. , Wunstorf / Wunstorf",52.418482774219,9.4453421940413,True,False,False,"https://www.google.com/maps?q=52.418482774219,9.4453421940413"
5.0,Wertstoffinsel,Nordrehr Wendehammer Wunstorf / Wunstorf - Grabmale Krapf,"Nordrehr Wendehammer , Wunstorf / Wunstorf",52.430100163294,9.425309306107,True,False,True,"https://www.google.com/maps?q=52.430100163294,9.425309306107"
5.0,Wertstoffinsel,Rembrandtstr. Wunstorf / Wunstorf - Ecke Barnestraße,"Rembrandtstr. , Wunstorf / Wunstorf",52.416703210936,9.430635419154,True,False,True,"https://www.google.com/maps?q=52.416703210936,9.430635419154"
5.0,Wertstoffinsel,Senator-Meier-Str. Wunstorf / Wunstorf - Ecke Klein Heidorner Str. Friedhof,"Senator-Meier-Str. , Wunstorf / Wunstorf",52.435283079201,9.4240647461969,True,False,True,"https://www.google.com/maps?q=52.435283079201,9.4240647461969"
5.0,Wertstoffinsel,Senator-Meier-Str. Ecke Astern Wunstorf / Wunstorf - Spielplatz,"Senator-Meier-Str. Ecke Astern , Wunstorf / Wunstorf",52.437486114706,9.4314117053471,True,False,True,"https://www.google.com/maps?q=52.437486114706,9.4314117053471"
1.0,Wertstoffhöfe,Döhrbruch 8 30559 Hannover,"Döhrbruch 8, 30559 Hannover",52.35302529265699,9.823802777724918,,,,"https://www.google.com/maps?q=52.35302529265699,9.823802777724918"
,NA,"Immelmannstr. 17, 30419 Ledeburg","Immelmannstr. 17, 30419 Ledeburg",52.41314583572483,9.678545542862214,,,,"https://www.google.com/maps?q=52.41314583572483,9.678545542862214"
