[{"typ":3,"name":"Gr\u00fcngutannahmestelle Barsinghausen","strasse":"Blumenhof","nummer":"3","plz":"30890","ort":"Barsinghausen","breitengrad":52.315025174527,"laengengrad":9.4599312543869},{"typ":3,"name":"Gr\u00fcngutannahmestelle Kirchdorf","strasse":"Angerstr.","nummer":"4","plz":"30890","ort":"Barsinghausen","breitengrad":52.298425941901,"laengengrad":9.5018916194109},{"typ":3,"name":"Gr\u00fcngutannahmestelle Nordgoltern","strasse":"Grabenfeld","nummer":"1","plz":"30890","ort":"Barsinghausen","breitengrad":52.33761898894,"laengengrad":9.4922009110451},{"typ":3,"name":"Gr\u00fcngutannahmestelle Gro\u00df Munzel","strasse":"Osterende","nummer":"30","plz":"30890","ort":"Barsinghausen","breitengrad":52.364601348006,"laengengrad":9.4822129771594},{"typ":3,"name":"Gr\u00fcngutannahmestelle Winninghausen","strasse":"D\u00fcsterstra\u00dfe","nummer":"5a","plz":"30890","ort":"Barsinghausen","breitengrad":52.325186786275,"laengengrad":9.4365048408508},{"typ":3,"name":"Gr\u00fcngutannahmestelle Otze","strasse":"Burgdorfer Str.","nummer":"51 (Zufahrt \u00fcber Hessenweg)","plz":"31303","ort":"Burgdorf","breitengrad":52.487203640286,"laengengrad":10.008756816387},{"typ":3,"name":"Gr\u00fcngutannahmestelle Ramlingen","strasse":"Goldkuhle","plz":"31303","ort":"Burgdorf","breitengrad":52.509907407512,"laengengrad":9.9989640712738},{"typ":3,"name":"Gr\u00fcngutannahmestelle Fuhrberg","strasse":"Kahlsweg (ca.","nummer":"500m hinter dem Sportplatz)","plz":"30938","ort":"Burgwedel","breitengrad":52.576092833244,"laengengrad":9.8403811454773},{"typ":3,"name":"Gr\u00fcngutannahmestelle Th\u00f6nse","strasse":"Neuwarmb\u00fcchener Stra\u00dfe","plz":"30938","ort":"Burgwedel","breitengrad":52.492639146577,"laengengrad":9.8993682861328},{"typ":3,"name":"Gr\u00fcngutannahmestelle Wettmar","strasse":"Moodweg (Ecke Alter Damm)","plz":"30938","ort":"Burgwedel","breitengrad":52.519691267991,"laengengrad":9.9201929569244},{"typ":3,"name":"Gr\u00fcngutannahmestelle Berenbostel","strasse":"Auf dem Kampe","nummer":"50","plz":"30827","ort":"Garbsen","breitengrad":52.435561273238,"laengengrad":9.6292054653168},{"typ":3,"name":"Gr\u00fcngutannahmestelle Schlo\u00df Ricklingen, Garbsen","strasse":"N\u00e4he Burgstra\u00dfe","nummer":"125","plz":"30826","ort":"Garbsen","breitengrad":52.423335,"laengengrad":9.547402},{"typ":3,"name":"Gr\u00fcngutannahmestelle Gehrden","strasse":"Levester Stra\u00dfe","nummer":"38","plz":"30989","ort":"Gehrden","breitengrad":52.320528058383,"laengengrad":9.5848846435547},{"typ":3,"name":"Gr\u00fcngutannahmestelle Ohlendorf","strasse":"Bruchweg","nummer":"20","plz":"30966","ort":"Hemmingen","breitengrad":52.285071084691,"laengengrad":9.7186517715454},{"typ":3,"name":"Gr\u00fcngutannahmestelle Kirchhorst","strasse":"Kr\u00fcmpelweg","nummer":"10","plz":"30916","ort":"Isernhagen","breitengrad":52.449183800016,"laengengrad":9.9146085977554},{"typ":3,"name":"Gr\u00fcngutannahmestelle Niedernh\u00e4gener Bauerschaft","strasse":"Am Ortfelde","nummer":"72","plz":"30916","ort":"Isernhagen","breitengrad":52.456016366324,"laengengrad":9.8012638092041},{"typ":3,"name":"Gr\u00fcngutannahmestelle Farster Bauerschaft","strasse":"Hauptstra\u00dfe","nummer":"25a","plz":"30916","ort":"Isernhagen","breitengrad":52.469021465676,"laengengrad":9.8363953828812},{"typ":3,"name":"Gr\u00fcngutannahmestelle Ingeln","strasse":"Stiftungsstra\u00dfe","nummer":"1","plz":"30880","ort":"Laatzen","breitengrad":52.275898084274,"laengengrad":9.8971313238144},{"typ":3,"name":"Gr\u00fcngutannahmestelle Kaltenweide","strasse":"Kananoher Stra\u00dfe (Ecke Auf der Heide - Einfahrt in der Feldmark)","plz":"30855","ort":"Langenhagen","breitengrad":52.475704354521,"laengengrad":9.7176218032837},{"typ":3,"name":"Gr\u00fcngutannahmestelle Kr\u00e4henwinkel","strasse":"Walsroder Stra\u00dfe","nummer":"209","plz":"30855","ort":"Langenhagen","breitengrad":52.458405879733,"laengengrad":9.7429740428925},{"typ":3,"name":"Gr\u00fcngutannahmestelle Schulenburg","strasse":"Dorfstra\u00dfe","nummer":"28","plz":"30855","ort":"Langenhagen","breitengrad":52.444007997618,"laengengrad":9.674813747406},{"typ":3,"name":"Gr\u00fcngutannahmestelle Arpke","strasse":"Zum Grafhorn","plz":"31275","ort":"Lehrte","breitengrad":52.389096619773,"laengengrad":10.100555419922},{"typ":3,"name":"Gr\u00fcngutannahmestelle Lehrte","strasse":"Sehnder Landstra\u00dfe","plz":"31275","ort":"Lehrte","breitengrad":52.348935234304,"laengengrad":9.9803458193329},{"typ":3,"name":"Gr\u00fcngutannahmestelle Amedorf","strasse":"Pungem\u00fchle","breitengrad":52.597952607939,"laengengrad":9.5441257953644},{"typ":3,"name":"Gr\u00fcngutannahmestelle Esperke","strasse":"Hoper Stra\u00dfe","nummer":"3","breitengrad":52.636771476091,"laengengrad":9.6097272634506},{"typ":3,"name":"Gr\u00fcngutannahmestelle Mardorf","strasse":"Haesterkamp","nummer":"9","breitengrad":52.493057217872,"laengengrad":9.2932426929474},{"typ":3,"name":"Gr\u00fcngutannahmestelle Metel","strasse":"Meteler Stra\u00dfe","nummer":"8","breitengrad":52.547959828497,"laengengrad":9.547124505043},{"typ":3,"name":"Gr\u00fcngutannahmestelle Poggenhagen","strasse":"Am Schiffgraben","nummer":"25","breitengrad":52.480742046311,"laengengrad":9.4444227218628},{"typ":3,"name":"Gr\u00fcngutannahmestelle Schneeren","strasse":"Im Nordfeld","breitengrad":52.537565370465,"laengengrad":9.3246030807495},{"typ":3,"name":"Gr\u00fcngutannahmestelle Wulfelade","strasse":"Lohbergstra\u00dfe","nummer":"10","breitengrad":52.572415403769,"laengengrad":9.4977611303329},{"typ":3,"name":"Gr\u00fcngutannahmestelle Koldingen","strasse":"Ruther Weg","nummer":"1","plz":"30982","ort":"Pattensen","breitengrad":52.271105489463,"laengengrad":9.7966021299362},{"typ":3,"name":"Gr\u00fcngutannahmestelle Benthe","strasse":"Hengstweg","plz":"30952","ort":"Ronnenberg","breitengrad":52.339439931848,"laengengrad":9.6299082040787},{"typ":3,"name":"Gr\u00fcngutannahmestelle Ihme-Roloven","strasse":"Teichstra\u00dfe","nummer":"6","plz":"30952","ort":"Ronnenberg","breitengrad":52.305130198767,"laengengrad":9.6762996912003},{"typ":3,"name":"Gr\u00fcngutannahmestelle D\u00f6teberg","strasse":"Hinterm Kampe","plz":"30926","ort":"Seelze","breitengrad":52.371987269152,"laengengrad":9.5946961641312},{"typ":3,"name":"Gr\u00fcngutannahmestelle Bolzum","strasse":"Pfingstanger","plz":"31319","ort":"Sehnde","breitengrad":52.301736579745,"laengengrad":9.9457222223282},{"typ":3,"name":"Gr\u00fcngutannahmestelle Ilten","strasse":"Gl\u00fcckauf-Stra\u00dfe","plz":"31319","ort":"Sehnde","breitengrad":52.347541328334,"laengengrad":9.9480128288269},{"typ":3,"name":"Gr\u00fcngutannahmestelle Altenhagen","strasse":"Alte Landstra\u00dfe","nummer":"1","plz":"31832","ort":"Springe","breitengrad":52.175432701448,"laengengrad":9.5207047462463},{"typ":3,"name":"Gr\u00fcngutannahmestelle L\u00fcdersen","strasse":"Hiddestorfer Stra\u00dfe","nummer":"8","plz":"31832","ort":"Springe","breitengrad":52.251878477893,"laengengrad":9.6742826700211},{"typ":3,"name":"Gr\u00fcngutannahmestelle V\u00f6lksen","strasse":"In der Ahnt","plz":"31832","ort":"Springe","breitengrad":52.212850088118,"laengengrad":9.6366995573044},{"typ":3,"name":"Gr\u00fcngutannahmestelle Eltze","strasse":"Warmser Weg","plz":"31311","ort":"Uetze","breitengrad":52.46250468827,"laengengrad":10.271750092506},{"typ":3,"name":"Gr\u00fcngutannahmestelle H\u00e4nigsen","strasse":"Burgdorfer Berg (ca.","nummer":"100m hinter Ortsausgang, Richtung Dachtmissen)","plz":"31311","ort":"Uetze","breitengrad":52.479660629189,"laengengrad":10.081994533539},{"typ":3,"name":"Gr\u00fcngutannahmestelle Abbensen","strasse":"Dunkler Weg","nummer":"9","plz":"30900","ort":"Wedemark","breitengrad":52.566667172397,"laengengrad":9.6146142482758},{"typ":3,"name":"Gr\u00fcngutannahmestelle Bissendorf","strasse":"Isernh\u00e4gener Damm","nummer":"1","plz":"30900","ort":"Wedemark","breitengrad":52.517954685685,"laengengrad":9.7627633810043},{"typ":3,"name":"Gr\u00fcngutannahmestelle Brelingen","strasse":"D\u00fcsternstra\u00dfe","nummer":"9","plz":"30900","ort":"Wedemark","breitengrad":52.550424048746,"laengengrad":9.6806207299232},{"typ":3,"name":"Gr\u00fcngutannahmestelle Elze","strasse":"Hohenheider Stra\u00dfe","plz":"30900","ort":"Wedemark","breitengrad":52.590817818371,"laengengrad":9.7378699606024},{"typ":3,"name":"Gr\u00fcngutannahmestelle Mellendorf","strasse":"Salhop","nummer":"4","plz":"30900","ort":"Wedemark","breitengrad":52.545715212131,"laengengrad":9.7170590438849},{"typ":3,"name":"Gr\u00fcngutannahmestelle Bredenbeck","strasse":"Steinkr\u00fcger Weg","nummer":"50","breitengrad":52.247500622771,"laengengrad":9.6225589513779},{"typ":3,"name":"Gr\u00fcngutannahmestelle Bokeloh","strasse":"Cronsbostel","nummer":"8","plz":"31515","ort":"Wunstorf","breitengrad":52.419758968482,"laengengrad":9.3910253047943},{"typ":3,"name":"Gr\u00fcngutannahmestelle Luthe","strasse":"Karl-Gutkes-Weg","plz":"31515","ort":"Wunstorf","breitengrad":52.438385694883,"laengengrad":9.4678535623857},{"typ":3,"name":"Gr\u00fcngutannahmestelle Kolenfeld","strasse":"B\u00fcltenstr.","nummer":"43","plz":"31515","ort":"Wunstorf","breitengrad":52.381132906164,"laengengrad":9.456077141749},{"typ":1,"name":"Heinr.-Nordhoff-Ring Nr.1\n30826 Garbsen","strasse":"Heinr.-Nordhoff-Ring Nr.","nummer":"1","plz":"30826","ort":"Garbsen (Osterwald OE)","breitengrad":52.446764001702,"laengengrad":9.5879226064384},{"typ":1,"name":"Nordstra\u00dfe 30989 Gehrden","strasse":"Nordstra\u00dfe","plz":"30989","ort":"Gehrden (auf d. Gel\u00e4nde der Pumpstation)","breitengrad":52.3251,"laengengrad":9.60222},{"typ":1,"name":"R.-Diesel-Ring 3\n31535 Neustadt a. Rbge","strasse":"R.-Diesel-Ring","nummer":"3\n31535 Neustadt a.","ort":"Rbge (Neustadt a. Rbge)","breitengrad":52.507266299243,"laengengrad":9.4810401645921},{"typ":1,"name":"Ludwig-Erhard-Str. 22\n30982 Pattensen","strasse":"Ludwig-Erhard-Str.","nummer":"22","plz":"30982","ort":"Pattensen (Pattensen)","breitengrad":52.262427777606,"laengengrad":9.7794676669937},{"typ":1,"name":"Mengendamm 15\n30177 Hannover","strasse":"Mengendamm","nummer":"15","plz":"30177","ort":"Hannover (List)","breitengrad":52.399071618769,"laengengrad":9.7581508973264},{"typ":1,"name":"Empelder Stra\u00dfe\n30952 Ronnenberg","strasse":"Empelder Stra\u00dfe\n","plz":"30952","ort":"Ronnenberg (hinter den Kleing\u00e4rten)","breitengrad":52.318850592725,"laengengrad":9.6604622607647},{"typ":1,"name":"Werftstr. 14\n30926 Seelze","strasse":"Werftstr.","nummer":"14","plz":"30926","ort":"Seelze (Lohnde)","breitengrad":52.395402476672,"laengengrad":9.567517036546},{"typ":1,"name":"Borsigring\n31319 Sehnde","strasse":"Borsigring\n","plz":"31319","ort":"Sehnde (Sehnde)","breitengrad":52.317097131359,"laengengrad":9.9781028028552},{"typ":1,"name":"Oppelner Stra\u00dfe\n31832 Springe","strasse":"Oppelner Stra\u00dfe\n","plz":"31832","ort":"Springe (Springe)","breitengrad":52.20977329345,"laengengrad":9.5675488878521},{"typ":1,"name":"Wietzegraben 43\n30179 Hannover","strasse":"Wietzegraben","nummer":"43","plz":"30179","ort":"Hannover (Sahlkamp)","breitengrad":52.409947366808,"laengengrad":9.7697163479084},{"typ":1,"name":"Bornumer Str. 143\n30453 Hannover","strasse":"Bornumer Str.","nummer":"143","plz":"30453","ort":"Hannover (Bornum)","breitengrad":52.351664458422,"laengengrad":9.6921947881979},{"typ":1,"name":"Auf Der Haube 3\r\n30900 Wedemark","strasse":"Auf Der Haube","nummer":"3","plz":"30900","ort":"Wedemark (Bissendorf)","breitengrad":52.516131571938,"laengengrad":9.7361282766384},{"typ":1,"name":"Sch\u00f6rlingstr. 3a\n30453 Hannover","strasse":"Sch\u00f6rlingstr.","nummer":"3a","plz":"30453","ort":"Hannover (Linden-Mitte)","breitengrad":52.36418326368,"laengengrad":9.683798958676},{"typ":1,"name":"Hansastr. 7\n30419 Hannover","strasse":"Hansastr.","nummer":"7","plz":"30419","ort":"Hannover (Nordhafen)","breitengrad":52.421529005922,"laengengrad":9.6799507169444},{"typ":1,"name":"Tiestestr. 10\n30171 Hannover","strasse":"Tiestestr.","nummer":"10","plz":"30171","ort":"Hannover (S\u00fcdstadt)","breitengrad":52.365363483591,"laengengrad":9.7613335179974},{"typ":1,"name":"Gertrud-Knebusch-Str. 2\n30167 Hannover","strasse":"Gertrud-Knebusch-Str.","nummer":"2","plz":"30167","ort":"Hannover (Nordstadt)","breitengrad":52.38801279255,"laengengrad":9.7281909210559},{"typ":2,"name":"Moorwaldweg 312\n30659 Hannover","strasse":"Moorwaldweg","nummer":"312","plz":"30659","ort":"Hannover (Deponie Lahe)","breitengrad":52.410934155574,"laengengrad":9.8575626831488},{"typ":2,"name":"Steinwedeler Stra\u00dfe\n31303 Burgdorf","strasse":"Steinwedeler Stra\u00dfe\n","plz":"31303","ort":"Burgdorf (Deponie Burgdorf)","breitengrad":52.431237134634,"laengengrad":10.019282645434},{"typ":2,"name":"31515 Wunstorf","plz":"31515","ort":"Wunstorf (Deponie Kolenfeld)","breitengrad":52.384702169133,"laengengrad":9.4510409924926},{"typ":5,"name":"Dahlienstr. Barsinghausen \/ Alt-Barsinghau - Ecke Langen\u00e4cker","strasse":"Dahlienstr.","ort":"Barsinghausen \/ Alt-Barsinghau","breitengrad":52.306141120487,"laengengrad":9.4745159407875,"wertstoffinsel":{"glas":true,"kleider":false,"papier":false}},{"typ":5,"name":"Deisterstr. Barsinghausen \/ Alt-Barsinghau - Ecke Am Waldhof","strasse":"Deisterstr.","ort":"Barsinghausen \/ Alt-Barsinghau","breitengrad":52.298715377528,"laengengrad":9.4630716136825,"wertstoffinsel":{"glas":true,"kleider":false,"papier":true}},{"typ":5,"name":"Kronskamp Barsinghausen \/ Bantorf - gg\u00fc. MC Donald\u00b4s","strasse":"Kronskamp","ort":"Barsinghausen \/ Bantorf","breitengrad":52.333842143556,"laengengrad":9.4144643779511,"wertstoffinsel":{"glas":true,"kleider":false,"papier":false}},{"typ":5,"name":"Zur Kokem\u00fchle Barsinghausen \/ Barrigsen - Ecke Dunkle Stra\u00dfe","strasse":"Zur Kokem\u00fchle","ort":"Barsinghausen \/ Barrigsen","breitengrad":52.360412528273,"laengengrad":9.4974474842666,"wertstoffinsel":{"glas":true,"kleider":false,"papier":true}},{"typ":5,"name":"Alte Dorfstr. 15 Barsinghausen \/ Eckerde - Altes Feuerwehrhaus","strasse":"Alte Dorfstr. 15","ort":"Barsinghausen \/ Eckerde","breitengrad":52.32611977341,"laengengrad":9.5169747593477,"wertstoffinsel":{"glas":true,"kleider":false,"papier":true}},{"typ":5,"name":"Stoppstr. Barsinghausen \/ Egestorf - Ecke Heinrich-Benne-Str. Edeka Parkplatz","strasse":"Stoppstr.","ort":"Barsinghausen \/ Egestorf","breitengrad":52.289104532281,"laengengrad":9.5047414166154,"wertstoffinsel":{"glas":true,"kleider":false,"papier":true}},{"typ":5,"name":"Wennigser Str. Barsinghausen \/ Egestorf - Ecke Bahnhof","strasse":"Wennigser Str.","ort":"Barsinghausen \/ Egestorf","breitengrad":52.278665428838,"laengengrad":9.515381680593,"wertstoffinsel":{"glas":true,"kleider":false,"papier":true}},{"typ":5,"name":"Levester Str. 14 Barsinghausen \/ G\u00f6xe - Agravis","strasse":"Levester Str. 14","ort":"Barsinghausen \/ G\u00f6xe","breitengrad":52.338740950677,"laengengrad":9.5453178482743,"wertstoffinsel":{"glas":true,"kleider":false,"papier":true}},{"typ":5,"name":"Landstra\u00dfe Barsinghausen \/ Kirchdorf - Ecke Die Heide","strasse":"Landstra\u00dfe","ort":"Barsinghausen \/ Kirchdorf","breitengrad":52.296923831886,"laengengrad":9.4947122258405,"wertstoffinsel":{"glas":true,"kleider":false,"papier":true}},{"typ":5,"name":"Max-Planck-Str Barsinghausen \/ Kirchdorf - H\u00f6he Rehpfad","strasse":"Max-Planck-Str","ort":"Barsinghausen \/ Kirchdorf","breitengrad":52.287342209624,"laengengrad":9.4832874222999,"wertstoffinsel":{"glas":true,"kleider":false,"papier":true}},{"typ":5,"name":"Am Deichfeld 27 Barsinghausen \/ Landringhausen - n\u00e4he Reitwiesenweg","strasse":"Am Deichfeld 27","ort":"Barsinghausen \/ Landringhausen","breitengrad":52.353743802121,"laengengrad":9.4614441171184,"wertstoffinsel":{"glas":true,"kleider":false,"papier":false}},{"typ":5,"name":"Hauptstr. Barsinghausen \/ Nordgoltern - Ecke Jupiterhof Parkplatz Freibad","strasse":"Hauptstr.","ort":"Barsinghausen \/ Nordgoltern","breitengrad":52.338310889563,"laengengrad":9.5045088760255,"wertstoffinsel":{"glas":true,"kleider":false,"papier":true}},{"typ":5,"name":"Am Zimmereiplatz Ecke Mindener Barsinghausen \/ Stemmen - Busschleife","strasse":"Am Zimmereiplatz Ecke Mindener","ort":"Barsinghausen \/ Stemmen","breitengrad":52.341306972538,"laengengrad":9.5164766500953,"wertstoffinsel":{"glas":true,"kleider":false,"papier":false}},{"typ":5,"name":"Feldweg Ecke Wichmarstr. Barsinghausen \/ Wichtringhause - Feuerwehr","strasse":"Feldweg Ecke Wichmarstr.","ort":"Barsinghausen \/ Wichtringhause","breitengrad":52.337147474632,"laengengrad":9.4329004161331,"wertstoffinsel":{"glas":true,"kleider":false,"papier":true}},{"typ":5,"name":"Heerstr. Barsinghausen \/ Winninghausen - gg\u00fc. Friedhof zufahrt Wilhelm Busch Schule","strasse":"Heerstr.","ort":"Barsinghausen \/ Winninghausen","breitengrad":52.320487670718,"laengengrad":9.4330019113049,"wertstoffinsel":{"glas":true,"kleider":false,"papier":true}},{"typ":5,"name":"An Der M\u00f6sch Burgdorf \/ Burgdorf - Ecke Schillerslager Str.","strasse":"An Der M\u00f6sch","ort":"Burgdorf \/ Burgdorf","breitengrad":52.444130278325,"laengengrad":9.9949356885049,"wertstoffinsel":{"glas":true,"kleider":false,"papier":false}},{"typ":5,"name":"Eseringer Str. Burgdorf \/ Burgdorf - zw. Welfenstr u. R\u00fcbezahlweg","strasse":"Eseringer Str.","ort":"Burgdorf \/ Burgdorf","breitengrad":52.439347483426,"laengengrad":10.001301025897,"wertstoffinsel":{"glas":true,"kleider":false,"papier":true}},{"typ":5,"name":"Kleiner Br\u00fcckendamm 29 Burgdorf \/ Burgdorf - Parkplatz gg\u00fc. Festplatz","strasse":"Kleiner Br\u00fcckendamm 29","ort":"Burgdorf \/ Burgdorf","breitengrad":52.446139715689,"laengengrad":10.013461521881,"wertstoffinsel":{"glas":true,"kleider":false,"papier":true}},{"typ":5,"name":"Marris-M\u00fchlenweg Burgdorf \/ Burgdorf - Ecke Sperlingsweg","strasse":"Marris-M\u00fchlenweg","ort":"Burgdorf \/ Burgdorf","breitengrad":52.453874643341,"laengengrad":10.000438482054,"wertstoffinsel":{"glas":true,"kleider":false,"papier":true}},{"typ":5,"name":"Scharlemannstr Burgdorf \/ Burgdorf - H\u00f6he Stadion gg\u00fc. Bolzplatz","strasse":"Scharlemannstr","ort":"Burgdorf \/ Burgdorf","breitengrad":52.433154304131,"laengengrad":10.017988314102,"wertstoffinsel":{"glas":true,"kleider":false,"papier":true}},{"typ":5,"name":"Steinwedeler Str. 1 Burgdorf \/ Burgdorf - Deponie","strasse":"Steinwedeler Str. 1","ort":"Burgdorf \/ Burgdorf","breitengrad":52.420800588266,"laengengrad":10.01386563578,"wertstoffinsel":{"glas":true,"kleider":false,"papier":false}},{"typ":5,"name":"Weserstr. Burgdorf \/ Burgdorf - Ecke Saalestr.","strasse":"Weserstr.","ort":"Burgdorf \/ Burgdorf","breitengrad":52.457910575489,"laengengrad":9.9855473106383,"wertstoffinsel":{"glas":true,"kleider":false,"papier":true}},{"typ":5,"name":"Salzstr. Burgdorf \/ Dachtmissen - Ecke Am Mittelfeld","strasse":"Salzstr.","ort":"Burgdorf \/ Dachtmissen","breitengrad":52.464738897058,"laengengrad":10.048804607532,"wertstoffinsel":{"glas":true,"kleider":false,"papier":true}},{"typ":5,"name":"Rohrkampsweg Burgdorf \/ Hee\u00dfel - Ecke Dorfstr. Tankstelle","strasse":"Rohrkampsweg","ort":"Burgdorf \/ Hee\u00dfel","breitengrad":52.444668845459,"laengengrad":9.9821325290404,"wertstoffinsel":{"glas":true,"kleider":false,"papier":true}},{"typ":5,"name":"Freiengericht Burgdorf \/ Otze - ","strasse":"Freiengericht","ort":"Burgdorf \/ Otze","breitengrad":52.487728045848,"laengengrad":10.01686202257,"wertstoffinsel":{"glas":true,"kleider":false,"papier":true}},{"typ":5,"name":"Lehmkuhlenweg Burgdorf \/ Otze - Ecke Barwersweg","strasse":"Lehmkuhlenweg","ort":"Burgdorf \/ Otze","breitengrad":52.488910364978,"laengengrad":10.004753338719,"wertstoffinsel":{"glas":true,"kleider":false,"papier":true}},{"typ":5,"name":"Schwarzer Berg Burgdorf \/ Otze - Ecke Hauptstr. gg\u00fc. Plantagenweg","strasse":"Schwarzer Berg","ort":"Burgdorf \/ Otze","breitengrad":52.46154055219,"laengengrad":10.02598775066,"wertstoffinsel":{"glas":true,"kleider":false,"papier":false}},{"typ":5,"name":"Weidendamm Burgdorf \/ Ramlingen-Ehlershau - Ecke Edental","strasse":"Weidendamm","ort":"Burgdorf \/ Ramlingen-Ehlershau","breitengrad":52.526366361262,"laengengrad":10.029694099124,"wertstoffinsel":{"glas":true,"kleider":false,"papier":true}},{"typ":5,"name":"Zollstr. Burgdorf \/ Schillerslage - ehemalige B3 Richtung Alt Engenser Weg","strasse":"Zollstr.","ort":"Burgdorf \/ Schillerslage","breitengrad":52.471334695541,"laengengrad":9.9756446966492,"wertstoffinsel":{"glas":true,"kleider":false,"papier":true}},{"typ":5,"name":"Alter Postweg Burgwedel \/ Engensen - n\u00e4he Karl-J\u00e4ger-Weg","strasse":"Alter Postweg","ort":"Burgwedel \/ Engensen","breitengrad":52.50283866163,"laengengrad":9.9456096619744,"wertstoffinsel":{"glas":true,"kleider":false,"papier":true}},{"typ":5,"name":"Grasbruchweg 20 Burgwedel \/ Fuhrberg - Ecke Wielohweg","strasse":"Grasbruchweg 20","ort":"Burgwedel \/ Fuhrberg","breitengrad":52.566627260751,"laengengrad":9.861806207633,"wertstoffinsel":{"glas":true,"kleider":false,"papier":true}},{"typ":5,"name":"Am Sch\u00fctzenplatz Ecke Fuhrberg Burgwedel \/ Gro\u00dfburgwedel - Festplatz","strasse":"Am Sch\u00fctzenplatz Ecke Fuhrberg","ort":"Burgwedel \/ Gro\u00dfburgwedel","breitengrad":52.498452870739,"laengengrad":9.8593529565031,"wertstoffinsel":{"glas":true,"kleider":false,"papier":true}},{"typ":5,"name":"Auf der Ramhorst Burgwedel \/ Gro\u00dfburgwedel - FC Ramhorst","strasse":"Auf der Ramhorst","ort":"Burgwedel \/ Gro\u00dfburgwedel","breitengrad":52.481195375086,"laengengrad":9.8637140282098,"wertstoffinsel":{"glas":true,"kleider":false,"papier":true}},{"typ":5,"name":"Pappelweg Burgwedel \/ Gro\u00dfburgwedel - Ecke An d. Wedel","strasse":"Pappelweg","ort":"Burgwedel \/ Gro\u00dfburgwedel","breitengrad":52.502372435528,"laengengrad":9.8519305824094,"wertstoffinsel":{"glas":true,"kleider":false,"papier":true}},{"typ":5,"name":"Hornweg Burgwedel \/ Kleinburgwedel - Parkplatz TSV Kleinburgwedel","strasse":"Hornweg","ort":"Burgwedel \/ Kleinburgwedel","breitengrad":52.516232253615,"laengengrad":9.8709294553465,"wertstoffinsel":{"glas":true,"kleider":false,"papier":true}},{"typ":5,"name":"Bruchstr. Burgwedel \/ Th\u00f6nse - Ecke An d. Miere","strasse":"Bruchstr.","ort":"Burgwedel \/ Th\u00f6nse","breitengrad":52.497063790872,"laengengrad":9.9022363477047,"wertstoffinsel":{"glas":true,"kleider":false,"papier":true}},{"typ":5,"name":"Th\u00f6nser Trift 75 Burgwedel \/ Wettmar - Ecke Meitzer Weg Parkplatz TSV Wettmar","strasse":"Th\u00f6nser Trift 75","ort":"Burgwedel \/ Wettmar","breitengrad":52.515873793241,"laengengrad":9.9090322012116,"wertstoffinsel":{"glas":true,"kleider":false,"papier":true}},{"typ":5,"name":"Am Kanal Garbsen \/ Alt-Garbsen - Ecke Im Lerchenfeld","strasse":"Am Kanal","ort":"Garbsen \/ Alt-Garbsen","breitengrad":52.410573688399,"laengengrad":9.5976588929766,"wertstoffinsel":{"glas":true,"kleider":false,"papier":true}},{"typ":5,"name":"Bachstr. Garbsen \/ Alt-Garbsen - Ecke Beethovenstr.","strasse":"Bachstr.","ort":"Garbsen \/ Alt-Garbsen","breitengrad":52.422321759707,"laengengrad":9.585568054604,"wertstoffinsel":{"glas":true,"kleider":false,"papier":false}},{"typ":5,"name":"Gutenbergstr. Garbsen \/ Alt-Garbsen - Praktika-Parkplatz","strasse":"Gutenbergstr.","ort":"Garbsen \/ Alt-Garbsen","breitengrad":52.420469720617,"laengengrad":9.57272085785,"wertstoffinsel":{"glas":true,"kleider":false,"papier":true}},{"typ":5,"name":"Hannoversche Str. Garbsen \/ Alt-Garbsen - Parkplatz TSV Havelse","strasse":"Hannoversche Str.","ort":"Garbsen \/ Alt-Garbsen","breitengrad":52.408864970176,"laengengrad":9.6030751826162,"wertstoffinsel":{"glas":true,"kleider":false,"papier":true}},{"typ":5,"name":"Im Kleegrund Garbsen \/ Alt-Garbsen - Ecke Sandstr.","strasse":"Im Kleegrund","ort":"Garbsen \/ Alt-Garbsen","breitengrad":52.416647838854,"laengengrad":9.6018727305655,"wertstoffinsel":{"glas":true,"kleider":false,"papier":false}},{"typ":5,"name":"Saturnring Garbsen \/ Auf Der Horst - Grundschule \/ Lehrerparkplatz","strasse":"Saturnring","ort":"Garbsen \/ Auf Der Horst","breitengrad":52.421950474919,"laengengrad":9.6039742824716,"wertstoffinsel":{"glas":true,"kleider":false,"papier":true}},{"typ":5,"name":"Neuer Landweg 10 Garbsen \/ Berenbostel - gg\u00fc. Lidl","strasse":"Neuer Landweg 10","ort":"Garbsen \/ Berenbostel","breitengrad":52.442684566419,"laengengrad":9.6105546581614,"wertstoffinsel":{"glas":true,"kleider":true,"papier":true}},{"typ":5,"name":"Seeweg Garbsen \/ Berenbostel - Richtung Gutenbergstr.","strasse":"Seeweg","ort":"Garbsen \/ Berenbostel","breitengrad":52.434691710657,"laengengrad":9.5875559973782,"wertstoffinsel":{"glas":true,"kleider":false,"papier":true}},{"typ":5,"name":"Farlingsweg Garbsen \/ Frielingen - Festplatz","strasse":"Farlingsweg","ort":"Garbsen \/ Frielingen","breitengrad":52.464417897091,"laengengrad":9.5194618203368,"wertstoffinsel":{"glas":true,"kleider":false,"papier":true}},{"typ":5,"name":"Havelser Str. Garbsen \/ Garbsen-Mitte - Ecke Berenbosteler Str. P-Platz Nord-West-Zentrum","strasse":"Havelser Str.","ort":"Garbsen \/ Garbsen-Mitte","breitengrad":52.425051675557,"laengengrad":9.5952075171288,"wertstoffinsel":{"glas":true,"kleider":false,"papier":true}},{"typ":5,"name":"Resser Str. 1a Garbsen \/ Heitlingen - Ecke Hauptstr.","strasse":"Resser Str. 1a","ort":"Garbsen \/ Heitlingen","breitengrad":52.46859089952,"laengengrad":9.6182441056527,"wertstoffinsel":{"glas":true,"kleider":false,"papier":true}},{"typ":5,"name":"Steinwartskamp Garbsen \/ Horst - Ecke Andreaestr. Skaterpark","strasse":"Steinwartskamp","ort":"Garbsen \/ Horst","breitengrad":52.440491133392,"laengengrad":9.5519723580332,"wertstoffinsel":{"glas":true,"kleider":false,"papier":true}},{"typ":5,"name":"Sch\u00fctzenstr. Garbsen \/ Meyenfeld - Ecke Im Bleeke","strasse":"Sch\u00fctzenstr.","ort":"Garbsen \/ Meyenfeld","breitengrad":52.44384904671,"laengengrad":9.5681099730183,"wertstoffinsel":{"glas":true,"kleider":false,"papier":true}},{"typ":5,"name":"Hanosanstr. Garbsen \/ Osterwald Ue - Ecke Marienburger Str.","strasse":"Hanosanstr.","ort":"Garbsen \/ Osterwald Ue","breitengrad":52.458412822711,"laengengrad":9.545323370253,"wertstoffinsel":{"glas":true,"kleider":false,"papier":true}},{"typ":5,"name":"Karl-Prendel-Str. Richtung Am Garbsen \/ Schlo\u00df Ricklingen - Burgstra\u00dfe","strasse":"Karl-Prendel-Str. Richtung Am","ort":"Garbsen \/ Schlo\u00df Ricklingen","breitengrad":52.428200593839,"laengengrad":9.503784364616,"wertstoffinsel":{"glas":true,"kleider":false,"papier":true}},{"typ":5,"name":"Am Hechtkamp Garbsen \/ Stelingen - Corinthstr. Parkplatz Turnclub","strasse":"Am Hechtkamp","ort":"Garbsen \/ Stelingen","breitengrad":52.441024800958,"laengengrad":9.6202561827529,"wertstoffinsel":{"glas":true,"kleider":false,"papier":true}},{"typ":5,"name":"Heitlinger Str. Garbsen \/ Stelingen - Ecke Waidmannsweg","strasse":"Heitlinger Str.","ort":"Garbsen \/ Stelingen","breitengrad":52.450504118013,"laengengrad":9.6247302426582,"wertstoffinsel":{"glas":true,"kleider":false,"papier":true}},{"typ":5,"name":"Ditterker Weg Gehrden \/ Gehrden - gg\u00fc. Am Spehrteich","strasse":"Ditterker Weg","ort":"Gehrden \/ Gehrden","breitengrad":52.320542581277,"laengengrad":9.5940976922802,"wertstoffinsel":{"glas":true,"kleider":false,"papier":false}},{"typ":5,"name":"Nordstr. Gehrden \/ Gehrden - Wertstoffhof","strasse":"Nordstr.","ort":"Gehrden \/ Gehrden","breitengrad":52.325501569631,"laengengrad":9.6019556857668,"wertstoffinsel":{"glas":true,"kleider":false,"papier":false}},{"typ":5,"name":"Parkstr. Gehrden \/ Gehrden - Ecke Lemmier Str.","strasse":"Parkstr.","ort":"Gehrden \/ Gehrden","breitengrad":52.306286772972,"laengengrad":9.6023257292103,"wertstoffinsel":{"glas":true,"kleider":false,"papier":false}},{"typ":5,"name":"M\u00fchlenweg Gehrden \/ Lenthe - Ecke Meierwiese","strasse":"M\u00fchlenweg","ort":"Gehrden \/ Lenthe","breitengrad":52.359254393561,"laengengrad":9.6137507312779,"wertstoffinsel":{"glas":true,"kleider":false,"papier":true}},{"typ":5,"name":"Osterstra\u00dfe Gehrden \/ Leveste - am Friedhof","strasse":"Osterstra\u00dfe","ort":"Gehrden \/ Leveste","breitengrad":52.320429573124,"laengengrad":9.5563752449007,"wertstoffinsel":{"glas":true,"kleider":false,"papier":true}},{"typ":5,"name":"gg\u00fc. Gro\u00dfe Str. 58 Gehrden \/ Northen - An der Pumpstation","strasse":"gg\u00fc. Gro\u00dfe Str. 58","ort":"Gehrden \/ Northen","breitengrad":52.348005426797,"laengengrad":9.6036266322491,"wertstoffinsel":{"glas":true,"kleider":false,"papier":true}},{"typ":5,"name":"Am Bahndamm 17 Hannover \/ Ahlem - gg\u00fc. E-Center ( Parkbucht)","strasse":"Am Bahndamm 17","ort":"Hannover \/ Ahlem","breitengrad":52.385197497479,"laengengrad":9.6706646014535,"wertstoffinsel":{"glas":true,"kleider":false,"papier":true}},{"typ":5,"name":"Am Bahndamm 54 Hannover \/ Ahlem - gg\u00fc. VW Raupers","strasse":"Am Bahndamm 54","ort":"Hannover \/ Ahlem","breitengrad":52.388721629414,"laengengrad":9.6595061898318,"wertstoffinsel":{"glas":true,"kleider":false,"papier":true}},{"typ":5,"name":"Geveker Kamp Hannover \/ Ahlem - gg\u00fc. Bergkammstr.","strasse":"Geveker Kamp","ort":"Hannover \/ Ahlem","breitengrad":52.374785507189,"laengengrad":9.6676570490966,"wertstoffinsel":{"glas":true,"kleider":false,"papier":false}},{"typ":5,"name":"Heisterbergallee 99 Hannover \/ Ahlem - vor Rewe, N\u00e4he Am Asph","strasse":"Heisterbergallee 99","ort":"Hannover \/ Ahlem","breitengrad":52.376500096261,"laengengrad":9.6601173844302,"wertstoffinsel":{"glas":true,"kleider":false,"papier":false}},{"typ":5,"name":"Krugstr. 10 Hannover \/ Ahlem - H\u00f6he Feuerwehr","strasse":"Krugstr. 10","ort":"Hannover \/ Ahlem","breitengrad":52.385092128135,"laengengrad":9.6654469219252,"wertstoffinsel":{"glas":true,"kleider":false,"papier":true}},{"typ":5,"name":"Tegtmeyerallee 25 Hannover \/ Ahlem - In der Kurve","strasse":"Tegtmeyerallee 25","ort":"Hannover \/ Ahlem","breitengrad":52.380435504521,"laengengrad":9.6685503086623,"wertstoffinsel":{"glas":true,"kleider":false,"papier":false}},{"typ":5,"name":"Eisteichweg Ecke Wartheweg Hannover \/ Anderten - Parkplatz Sportfreunde Anderten","strasse":"Eisteichweg Ecke Wartheweg","ort":"Hannover \/ Anderten","breitengrad":52.366072423257,"laengengrad":9.8498935967216,"wertstoffinsel":{"glas":true,"kleider":false,"papier":true}},{"typ":5,"name":"Freidingstr. 4 Hannover \/ Anderten - H\u00f6he St.-Martins-Kirche","strasse":"Freidingstr. 4","ort":"Hannover \/ Anderten","breitengrad":52.361366807533,"laengengrad":9.8541208330074,"wertstoffinsel":{"glas":true,"kleider":false,"papier":true}},{"typ":5,"name":"Gollstr. 78 Hannover \/ Anderten - Nordwaldstr. \/ Kanal","strasse":"Gollstr. 78","ort":"Hannover \/ Anderten","breitengrad":52.367820637354,"laengengrad":9.8592831629893,"wertstoffinsel":{"glas":true,"kleider":false,"papier":false}},{"typ":5,"name":"K\u00f6nigsberger Ring 210 Hannover \/ Anderten - Richtung Lehrter Str.","strasse":"K\u00f6nigsberger Ring 210","ort":"Hannover \/ Anderten","breitengrad":52.35859863349,"laengengrad":9.8514976594365,"wertstoffinsel":{"glas":true,"kleider":false,"papier":true}},{"typ":5,"name":"Luhnenstr. 7 Hannover \/ Anderten - Ecke Krumme Stra\u00dfe","strasse":"Luhnenstr. 7","ort":"Hannover \/ Anderten","breitengrad":52.363309855897,"laengengrad":9.857697660013,"wertstoffinsel":{"glas":true,"kleider":false,"papier":true}},{"typ":5,"name":"Ohefeldweg 15 Hannover \/ Anderten - Ecke K\u00f6nigsberger Ring","strasse":"Ohefeldweg 15","ort":"Hannover \/ Anderten","breitengrad":52.356831399183,"laengengrad":9.8534460274899,"wertstoffinsel":{"glas":true,"kleider":false,"papier":true}},{"typ":5,"name":"Sehnder Str.1 Hannover \/ Anderten - Ecke Gollstr.","strasse":"Sehnder Str.1","ort":"Hannover \/ Anderten","breitengrad":52.359648613692,"laengengrad":9.8579792036232,"wertstoffinsel":{"glas":true,"kleider":false,"papier":false}},{"typ":5,"name":"Benther-Berg-Str. 39 Hannover \/ Badenstedt - H\u00f6he Salzhemmendorfer St","strasse":"Benther-Berg-Str. 39","ort":"Hannover \/ Badenstedt","breitengrad":52.361470220886,"laengengrad":9.6724640321183,"wertstoffinsel":{"glas":true,"kleider":false,"papier":false}},{"typ":5,"name":"Fr\u00e4nkische Stra\u00dfe 12 Hannover \/ Badenstedt - Bei der gro\u00dfen Werkhalle","strasse":"Fr\u00e4nkische Stra\u00dfe 12","ort":"Hannover \/ Badenstedt","breitengrad":52.34975062363,"laengengrad":9.6653858782438,"wertstoffinsel":{"glas":true,"kleider":false,"papier":true}},{"typ":5,"name":"Hermann-Ehlers-Allee 26 Hannover \/ Badenstedt - H\u00f6he Frobeniusweg","strasse":"Hermann-Ehlers-Allee 26","ort":"Hannover \/ Badenstedt","breitengrad":52.35458334769,"laengengrad":9.6756338238986,"wertstoffinsel":{"glas":true,"kleider":false,"papier":true}},{"typ":5,"name":"Petermannstr. 49 Ecke Auf der Hannover \/ Badenstedt - ","strasse":"Petermannstr. 49 Ecke Auf der","ort":"Hannover \/ Badenstedt","breitengrad":52.357035980861,"laengengrad":9.682205559921,"wertstoffinsel":{"glas":true,"kleider":false,"papier":true}},{"typ":5,"name":"Sternheimweg 33 Hannover \/ Badenstedt - Ecke K49 (Lenther Chaussee)","strasse":"Sternheimweg 33","ort":"Hannover \/ Badenstedt","breitengrad":52.356494293776,"laengengrad":9.6572202362463,"wertstoffinsel":{"glas":true,"kleider":false,"papier":true}},{"typ":5,"name":"Alte Bemeroder Str. 100 Hannover \/ Bemerode - nahe Emslandstr.","strasse":"Alte Bemeroder Str. 100","ort":"Hannover \/ Bemerode","breitengrad":52.344808914261,"laengengrad":9.8220195467594,"wertstoffinsel":{"glas":true,"kleider":false,"papier":true}},{"typ":5,"name":"Anecampstr. 22 Hannover \/ Bemerode - Ecke Gerdingstr.","strasse":"Anecampstr. 22","ort":"Hannover \/ Bemerode","breitengrad":52.34962175736,"laengengrad":9.8344413372132,"wertstoffinsel":{"glas":true,"kleider":false,"papier":true}},{"typ":5,"name":"Anecampstr. 2A Hannover \/ Bemerode - Ecke Berkelmannstr.","strasse":"Anecampstr. 2A","ort":"Hannover \/ Bemerode","breitengrad":52.345999071365,"laengengrad":9.8279724867238,"wertstoffinsel":{"glas":true,"kleider":false,"papier":true}},{"typ":5,"name":"Br\u00fcsseler Str. 5 Hannover \/ Bemerode - zwischen den Stichwegen","strasse":"Br\u00fcsseler Str. 5","ort":"Hannover \/ Bemerode","breitengrad":52.324992543012,"laengengrad":9.8221511132685,"wertstoffinsel":{"glas":true,"kleider":false,"papier":true}},{"typ":5,"name":"Feldbuschwende 2 Hannover \/ Bemerode - Ecke Oheriedentrift","strasse":"Feldbuschwende 2","ort":"Hannover \/ Bemerode","breitengrad":52.342446412143,"laengengrad":9.8370952929144,"wertstoffinsel":{"glas":true,"kleider":false,"papier":true}},{"typ":5,"name":"F\u00f6rsterkamp 7 Hannover \/ Bemerode - Ecke Jakobskamp","strasse":"F\u00f6rsterkamp 7","ort":"Hannover \/ Bemerode","breitengrad":52.334820889888,"laengengrad":9.8360266792604,"wertstoffinsel":{"glas":true,"kleider":false,"papier":false}},{"typ":5,"name":"Hinter Dem Dorfe 10 Hannover \/ Bemerode - H\u00f6he der Mauer des Guts","strasse":"Hinter Dem Dorfe 10","ort":"Hannover \/ Bemerode","breitengrad":52.341392646716,"laengengrad":9.8258607593069,"wertstoffinsel":{"glas":true,"kleider":false,"papier":true}},{"typ":5,"name":"In der Bebie 1 Hannover \/ Bemerode - H\u00f6he Hermann-Hesse-Str.","strasse":"In der Bebie 1","ort":"Hannover \/ Bemerode","breitengrad":52.351702128408,"laengengrad":9.8377546588099,"wertstoffinsel":{"glas":true,"kleider":false,"papier":true}},{"typ":5,"name":"Kattenbrookstrift 31 Hannover \/ Bemerode - Ecke Ortskamp","strasse":"Kattenbrookstrift 31","ort":"Hannover \/ Bemerode","breitengrad":52.332363377907,"laengengrad":9.8288038513748,"wertstoffinsel":{"glas":true,"kleider":false,"papier":true}},{"typ":5,"name":"Oheriedentrift 4 Hannover \/ Bemerode - Ecke Thie","strasse":"Oheriedentrift 4","ort":"Hannover \/ Bemerode","breitengrad":52.338962102989,"laengengrad":9.8339764630521,"wertstoffinsel":{"glas":true,"kleider":false,"papier":true}},{"typ":5,"name":"W\u00fclfeler Str. 41 Hannover \/ Bemerode - H\u00f6he Aschendorfer Str. Bushaltestelle","strasse":"W\u00fclfeler Str. 41","ort":"Hannover \/ Bemerode","breitengrad":52.338626128195,"laengengrad":9.8190280219117,"wertstoffinsel":{"glas":true,"kleider":false,"papier":true}},{"typ":5,"name":"Bornumer Str. 143 Hannover \/ Bornum - Wertstoffhof","strasse":"Bornumer Str. 143","ort":"Hannover \/ Bornum","breitengrad":52.351664458422,"laengengrad":9.6921947881979,"wertstoffinsel":{"glas":true,"kleider":false,"papier":false}},{"typ":5,"name":"Im Dorfe 7 Hannover \/ Bornum - zw. Hudeplan und An der Feldmark","strasse":"Im Dorfe 7","ort":"Hannover \/ Bornum","breitengrad":52.349455393942,"laengengrad":9.6871245650513,"wertstoffinsel":{"glas":true,"kleider":false,"papier":true}},{"typ":5,"name":"Ada-Lessing-Str. 146 Hannover \/ Bothfeld - Ecke Im Wiesengrund","strasse":"Ada-Lessing-Str. 146","ort":"Hannover \/ Bothfeld","breitengrad":52.421206739421,"laengengrad":9.7815590023847,"wertstoffinsel":{"glas":true,"kleider":false,"papier":true}},{"typ":5,"name":"Ada-Lessing-Str. 154 Hannover \/ Bothfeld - Ecke Langenforther S","strasse":"Ada-Lessing-Str. 154","ort":"Hannover \/ Bothfeld","breitengrad":52.42292324307,"laengengrad":9.781662886594,"wertstoffinsel":{"glas":true,"kleider":false,"papier":true}},{"typ":5,"name":"Adolf-Emmelmann-Str. 7 Hannover \/ Bothfeld - Ecke Gebr\u00fcder-Hartma","strasse":"Adolf-Emmelmann-Str. 7","ort":"Hannover \/ Bothfeld","breitengrad":52.409041712041,"laengengrad":9.8018228048869,"wertstoffinsel":{"glas":true,"kleider":true,"papier":false}},{"typ":5,"name":"An den Hilligenw\u00f6hren 3 Hannover \/ Bothfeld - Einm\u00fcndung Carl-Log","strasse":"An den Hilligenw\u00f6hren 3","ort":"Hannover \/ Bothfeld","breitengrad":52.421377596088,"laengengrad":9.7910175634851,"wertstoffinsel":{"glas":true,"kleider":false,"papier":true}},{"typ":5,"name":"Eichenweg Hannover \/ Bothfeld - N\u00e4he Burgwedeler Str.","strasse":"Eichenweg","ort":"Hannover \/ Bothfeld","breitengrad":52.429099135911,"laengengrad":9.8018925783859,"wertstoffinsel":{"glas":true,"kleider":false,"papier":true}},{"typ":5,"name":"Gartenheimstr. 23 Hannover \/ Bothfeld - vor Schule","strasse":"Gartenheimstr. 23","ort":"Hannover \/ Bothfeld","breitengrad":52.419600715801,"laengengrad":9.803867140772,"wertstoffinsel":{"glas":true,"kleider":false,"papier":true}},{"typ":5,"name":"Hartenbrakenstr. 48 Hannover \/ Bothfeld - H\u00f6he Oldekopstr.","strasse":"Hartenbrakenstr. 48","ort":"Hannover \/ Bothfeld","breitengrad":52.424339801885,"laengengrad":9.8063504780151,"wertstoffinsel":{"glas":true,"kleider":false,"papier":true}},{"typ":5,"name":"Im Heidkampe 20 Hannover \/ Bothfeld - Ecke Klein Buchholzer Kirch","strasse":"Im Heidkampe 20","ort":"Hannover \/ Bothfeld","breitengrad":52.41048271225,"laengengrad":9.8054214599394,"wertstoffinsel":{"glas":true,"kleider":false,"papier":true}},{"typ":5,"name":"Kugelfangtrift 134 Hannover \/ Bothfeld - N\u00e4he Neidenburger Weg","strasse":"Kugelfangtrift 134","ort":"Hannover \/ Bothfeld","breitengrad":52.415381695835,"laengengrad":9.782794019237,"wertstoffinsel":{"glas":true,"kleider":false,"papier":true}},{"typ":5,"name":"Laher Kirchweg 16 Hannover \/ Bothfeld - N\u00e4he Luise-Blume-Str.","strasse":"Laher Kirchweg 16","ort":"Hannover \/ Bothfeld","breitengrad":52.411857858398,"laengengrad":9.8094308075857,"wertstoffinsel":{"glas":true,"kleider":false,"papier":true}},{"typ":5,"name":"Posener Str. 55 Hannover \/ Bothfeld - Spielplatz N\u00e4he Eulenkamp","strasse":"Posener Str. 55","ort":"Hannover \/ Bothfeld","breitengrad":52.408267021226,"laengengrad":9.7913710484751,"wertstoffinsel":{"glas":true,"kleider":false,"papier":true}},{"typ":5,"name":"Prinz-Albrecht-Ring 67 Hannover \/ Bothfeld - N\u00e4he V-Markt","strasse":"Prinz-Albrecht-Ring 67","ort":"Hannover \/ Bothfeld","breitengrad":52.41339180662,"laengengrad":9.7913451584942,"wertstoffinsel":{"glas":true,"kleider":false,"papier":true}},{"typ":5,"name":"Riethorst 15 Hannover \/ Bothfeld - Einm\u00fcndung Thieshof","strasse":"Riethorst 15","ort":"Hannover \/ Bothfeld","breitengrad":52.410852749484,"laengengrad":9.8157048082904,"wertstoffinsel":{"glas":true,"kleider":false,"papier":true}},{"typ":5,"name":"Sahlkamp Hannover \/ Bothfeld - zw. Ada-Lessing-Str. u. Cranzer Weg","strasse":"Sahlkamp","ort":"Hannover \/ Bothfeld","breitengrad":52.410269435788,"laengengrad":9.7836444133858,"wertstoffinsel":{"glas":true,"kleider":false,"papier":false}},{"typ":5,"name":"Tollenbrink Hannover \/ Bothfeld - von S\u00fcndernstr. aus hinter HEM","strasse":"Tollenbrink","ort":"Hannover \/ Bothfeld","breitengrad":52.413789260218,"laengengrad":9.7950867920303,"wertstoffinsel":{"glas":true,"kleider":false,"papier":true}},{"typ":5,"name":"Bischofsholer Damm 43 Hannover \/ Bult - Ecke Heiligengeiststr.","strasse":"Bischofsholer Damm 43","ort":"Hannover \/ Bult","breitengrad":52.36689486025,"laengengrad":9.7678222262232,"wertstoffinsel":{"glas":true,"kleider":false,"papier":true}},{"typ":5,"name":"Bultstr. 16 Hannover \/ Bult - Landesb\u00fchne \/ DB-Br\u00fccke","strasse":"Bultstr. 16","ort":"Hannover \/ Bult","breitengrad":52.372529385902,"laengengrad":9.7584748450138,"wertstoffinsel":{"glas":true,"kleider":false,"papier":false}},{"typ":5,"name":"Lindemannallee 23 Parkplatz Na Hannover \/ Bult - Pf","strasse":"Lindemannallee 23 Parkplatz Na","ort":"Hannover \/ Bult","breitengrad":52.359044374065,"laengengrad":9.7708433394552,"wertstoffinsel":{"glas":true,"kleider":false,"papier":true}},{"typ":5,"name":"Willestr. 2 Hannover \/ Bult - N\u00e4he Freundallee","strasse":"Willestr. 2","ort":"Hannover \/ Bult","breitengrad":52.368527908593,"laengengrad":9.7710818526684,"wertstoffinsel":{"glas":true,"kleider":false,"papier":true}},{"typ":5,"name":"Am Fuhrenkampe 21 Hannover \/ Burg - Ecke Innersteweg","strasse":"Am Fuhrenkampe 21","ort":"Hannover \/ Burg","breitengrad":52.409281369297,"laengengrad":9.6927876644679,"wertstoffinsel":{"glas":true,"kleider":false,"papier":true}},{"typ":5,"name":"Am Herrenh\u00e4user Bahnhof 18 Hannover \/ Burg - Schierker Weg","strasse":"Am Herrenh\u00e4user Bahnhof 18","ort":"Hannover \/ Burg","breitengrad":52.399963319377,"laengengrad":9.6903781964835,"wertstoffinsel":{"glas":true,"kleider":false,"papier":true}},{"typ":5,"name":"Gretelriede 42 Hannover \/ Burg - Ecke Zellerfelder Allee","strasse":"Gretelriede 42","ort":"Hannover \/ Burg","breitengrad":52.408830038742,"laengengrad":9.6915604022033,"wertstoffinsel":{"glas":true,"kleider":false,"papier":false}},{"typ":5,"name":"Harzburger Platz 11 Hannover \/ Burg - N\u00e4he Goslarsche Str.","strasse":"Harzburger Platz 11","ort":"Hannover \/ Burg","breitengrad":52.404259961489,"laengengrad":9.6905187648637,"wertstoffinsel":{"glas":true,"kleider":false,"papier":true}},{"typ":5,"name":"Vinnhorster Weg 19 Hannover \/ Burg - H\u00f6he Altenauer Weg","strasse":"Vinnhorster Weg 19","ort":"Hannover \/ Burg","breitengrad":52.400386440076,"laengengrad":9.6933538551393,"wertstoffinsel":{"glas":true,"kleider":false,"papier":true}},{"typ":5,"name":"Ferdinand-Wilhelm-Fricke-Weg 1 Hannover \/ Calenberger Neustad - in H\u00f6he Jugendherberge","strasse":"Ferdinand-Wilhelm-Fricke-Weg 1","ort":"Hannover \/ Calenberger Neustad","breitengrad":52.354328658587,"laengengrad":9.7305297266265,"wertstoffinsel":{"glas":true,"kleider":false,"papier":true}},{"typ":5,"name":"Goetheplatz 9A Hannover \/ Calenberger Neustad - zw. Humbordt- u. Feuerwehrstr.","strasse":"Goetheplatz 9A","ort":"Hannover \/ Calenberger Neustad","breitengrad":52.372377720984,"laengengrad":9.7238795824369,"wertstoffinsel":{"glas":true,"kleider":false,"papier":true}},{"typ":5,"name":"Mittelstra\u00dfe Hannover \/ Calenberger Neustad - Ecke Adolfstr.","strasse":"Mittelstra\u00dfe","ort":"Hannover \/ Calenberger Neustad","breitengrad":52.368531478937,"laengengrad":9.7250651646484,"wertstoffinsel":{"glas":true,"kleider":false,"papier":false}},{"typ":5,"name":"Wilhelmshavener Str. 16 Hannover \/ Calenberger Neustad - Ecke Weddingenufer","strasse":"Wilhelmshavener Str. 16","ort":"Hannover \/ Calenberger Neustad","breitengrad":52.377356469482,"laengengrad":9.7168360204389,"wertstoffinsel":{"glas":true,"kleider":false,"papier":true}},{"typ":5,"name":"Davenstedter Markt Hannover \/ Davenstedt - Ecke Carlo-Schmidt-Allee","strasse":"Davenstedter Markt","ort":"Hannover \/ Davenstedt","breitengrad":52.363221681865,"laengengrad":9.6774838431753,"wertstoffinsel":{"glas":true,"kleider":false,"papier":true}},{"typ":5,"name":"Freboldstr.20 Hannover \/ Davenstedt - Ecke Davenstedter Str.","strasse":"Freboldstr.20","ort":"Hannover \/ Davenstedt","breitengrad":52.364462188578,"laengengrad":9.6600407534249,"wertstoffinsel":{"glas":true,"kleider":false,"papier":true}},{"typ":5,"name":"In der Steinbreite 99A Hannover \/ Davenstedt - Ecke Davenstedter Holz","strasse":"In der Steinbreite 99A","ort":"Hannover \/ Davenstedt","breitengrad":52.37168821285,"laengengrad":9.662072689624,"wertstoffinsel":{"glas":true,"kleider":false,"papier":true}},{"typ":5,"name":"Lehmannstr. 2 Hannover \/ Davenstedt - gg\u00fc. Ecke Davenstedter","strasse":"Lehmannstr. 2","ort":"Hannover \/ Davenstedt","breitengrad":52.36465485937,"laengengrad":9.6721158520241,"wertstoffinsel":{"glas":true,"kleider":false,"papier":true}},{"typ":5,"name":"Einm\u00fcndung Landwehrstr.","strasse":"Abelmannstr.","nummer":"1","ort":"Hannover \/ D\u00f6hren","breitengrad":52.3365701864,"laengengrad":9.762159903256,"wertstoffinsel":{"glas":true,"kleider":false,"papier":true}},{"typ":5,"name":"Br\u00fcckstr. 3 Hannover \/ D\u00f6hren - H\u00f6he Glockseeschule","strasse":"Br\u00fcckstr. 3","ort":"Hannover \/ D\u00f6hren","breitengrad":52.335285890255,"laengengrad":9.7605527357037,"wertstoffinsel":{"glas":true,"kleider":false,"papier":false}},{"typ":5,"name":"Helmstedter Str. 1 Hannover \/ D\u00f6hren - Ecke Hildesheimer Str.","strasse":"Helmstedter Str. 1","ort":"Hannover \/ D\u00f6hren","breitengrad":52.3421154667,"laengengrad":9.7666295978553,"wertstoffinsel":{"glas":true,"kleider":false,"papier":true}},{"typ":5,"name":"Hildesheimer Str. 282 Hannover \/ D\u00f6hren - zw. Donaustr. Rheinstr","strasse":"Hildesheimer Str. 282","ort":"Hannover \/ D\u00f6hren","breitengrad":52.336052677887,"laengengrad":9.769871114641,"wertstoffinsel":{"glas":true,"kleider":false,"papier":true}},{"typ":5,"name":"Peiner Str. 9 vor B\u00fcrgeramt Hannover \/ D\u00f6hren - Stadtteilbiblio","strasse":"Peiner Str. 9 vor B\u00fcrgeramt","ort":"Hannover \/ D\u00f6hren","breitengrad":52.338808092806,"laengengrad":9.7705941513765,"wertstoffinsel":{"glas":true,"kleider":false,"papier":true}},{"typ":5,"name":"Wiehbergstr. 77 Hannover \/ D\u00f6hren - Ecke Kastanienallee","strasse":"Wiehbergstr. 77","ort":"Hannover \/ D\u00f6hren","breitengrad":52.332344242007,"laengengrad":9.7677667898236,"wertstoffinsel":{"glas":true,"kleider":false,"papier":true}},{"typ":5,"name":"Heisenbergstr. 14 Hannover \/ Gro\u00df-Buchholz - Ecke Gerhard-Lossin-Str.","strasse":"Heisenbergstr. 14","ort":"Hannover \/ Gro\u00df-Buchholz","breitengrad":52.387890630144,"laengengrad":9.8131214121659,"wertstoffinsel":{"glas":true,"kleider":false,"papier":true}},{"typ":5,"name":"Meitnerstr.6 Hannover \/ Gro\u00df-Buchholz - ","strasse":"Meitnerstr.6","ort":"Hannover \/ Gro\u00df-Buchholz","breitengrad":52.390405031427,"laengengrad":9.8148575524185,"wertstoffinsel":{"glas":true,"kleider":false,"papier":true}},{"typ":5,"name":"Milanstra\u00dfe H\u00f6he Leddinweg Hannover \/ Gro\u00df-Buchholz - Hundeauslauffl\u00e4che","strasse":"Milanstra\u00dfe H\u00f6he Leddinweg","ort":"Hannover \/ Gro\u00df-Buchholz","breitengrad":52.393123109489,"laengengrad":9.8222262137842,"wertstoffinsel":{"glas":true,"kleider":false,"papier":false}},{"typ":5,"name":"Neue-Land-Str. 4 Hannover \/ Gro\u00df-Buchholz - Wertstoffhof","strasse":"Neue-Land-Str. 4","ort":"Hannover \/ Gro\u00df-Buchholz","breitengrad":52.39247429966,"laengengrad":9.800170511692,"wertstoffinsel":{"glas":true,"kleider":false,"papier":false}},{"typ":5,"name":"Nobelring 55 Hannover \/ Gro\u00df-Buchholz - Ecke Osterfelddamm","strasse":"Nobelring 55","ort":"Hannover \/ Gro\u00df-Buchholz","breitengrad":52.392869786957,"laengengrad":9.8172689868595,"wertstoffinsel":{"glas":true,"kleider":false,"papier":true}},{"typ":5,"name":"Nu\u00dfriede Hannover \/ Gro\u00df-Buchholz - Stra\u00dfenknick am Nobelring","strasse":"Nu\u00dfriede","ort":"Hannover \/ Gro\u00df-Buchholz","breitengrad":52.38888901568,"laengengrad":9.8091281401545,"wertstoffinsel":{"glas":true,"kleider":false,"papier":true}},{"typ":5,"name":"Nu\u00dfriede 28 Hannover \/ Gro\u00df-Buchholz - Ecke Osterfelddamm","strasse":"Nu\u00dfriede 28","ort":"Hannover \/ Gro\u00df-Buchholz","breitengrad":52.390024195145,"laengengrad":9.8166286282926,"wertstoffinsel":{"glas":true,"kleider":false,"papier":true}},{"typ":5,"name":"Osterfelddamm 12 Hannover \/ Gro\u00df-Buchholz - H\u00f6he GDA-Wohnstift","strasse":"Osterfelddamm 12","ort":"Hannover \/ Gro\u00df-Buchholz","breitengrad":52.386554176574,"laengengrad":9.823059253922,"wertstoffinsel":{"glas":true,"kleider":false,"papier":true}},{"typ":5,"name":"Pappelwiese 6 Hannover \/ Gro\u00df-Buchholz - gg\u00fc. Henniesruh","strasse":"Pappelwiese 6","ort":"Hannover \/ Gro\u00df-Buchholz","breitengrad":52.404575131389,"laengengrad":9.8263786620497,"wertstoffinsel":{"glas":true,"kleider":false,"papier":true}},{"typ":5,"name":"Paracelsusweg 2 Hannover \/ Gro\u00df-Buchholz - Ecke In den Sieben St\u00fccken","strasse":"Paracelsusweg 2","ort":"Hannover \/ Gro\u00df-Buchholz","breitengrad":52.407746428625,"laengengrad":9.8163678462822,"wertstoffinsel":{"glas":true,"kleider":false,"papier":true}},{"typ":5,"name":"Pasteurallee 124 Hannover \/ Gro\u00df-Buchholz - Messe-Schnellweg-Br\u00fccke","strasse":"Pasteurallee 124","ort":"Hannover \/ Gro\u00df-Buchholz","breitengrad":52.39929894851,"laengengrad":9.8132282273926,"wertstoffinsel":{"glas":true,"kleider":false,"papier":true}},{"typ":5,"name":"Podbielskistr. 299 Hannover \/ Gro\u00df-Buchholz - Jugendzentrum \/ Nordost-","strasse":"Podbielskistr. 299","ort":"Hannover \/ Gro\u00df-Buchholz","breitengrad":52.404609237077,"laengengrad":9.7951863341783,"wertstoffinsel":{"glas":true,"kleider":false,"papier":true}},{"typ":5,"name":"Querickestr. 3 Hannover \/ Gro\u00df-Buchholz - H\u00f6he Porsche-Zentrum","strasse":"Querickestr. 3","ort":"Hannover \/ Gro\u00df-Buchholz","breitengrad":52.402459567045,"laengengrad":9.7939864576252,"wertstoffinsel":{"glas":true,"kleider":false,"papier":false}},{"typ":5,"name":"Silberstr. 12 Hannover \/ Gro\u00df-Buchholz - H\u00f6he Nahversorger","strasse":"Silberstr. 12","ort":"Hannover \/ Gro\u00df-Buchholz","breitengrad":52.399835820758,"laengengrad":9.808358292882,"wertstoffinsel":{"glas":true,"kleider":false,"papier":false}},{"typ":5,"name":"Krepenstr. 5 Hannover \/ Hainholz - Ecke Schachtebeckweg","strasse":"Krepenstr. 5","ort":"Hannover \/ Hainholz","breitengrad":52.408622578123,"laengengrad":9.7113741527486,"wertstoffinsel":{"glas":true,"kleider":false,"papier":false}},{"typ":5,"name":"An der Breiten Wiese 46 Hannover \/ Heideviertel - Ecke M\u00fcdener Weg","strasse":"An der Breiten Wiese 46","ort":"Hannover \/ Heideviertel","breitengrad":52.379871211247,"laengengrad":9.8247714306172,"wertstoffinsel":{"glas":true,"kleider":false,"papier":true}},{"typ":5,"name":"An der Breiten Wiese 71 Hannover \/ Heideviertel - Vor Wendeplatte","strasse":"An der Breiten Wiese 71","ort":"Hannover \/ Heideviertel","breitengrad":52.376916370855,"laengengrad":9.8217488744266,"wertstoffinsel":{"glas":true,"kleider":false,"papier":true}},{"typ":5,"name":"Heidering 1A Hannover \/ Heideviertel - N\u00e4he Steimbker Hof","strasse":"Heidering 1A","ort":"Hannover \/ Heideviertel","breitengrad":52.380730168889,"laengengrad":9.8123874979066,"wertstoffinsel":{"glas":true,"kleider":false,"papier":true}},{"typ":5,"name":"Heidering 58 Hannover \/ Heideviertel - N\u00e4he Dorfmarkhof","strasse":"Heidering 58","ort":"Hannover \/ Heideviertel","breitengrad":52.383545434663,"laengengrad":9.8187276925521,"wertstoffinsel":{"glas":true,"kleider":false,"papier":true}},{"typ":5,"name":"Misburger Str. 99 Hannover \/ Heideviertel - Ecke Ahldener Str.","strasse":"Misburger Str. 99","ort":"Hannover \/ Heideviertel","breitengrad":52.380813077586,"laengengrad":9.8147103386708,"wertstoffinsel":{"glas":true,"kleider":false,"papier":true}},{"typ":5,"name":"Dorotheenstr. 5A Hannover \/ Herrenhausen - Festplatz, H\u00f6he Herrenh\u00e4us","strasse":"Dorotheenstr. 5A","ort":"Hannover \/ Herrenhausen","breitengrad":52.391927348351,"laengengrad":9.6854767709173,"wertstoffinsel":{"glas":true,"kleider":false,"papier":true}},{"typ":5,"name":"Haltenhoffstr. 167 Hannover \/ Herrenhausen - N\u00e4he Hegebl\u00e4c","strasse":"Haltenhoffstr. 167","ort":"Hannover \/ Herrenhausen","breitengrad":52.396310412659,"laengengrad":9.6908502776433,"wertstoffinsel":{"glas":true,"kleider":false,"papier":false}},{"typ":5,"name":"Haltenhoffstr. 243 Hannover \/ Herrenhausen - Ecke Herrenh\u00e4user Stra\u00dfe","strasse":"Haltenhoffstr. 243","ort":"Hannover \/ Herrenhausen","breitengrad":52.3957600135,"laengengrad":9.6787756532645,"wertstoffinsel":{"glas":true,"kleider":false,"papier":true}},{"typ":5,"name":"Mandelslohstr. 1 Hannover \/ Herrenhausen - N\u00e4he Schaumburgstr.","strasse":"Mandelslohstr. 1","ort":"Hannover \/ Herrenhausen","breitengrad":52.393443553549,"laengengrad":9.6937300114226,"wertstoffinsel":{"glas":true,"kleider":false,"papier":true}},{"typ":5,"name":"Markgrafstr. Hannover \/ Herrenhausen - Abzweig Herrenh\u00e4user Str","strasse":"Markgrafstr.","ort":"Hannover \/ Herrenhausen","breitengrad":52.393541042746,"laengengrad":9.6831651070728,"wertstoffinsel":{"glas":true,"kleider":false,"papier":true}},{"typ":5,"name":"Albert-Schweitzer-Hof 2 Hannover \/ Kirchrode - Ecke Tiergartenstr.","strasse":"Albert-Schweitzer-Hof 2","ort":"Hannover \/ Kirchrode","breitengrad":52.362677245531,"laengengrad":9.8201629361555,"wertstoffinsel":{"glas":true,"kleider":false,"papier":true}},{"typ":5,"name":"Lange-Feld-Str. 29A Hannover \/ Kirchrode - H\u00f6he Ottweilerstr.","strasse":"Lange-Feld-Str. 29A","ort":"Hannover \/ Kirchrode","breitengrad":52.359418189397,"laengengrad":9.8156090437874,"wertstoffinsel":{"glas":true,"kleider":false,"papier":true}},{"typ":5,"name":"Lange-Hop-Str. 115 Hannover \/ Kirchrode - an S\u00fcdschnellwegbr\u00fccke","strasse":"Lange-Hop-Str. 115","ort":"Hannover \/ Kirchrode","breitengrad":52.351794154131,"laengengrad":9.8207983623667,"wertstoffinsel":{"glas":true,"kleider":false,"papier":true}},{"typ":5,"name":"Tiergartenstr. 117 Hannover \/ Kirchrode - N\u00e4he Leonardo Hotel","strasse":"Tiergartenstr. 117","ort":"Hannover \/ Kirchrode","breitengrad":52.362084278954,"laengengrad":9.832957878756,"wertstoffinsel":{"glas":true,"kleider":false,"papier":true}},{"typ":5,"name":"Berckhusenstr. 125 Hannover \/ Kleefeld - N\u00e4he Einm\u00fcndung Fuhrberger","strasse":"Berckhusenstr. 125","ort":"Hannover \/ Kleefeld","breitengrad":52.378245287886,"laengengrad":9.8050110669422,"wertstoffinsel":{"glas":true,"kleider":false,"papier":true}},{"typ":5,"name":"Ebellstr.12 Hannover \/ Kleefeld - N\u00e4he DB-Br\u00fccke","strasse":"Ebellstr.12","ort":"Hannover \/ Kleefeld","breitengrad":52.373365290072,"laengengrad":9.796769711672,"wertstoffinsel":{"glas":true,"kleider":false,"papier":true}},{"typ":5,"name":"Helstorfer Str. 7 Hannover \/ Kleefeld - gg\u00fc Heise-Verlag","strasse":"Helstorfer Str. 7","ort":"Hannover \/ Kleefeld","breitengrad":52.380518503255,"laengengrad":9.8065362801251,"wertstoffinsel":{"glas":true,"kleider":false,"papier":true}},{"typ":5,"name":"Kleestr.2 Hannover \/ Kleefeld - Vor Eilenriede, N\u00e4he DB-Br\u00fccke","strasse":"Kleestr.2","ort":"Hannover \/ Kleefeld","breitengrad":52.372444754849,"laengengrad":9.7824900358815,"wertstoffinsel":{"glas":true,"kleider":false,"papier":false}},{"typ":5,"name":"Lathusenstr.11 Hannover \/ Kleefeld - Ecke Pertzstr. vor Parkplatz Lidl","strasse":"Lathusenstr.11","ort":"Hannover \/ Kleefeld","breitengrad":52.377374979891,"laengengrad":9.7981199736513,"wertstoffinsel":{"glas":true,"kleider":false,"papier":true}},{"typ":5,"name":"Rupsteinstr.9 Hannover \/ Kleefeld - Senator-Bauer-Str.","strasse":"Rupsteinstr.9","ort":"Hannover \/ Kleefeld","breitengrad":52.372934493461,"laengengrad":9.7899608318417,"wertstoffinsel":{"glas":true,"kleider":false,"papier":false}},{"typ":5,"name":"Schweriner Str. 29 Hannover \/ Kleefeld - gg\u00fc. Mecklenburger Str.","strasse":"Schweriner Str. 29","ort":"Hannover \/ Kleefeld","breitengrad":52.379103125586,"laengengrad":9.7911433787302,"wertstoffinsel":{"glas":true,"kleider":false,"papier":true}},{"typ":5,"name":"Uhlhornstr. 1 Hannover \/ Kleefeld - Ecke Kirchr\u00f6der Str.","strasse":"Uhlhornstr. 1","ort":"Hannover \/ Kleefeld","breitengrad":52.371896614653,"laengengrad":9.7918959398466,"wertstoffinsel":{"glas":true,"kleider":false,"papier":true}},{"typ":5,"name":"Oldenburger Allee 6 Hannover \/ Lahe - Ecke Rotenburger Str.","strasse":"Oldenburger Allee 6","ort":"Hannover \/ Lahe","breitengrad":52.417753991471,"laengengrad":9.8265662037468,"wertstoffinsel":{"glas":true,"kleider":false,"papier":true}},{"typ":5,"name":"Kasseler Str. 17C Hannover \/ Leinhausen - N\u00e4he Bremer Str.","strasse":"Kasseler Str. 17C","ort":"Hannover \/ Leinhausen","breitengrad":52.398467870341,"laengengrad":9.6737612160031,"wertstoffinsel":{"glas":true,"kleider":false,"papier":true}},{"typ":5,"name":"Dieselstr. 10 Hannover \/ Limmer - N\u00e4he Eichenbrink","strasse":"Dieselstr. 10","ort":"Hannover \/ Limmer","breitengrad":52.376423816346,"laengengrad":9.6845903148133,"wertstoffinsel":{"glas":true,"kleider":false,"papier":true}},{"typ":5,"name":"Liepmannstr. 6 Hannover \/ Limmer - gg\u00fc.F\u00f6ssebad N\u00e4he Friedhofstr","strasse":"Liepmannstr. 6","ort":"Hannover \/ Limmer","breitengrad":52.372906824751,"laengengrad":9.6971833041272,"wertstoffinsel":{"glas":true,"kleider":false,"papier":true}},{"typ":5,"name":"Wunstorfer Str. Hannover \/ Limmer - Ecke Franz-Nausse-Str. 4A","strasse":"Wunstorfer Str.","ort":"Hannover \/ Limmer","breitengrad":52.375844654699,"laengengrad":9.6944825117632,"wertstoffinsel":{"glas":true,"kleider":false,"papier":false}},{"typ":5,"name":"Wunstorfer Str. 72 Hannover \/ Limmer - zw. Varrelmannstr u. Spa","strasse":"Wunstorfer Str. 72","ort":"Hannover \/ Limmer","breitengrad":52.378809243572,"laengengrad":9.6871834602299,"wertstoffinsel":{"glas":true,"kleider":false,"papier":false}},{"typ":5,"name":"Zimmermannstr. 21 Hannover \/ Limmer - N\u00e4he \"Auf dem Brinke\"","strasse":"Zimmermannstr. 21","ort":"Hannover \/ Limmer","breitengrad":52.374466188019,"laengengrad":9.6934473003047,"wertstoffinsel":{"glas":true,"kleider":false,"papier":true}},{"typ":5,"name":"Badenstedter Str. 19 Hannover \/ Linden-Mitte - gg\u00fc. Ihme-Schule","strasse":"Badenstedter Str. 19","ort":"Hannover \/ Linden-Mitte","breitengrad":52.366108753399,"laengengrad":9.7094720396365,"wertstoffinsel":{"glas":true,"kleider":false,"papier":false}},{"typ":5,"name":"Bartweg Hannover \/ Linden-Mitte - Ecke Badenstedter Str.","strasse":"Bartweg","ort":"Hannover \/ Linden-Mitte","breitengrad":52.360424239815,"laengengrad":9.6855178159638,"wertstoffinsel":{"glas":true,"kleider":false,"papier":false}},{"typ":5,"name":"Posthornstr. 27 Hannover \/ Linden-Mitte - gg\u00fc. Einm\u00fcndung \" Von-Alten","strasse":"Posthornstr. 27","ort":"Hannover \/ Linden-Mitte","breitengrad":52.364990210087,"laengengrad":9.714565042188,"wertstoffinsel":{"glas":true,"kleider":false,"papier":true}},{"typ":5,"name":"Sch\u00f6rlingstr. 3A Hannover \/ Linden-Mitte - Wertstoffhof","strasse":"Sch\u00f6rlingstr. 3A","ort":"Hannover \/ Linden-Mitte","breitengrad":52.363474261966,"laengengrad":9.6835824080439,"wertstoffinsel":{"glas":true,"kleider":false,"papier":false}},{"typ":5,"name":"Elisenstr. Hannover \/ Linden-Nord - Ecke Spinnereistr. gg\u00fc. Heizkraftwerk","strasse":"Elisenstr.","ort":"Hannover \/ Linden-Nord","breitengrad":52.37196183858,"laengengrad":9.7139137273039,"wertstoffinsel":{"glas":true,"kleider":false,"papier":true}},{"typ":5,"name":"Noltestr. 22 Hannover \/ Linden-Nord - N\u00e4he Betlehemplatz","strasse":"Noltestr. 22","ort":"Hannover \/ Linden-Nord","breitengrad":52.372048245408,"laengengrad":9.7055130730159,"wertstoffinsel":{"glas":true,"kleider":false,"papier":true}},{"typ":5,"name":"Allerweg 9 Hannover \/ Linden-S\u00fcd - gg\u00fc. AWO","strasse":"Allerweg 9","ort":"Hannover \/ Linden-S\u00fcd","breitengrad":52.36245521162,"laengengrad":9.7174759736941,"wertstoffinsel":{"glas":true,"kleider":false,"papier":false}},{"typ":5,"name":"Am Spielfelde 11 Hannover \/ Linden-S\u00fcd - Ecke Lindener Berg 27","strasse":"Am Spielfelde 11","ort":"Hannover \/ Linden-S\u00fcd","breitengrad":52.363575494383,"laengengrad":9.7076250714643,"wertstoffinsel":{"glas":true,"kleider":false,"papier":false}},{"typ":5,"name":"Auestr.4 Hannover \/ Linden-S\u00fcd - Ecke Laportestr.","strasse":"Auestr.4","ort":"Hannover \/ Linden-S\u00fcd","breitengrad":52.36390239629,"laengengrad":9.7204807157339,"wertstoffinsel":{"glas":true,"kleider":false,"papier":false}},{"typ":5,"name":"Ricklinger Str. 136 Hannover \/ Linden-S\u00fcd - H\u00f6he Humboldtschule","strasse":"Ricklinger Str. 136","ort":"Hannover \/ Linden-S\u00fcd","breitengrad":52.357172067673,"laengengrad":9.7198866816081,"wertstoffinsel":{"glas":true,"kleider":false,"papier":true}},{"typ":5,"name":"Am Welfenplatz 3 Hannover \/ List - gg\u00fc. Albrecht-D\u00fcrer-Schule","strasse":"Am Welfenplatz 3","ort":"Hannover \/ List","breitengrad":52.385809413034,"laengengrad":9.7413200249938,"wertstoffinsel":{"glas":true,"kleider":false,"papier":false}},{"typ":5,"name":"B\u00f6cklinplatz 2 Hannover \/ List - gg\u00fc. Podbielskistr.","strasse":"B\u00f6cklinplatz 2","ort":"Hannover \/ List","breitengrad":52.399135725304,"laengengrad":9.7800813200903,"wertstoffinsel":{"glas":true,"kleider":false,"papier":true}},{"typ":5,"name":"Bonifatiusplatz 1 Hannover \/ List - gg\u00fc. Comeniusschule","strasse":"Bonifatiusplatz 1","ort":"Hannover \/ List","breitengrad":52.388889866008,"laengengrad":9.7461326531701,"wertstoffinsel":{"glas":true,"kleider":false,"papier":true}},{"typ":5,"name":"Bunsenstr. 1 Hannover \/ List - Einm\u00fcndung Wittekamp","strasse":"Bunsenstr. 1","ort":"Hannover \/ List","breitengrad":52.394701474595,"laengengrad":9.7526383158323,"wertstoffinsel":{"glas":true,"kleider":false,"papier":true}},{"typ":5,"name":"Ferdinand-Wallbrecht-Str. 43 Hannover \/ List - Moltkeplatz","strasse":"Ferdinand-Wallbrecht-Str. 43","ort":"Hannover \/ List","breitengrad":52.393397362413,"laengengrad":9.7456208276129,"wertstoffinsel":{"glas":true,"kleider":false,"papier":false}},{"typ":5,"name":"Hinrichsring 10 Westseite Hannover \/ List - gg\u00fc. Apotheke","strasse":"Hinrichsring 10 Westseite","ort":"Hannover \/ List","breitengrad":52.405413621252,"laengengrad":9.7769727484493,"wertstoffinsel":{"glas":true,"kleider":false,"papier":true}},{"typ":5,"name":"Klopstockstr. Hannover \/ List - Ecke Pelikanstr.","strasse":"Klopstockstr.","ort":"Hannover \/ List","breitengrad":52.399849913062,"laengengrad":9.771260308533,"wertstoffinsel":{"glas":true,"kleider":false,"papier":true}},{"typ":5,"name":"Lister Str. 41 Hannover \/ List - N\u00e4he Einm\u00fcndung Seidelstr.","strasse":"Lister Str. 41","ort":"Hannover \/ List","breitengrad":52.389743780532,"laengengrad":9.7504232389767,"wertstoffinsel":{"glas":true,"kleider":false,"papier":true}},{"typ":5,"name":"Mengendamm 15 Hannover \/ List - Wertstoffhof","strasse":"Mengendamm 15","ort":"Hannover \/ List","breitengrad":52.399071618769,"laengengrad":9.7581508973264,"wertstoffinsel":{"glas":true,"kleider":false,"papier":false}},{"typ":5,"name":"Podbielskistr. 259 Hannover \/ List - Ecke Grethe-J\u00fcrgens-Str.","strasse":"Podbielskistr. 259","ort":"Hannover \/ List","breitengrad":52.402123598329,"laengengrad":9.7877627701597,"wertstoffinsel":{"glas":true,"kleider":false,"papier":true}},{"typ":5,"name":"R\u00f6ntgenstr. 21 Hannover \/ List - H\u00f6he Kollenrodtstr.","strasse":"R\u00f6ntgenstr. 21","ort":"Hannover \/ List","breitengrad":52.393293693705,"laengengrad":9.7492195952281,"wertstoffinsel":{"glas":true,"kleider":false,"papier":true}},{"typ":5,"name":"Spannhagenstr. 45 Hannover \/ List - Ecke Hinrichsring","strasse":"Spannhagenstr. 45","ort":"Hannover \/ List","breitengrad":52.403535830172,"laengengrad":9.7808792002635,"wertstoffinsel":{"glas":true,"kleider":false,"papier":true}},{"typ":5,"name":"Tannenbergallee 1 Hannover \/ List - H\u00f6he Niedersachsenring","strasse":"Tannenbergallee 1","ort":"Hannover \/ List","breitengrad":52.399246659495,"laengengrad":9.7490264632933,"wertstoffinsel":{"glas":true,"kleider":false,"papier":true}},{"typ":5,"name":"Waldstr. 8 Hannover \/ List - Einm\u00fcndung De-Haen-Platz","strasse":"Waldstr. 8","ort":"Hannover \/ List","breitengrad":52.392387971016,"laengengrad":9.7530986132469,"wertstoffinsel":{"glas":true,"kleider":false,"papier":true}},{"typ":5,"name":"Gro\u00dfe Pranke 3 Hannover \/ Marienwerder - Waldstr. Garbsen Anlieferung Netto","strasse":"Gro\u00dfe Pranke 3","ort":"Hannover \/ Marienwerder","breitengrad":52.405115697768,"laengengrad":9.6187822407878,"wertstoffinsel":{"glas":true,"kleider":false,"papier":true}},{"typ":5,"name":"Westermannweg 3 Hannover \/ Marienwerder - Ecke Quantelholz","strasse":"Westermannweg 3","ort":"Hannover \/ Marienwerder","breitengrad":52.406395580288,"laengengrad":9.6215931937126,"wertstoffinsel":{"glas":true,"kleider":false,"papier":true}},{"typ":5,"name":"Westermannweg 30 Hannover \/ Marienwerder - Ecke Augustinerweg","strasse":"Westermannweg 30","ort":"Hannover \/ Marienwerder","breitengrad":52.405237652816,"laengengrad":9.6263543699513,"wertstoffinsel":{"glas":true,"kleider":false,"papier":true}},{"typ":5,"name":"Am Forstkamp 41 Hannover \/ Misburg-Nord - Ecke Gustav-Bratke-Str.","strasse":"Am Forstkamp 41","ort":"Hannover \/ Misburg-Nord","breitengrad":52.395704920969,"laengengrad":9.8499777797658,"wertstoffinsel":{"glas":true,"kleider":false,"papier":false}},{"typ":5,"name":"Am Seelberg 35 Hannover \/ Misburg-Nord - N\u00e4he Feuerwache","strasse":"Am Seelberg 35","ort":"Hannover \/ Misburg-Nord","breitengrad":52.387507097303,"laengengrad":9.8447361319598,"wertstoffinsel":{"glas":true,"kleider":false,"papier":true}},{"typ":5,"name":"Hannoversche Str. 2 Hannover \/ Misburg-Nord - Parkplatz Meyers Garten","strasse":"Hannoversche Str. 2","ort":"Hannover \/ Misburg-Nord","breitengrad":52.390222333521,"laengengrad":9.8534874388484,"wertstoffinsel":{"glas":true,"kleider":false,"papier":true}},{"typ":5,"name":"Kleinertstr. 13C Hannover \/ Misburg-Nord - am Bunker","strasse":"Kleinertstr. 13C","ort":"Hannover \/ Misburg-Nord","breitengrad":52.38396819818,"laengengrad":9.8315771526176,"wertstoffinsel":{"glas":true,"kleider":false,"papier":true}},{"typ":5,"name":"Schierholzstr. 123 Hannover \/ Misburg-Nord - N\u00e4he Heinrich-Heine-Ring","strasse":"Schierholzstr. 123","ort":"Hannover \/ Misburg-Nord","breitengrad":52.39960849657,"laengengrad":9.8282113254666,"wertstoffinsel":{"glas":true,"kleider":false,"papier":true}},{"typ":5,"name":"Seckbruchstr. 20 Hannover \/ Misburg-Nord - Parkplatz B\u00fcrgerhaus","strasse":"Seckbruchstr. 20","ort":"Hannover \/ Misburg-Nord","breitengrad":52.393862817585,"laengengrad":9.8622578596184,"wertstoffinsel":{"glas":true,"kleider":false,"papier":true}},{"typ":5,"name":"Uferzeile 2 Hannover \/ Misburg-Nord - ","strasse":"Uferzeile 2","ort":"Hannover \/ Misburg-Nord","breitengrad":52.387542973496,"laengengrad":9.8333488496165,"wertstoffinsel":{"glas":true,"kleider":false,"papier":true}},{"typ":5,"name":"Waldstr. 77 Waldfriedhof Hannover \/ Misburg-Nord - Buswendeschleife","strasse":"Waldstr. 77 Waldfriedhof","ort":"Hannover \/ Misburg-Nord","breitengrad":52.399759204959,"laengengrad":9.8562730354295,"wertstoffinsel":{"glas":true,"kleider":false,"papier":true}},{"typ":5,"name":"Zu den Mergelbr\u00fcchen 2 Hannover \/ Misburg-S\u00fcd - N\u00e4he Anderter Str.","strasse":"Zu den Mergelbr\u00fcchen 2","ort":"Hannover \/ Misburg-S\u00fcd","breitengrad":52.370402627174,"laengengrad":9.8627556856254,"wertstoffinsel":{"glas":true,"kleider":false,"papier":true}},{"typ":5,"name":"Berliner Allee 22 \u00c4rztehaus \/ Hannover \/ Mitte - ","strasse":"Berliner Allee 22 \u00c4rztehaus \/","ort":"Hannover \/ Mitte","breitengrad":52.374220731328,"laengengrad":9.7512618216151,"wertstoffinsel":{"glas":true,"kleider":false,"papier":true}},{"typ":5,"name":"Leinstr. 16 30159 Hannover-Mitte","strasse":"Leinstr. 16","plz":"30159","ort":"Hannover \/ Mitte","breitengrad":52.36979008478281,"laengengrad":9.73621342596393,"wertstoffinsel":{"glas":true,"kleider":false,"papier":true}},{"typ":5,"name":"Nikolaistr. 8 Hannover \/ Mitte - H\u00f6he Astor Parkplatz","strasse":"Nikolaistr. 8","ort":"Hannover \/ Mitte","breitengrad":52.380430439244,"laengengrad":9.7330907338643,"wertstoffinsel":{"glas":true,"kleider":false,"papier":true}},{"typ":5,"name":"Warmb\u00fcchenstr. 4\/Arnswaldtstr. Hannover \/ Mitte - ","strasse":"Warmb\u00fcchenstr. 4\/Arnswaldtstr.","ort":"Hannover \/ Mitte","breitengrad":52.370389695763,"laengengrad":9.7471722057122,"wertstoffinsel":{"glas":true,"kleider":false,"papier":true}},{"typ":5,"name":"Am Mittelfelde 117 Hannover \/ Mittelfeld - N\u00e4he Giesener Str.","strasse":"Am Mittelfelde 117","ort":"Hannover \/ Mittelfeld","breitengrad":52.334228624155,"laengengrad":9.7981649383709,"wertstoffinsel":{"glas":true,"kleider":false,"papier":true}},{"typ":5,"name":"Am Mittelfelde 65 Hannover \/ Mittelfeld - Ecke Karlsruher Str.","strasse":"Am Mittelfelde 65","ort":"Hannover \/ Mittelfeld","breitengrad":52.331291988276,"laengengrad":9.7896443364939,"wertstoffinsel":{"glas":true,"kleider":false,"papier":true}},{"typ":5,"name":"Beuthener Str. 23 Hannover \/ Mittelfeld - Ecke Glatzer Str. H\u00f6he Schule","strasse":"Beuthener Str. 23","ort":"Hannover \/ Mittelfeld","breitengrad":52.333211104599,"laengengrad":9.7876825659968,"wertstoffinsel":{"glas":true,"kleider":false,"papier":true}},{"typ":5,"name":"Lehrter Platz 5 Hannover \/ Mittelfeld - Parknischen vor Spielplatz","strasse":"Lehrter Platz 5","ort":"Hannover \/ Mittelfeld","breitengrad":52.332212617597,"laengengrad":9.7944743819328,"wertstoffinsel":{"glas":true,"kleider":false,"papier":true}},{"typ":5,"name":"Beckstr.23 Hannover \/ M\u00fchlenberg - N\u00e4he Julius-Leber-Weg","strasse":"Beckstr.23","ort":"Hannover \/ M\u00fchlenberg","breitengrad":52.346387319223,"laengengrad":9.6844198489548,"wertstoffinsel":{"glas":true,"kleider":false,"papier":true}},{"typ":5,"name":"Goerdelerstr. 2 Hannover \/ M\u00fchlenberg - Ecke Ossietzkyring","strasse":"Goerdelerstr. 2","ort":"Hannover \/ M\u00fchlenberg","breitengrad":52.341967503914,"laengengrad":9.6915295862717,"wertstoffinsel":{"glas":true,"kleider":false,"papier":true}},{"typ":5,"name":"Leuschnerstr. 40 Hannover \/ M\u00fchlenberg - N\u00e4he Bonhoefferstr.","strasse":"Leuschnerstr. 40","ort":"Hannover \/ M\u00fchlenberg","breitengrad":52.34327196082,"laengengrad":9.686764473725,"wertstoffinsel":{"glas":true,"kleider":false,"papier":true}},{"typ":5,"name":"Schollweg 14 Hannover \/ M\u00fchlenberg - Beim Garagenhof","strasse":"Schollweg 14","ort":"Hannover \/ M\u00fchlenberg","breitengrad":52.344605556014,"laengengrad":9.6893394195535,"wertstoffinsel":{"glas":true,"kleider":false,"papier":true}},{"typ":5,"name":"Tresckowstr. 16 Hannover \/ M\u00fchlenberg - Nahversorger, gegen\u00fcber EON","strasse":"Tresckowstr. 16","ort":"Hannover \/ M\u00fchlenberg","breitengrad":52.34093780547,"laengengrad":9.6938767717264,"wertstoffinsel":{"glas":true,"kleider":false,"papier":true}},{"typ":5,"name":"Hansatr. 7 Hannover \/ Nordhafen - Wertstoffhof","strasse":"Hansatr. 7","ort":"Hannover \/ Nordhafen","breitengrad":52.421529005922,"laengengrad":9.6799507169444,"wertstoffinsel":{"glas":true,"kleider":false,"papier":false}},{"typ":5,"name":"Mecklenheidestr. 24 Hannover \/ Nordhafen - N\u00e4he Dorparter Str.","strasse":"Mecklenheidestr. 24","ort":"Hannover \/ Nordhafen","breitengrad":52.419124956957,"laengengrad":9.6898833960968,"wertstoffinsel":{"glas":true,"kleider":false,"papier":true}},{"typ":5,"name":"Am Kl\u00e4perberg 11 Hannover \/ Nordstadt - gg\u00fc. Hintere Sch\u00f6neworth","strasse":"Am Kl\u00e4perberg 11","ort":"Hannover \/ Nordstadt","breitengrad":52.39096392648,"laengengrad":9.723434162651,"wertstoffinsel":{"glas":true,"kleider":false,"papier":true}},{"typ":5,"name":"Appelstr. 9 Hannover \/ Nordstadt - in Sackgasse vor Uni-Instituten","strasse":"Appelstr. 9","ort":"Hannover \/ Nordstadt","breitengrad":52.388803761982,"laengengrad":9.7134800834597,"wertstoffinsel":{"glas":true,"kleider":false,"papier":false}},{"typ":5,"name":"Arndtstr. 1 Hannover \/ Nordstadt - vor Sozialamt, hinter Abzweig T\u00fcr","strasse":"Arndtstr. 1","ort":"Hannover \/ Nordstadt","breitengrad":52.381621247523,"laengengrad":9.7280710704871,"wertstoffinsel":{"glas":true,"kleider":false,"papier":false}},{"typ":5,"name":"Sandstr. 20 Hannover \/ Nordstadt - vor Wertstoffhof Gertrud-Knebusch","strasse":"Sandstr. 20","ort":"Hannover \/ Nordstadt","breitengrad":52.38801279255,"laengengrad":9.7281909210559,"wertstoffinsel":{"glas":true,"kleider":false,"papier":false}},{"typ":5,"name":"G\u00f6ttinger Chaussee 101 Hannover \/ Oberricklingen - H\u00f6he Auto SB-W\u00e4sche","strasse":"G\u00f6ttinger Chaussee 101","ort":"Hannover \/ Oberricklingen","breitengrad":52.34430275607,"laengengrad":9.7175490772815,"wertstoffinsel":{"glas":true,"kleider":false,"papier":true}},{"typ":5,"name":"Munzeler Str. 25 Hannover \/ Oberricklingen - H\u00f6he Gehrdener Stra\u00dfe","strasse":"Munzeler Str. 25","ort":"Hannover \/ Oberricklingen","breitengrad":52.344966033323,"laengengrad":9.6998998774131,"wertstoffinsel":{"glas":true,"kleider":false,"papier":true}},{"typ":5,"name":"Tillystr. 33 Ecke G\u00f6ttinger Ch Hannover \/ Oberricklingen - Lidl Parkplatz","strasse":"Tillystr. 33 Ecke G\u00f6ttinger Ch","ort":"Hannover \/ Oberricklingen","breitengrad":52.336966690166,"laengengrad":9.7175037206368,"wertstoffinsel":{"glas":true,"kleider":false,"papier":true}},{"typ":5,"name":"Wallensteinstr. 25 Hannover \/ Oberricklingen - Ecke Torstensonstr.","strasse":"Wallensteinstr. 25","ort":"Hannover \/ Oberricklingen","breitengrad":52.341989821077,"laengengrad":9.7119923547437,"wertstoffinsel":{"glas":true,"kleider":false,"papier":true}},{"typ":5,"name":"Friesenstr. 30 Hannover \/ Oststadt - Parkstreifen vor Einm\u00fcndung","strasse":"Friesenstr. 30","ort":"Hannover \/ Oststadt","breitengrad":52.382372447289,"laengengrad":9.7531044927719,"wertstoffinsel":{"glas":true,"kleider":false,"papier":true}},{"typ":5,"name":"Heinrichstr. 3 Hannover \/ Oststadt - Ecke Berliner Allee","strasse":"Heinrichstr. 3","ort":"Hannover \/ Oststadt","breitengrad":52.377957811105,"laengengrad":9.7489012456527,"wertstoffinsel":{"glas":true,"kleider":false,"papier":true}},{"typ":5,"name":"Lister Meile 4 Hannover \/ Oststadt - H\u00f6he Berliner Allee ( Pavill","strasse":"Lister Meile 4","ort":"Hannover \/ Oststadt","breitengrad":52.38030386165,"laengengrad":9.7447097388865,"wertstoffinsel":{"glas":true,"kleider":false,"papier":false}},{"typ":5,"name":"An der Bauerwiese 5 Hannover \/ Ricklingen - gg\u00fc. Eickenriede","strasse":"An der Bauerwiese 5","ort":"Hannover \/ Ricklingen","breitengrad":52.341425683351,"laengengrad":9.7278510239912,"wertstoffinsel":{"glas":true,"kleider":false,"papier":true}},{"typ":5,"name":"gg\u00fc. Bebelstr. Hannover \/ Ricklingen - Am Bunker u. d. Fu\u00dfg\u00e4","strasse":"gg\u00fc. Bebelstr.","ort":"Hannover \/ Ricklingen","breitengrad":52.350978607613,"laengengrad":9.7197126465973,"wertstoffinsel":{"glas":true,"kleider":false,"papier":false}},{"typ":5,"name":"Pfarrstr. 45 Hannover \/ Ricklingen - Sch\u00fcnemannplatz gg\u00fc. NP-Markt","strasse":"Pfarrstr. 45","ort":"Hannover \/ Ricklingen","breitengrad":52.347055742845,"laengengrad":9.7231429241511,"wertstoffinsel":{"glas":true,"kleider":false,"papier":true}},{"typ":5,"name":"Ada-Lessing-Str. 83 Hannover \/ Sahlkamp - H\u00f6he Rh\u00f6nweg","strasse":"Ada-Lessing-Str. 83","ort":"Hannover \/ Sahlkamp","breitengrad":52.413405811878,"laengengrad":9.781127034365,"wertstoffinsel":{"glas":true,"kleider":false,"papier":true}},{"typ":5,"name":"Elmstra\u00dfe Hannover \/ Sahlkamp - Ecke Schwarzwaldstra\u00dfe","strasse":"Elmstra\u00dfe","ort":"Hannover \/ Sahlkamp","breitengrad":52.413702906635,"laengengrad":9.7783387534179,"wertstoffinsel":{"glas":true,"kleider":false,"papier":true}},{"typ":5,"name":"H\u00e4gewiesen 110 Hannover \/ Sahlkamp - Ecke Vogelsbergstr.","strasse":"H\u00e4gewiesen 110","ort":"Hannover \/ Sahlkamp","breitengrad":52.415792914774,"laengengrad":9.7763317673109,"wertstoffinsel":{"glas":true,"kleider":false,"papier":true}},{"typ":5,"name":"H\u00e4gewiesen 145 Hannover \/ Sahlkamp - Ecke Kugelfangtrift","strasse":"H\u00e4gewiesen 145","ort":"Hannover \/ Sahlkamp","breitengrad":52.416838565253,"laengengrad":9.7717919442498,"wertstoffinsel":{"glas":true,"kleider":false,"papier":true}},{"typ":5,"name":"Holzwiesen 127 Hannover \/ Sahlkamp - Ecke Kugelfangtrift","strasse":"Holzwiesen 127","ort":"Hannover \/ Sahlkamp","breitengrad":52.418179574918,"laengengrad":9.7646543792569,"wertstoffinsel":{"glas":true,"kleider":false,"papier":true}},{"typ":5,"name":"Sahlkamp 137 N\u00e4he Wietzegraben Hannover \/ Sahlkamp - Bunker","strasse":"Sahlkamp 137 N\u00e4he Wietzegraben","ort":"Hannover \/ Sahlkamp","breitengrad":52.410413100278,"laengengrad":9.7686071273661,"wertstoffinsel":{"glas":true,"kleider":false,"papier":true}},{"typ":5,"name":"Am Schafbrinke Hannover \/ Seelhorst - Ecke Graefenhainweg","strasse":"Am Schafbrinke","ort":"Hannover \/ Seelhorst","breitengrad":52.34814152852,"laengengrad":9.7813708211517,"wertstoffinsel":{"glas":true,"kleider":false,"papier":false}},{"typ":5,"name":"Eupener Str. 1 Hannover \/ Seelhorst - Nettoparkplatz","strasse":"Eupener Str. 1","ort":"Hannover \/ Seelhorst","breitengrad":52.343839976795,"laengengrad":9.7806197228003,"wertstoffinsel":{"glas":true,"kleider":false,"papier":false}},{"typ":5,"name":"Peinerstr. 103 Hannover \/ Seelhorst - Ecke Hedwig-Bollhagen-Str.","strasse":"Peinerstr. 103","ort":"Hannover \/ Seelhorst","breitengrad":52.341414695258,"laengengrad":9.7857145910303,"wertstoffinsel":{"glas":true,"kleider":false,"papier":true}},{"typ":5,"name":"Alte St\u00f6ckener Str. 85 Hannover \/ St\u00f6cken - Sackgasse R\u00fcckseite","strasse":"Alte St\u00f6ckener Str. 85","ort":"Hannover \/ St\u00f6cken","breitengrad":52.413895253496,"laengengrad":9.6513540569254,"wertstoffinsel":{"glas":true,"kleider":false,"papier":true}},{"typ":5,"name":"Alter Damm 6 Hannover \/ St\u00f6cken - H\u00f6he Stelinger Str. vor Norma","strasse":"Alter Damm 6","ort":"Hannover \/ St\u00f6cken","breitengrad":52.426331682304,"laengengrad":9.6492430769388,"wertstoffinsel":{"glas":true,"kleider":false,"papier":false}},{"typ":5,"name":"Eichsfelder Str. 66 Hannover \/ St\u00f6cken - zw. Kastanienweg und Hohensteinweg","strasse":"Eichsfelder Str. 66","ort":"Hannover \/ St\u00f6cken","breitengrad":52.409535425449,"laengengrad":9.6641828754501,"wertstoffinsel":{"glas":true,"kleider":false,"papier":false}},{"typ":5,"name":"Hogrefestr. 11 Hannover \/ St\u00f6cken - N\u00e4he Moorhoffstr","strasse":"Hogrefestr. 11","ort":"Hannover \/ St\u00f6cken","breitengrad":52.409159998588,"laengengrad":9.6621925764304,"wertstoffinsel":{"glas":true,"kleider":false,"papier":true}},{"typ":5,"name":"Hogrefestr. 41 Richtung Am Sta Hannover \/ St\u00f6cken - Gemeindeholzstr.","strasse":"Hogrefestr. 41 Richtung Am Sta","ort":"Hannover \/ St\u00f6cken","breitengrad":52.412069288705,"laengengrad":9.6644414715746,"wertstoffinsel":{"glas":true,"kleider":false,"papier":true}},{"typ":5,"name":"St\u00f6ckener Str. 83 Hannover \/ St\u00f6cken - H\u00f6he Alveser Weg","strasse":"St\u00f6ckener Str. 83","ort":"Hannover \/ St\u00f6cken","breitengrad":52.401395640634,"laengengrad":9.666383017005,"wertstoffinsel":{"glas":true,"kleider":false,"papier":true}},{"typ":5,"name":"Alte D\u00f6hrener Str. 61 Hannover \/ S\u00fcdstadt - Gilde-Brauerei","strasse":"Alte D\u00f6hrener Str. 61","ort":"Hannover \/ S\u00fcdstadt","breitengrad":52.355469610893,"laengengrad":9.7521625379912,"wertstoffinsel":{"glas":true,"kleider":false,"papier":true}},{"typ":5,"name":"An der Tiefenriede 31 Hannover \/ S\u00fcdstadt - N\u00e4he Altenbekener Damm","strasse":"An der Tiefenriede 31","ort":"Hannover \/ S\u00fcdstadt","breitengrad":52.356448477641,"laengengrad":9.7579645581863,"wertstoffinsel":{"glas":true,"kleider":false,"papier":true}},{"typ":5,"name":"An der Weide 25 Hannover \/ S\u00fcdstadt - H\u00f6he Lidl \/ Spielsalon","strasse":"An der Weide 25","ort":"Hannover \/ S\u00fcdstadt","breitengrad":52.362008910093,"laengengrad":9.7642864057091,"wertstoffinsel":{"glas":true,"kleider":false,"papier":true}},{"typ":5,"name":"Bertha-von-Suttner-Platz 9 Hannover \/ S\u00fcdstadt - H\u00f6he Stresemanna","strasse":"Bertha-von-Suttner-Platz 9","ort":"Hannover \/ S\u00fcdstadt","breitengrad":52.359160464263,"laengengrad":9.7612562719755,"wertstoffinsel":{"glas":true,"kleider":false,"papier":true}},{"typ":5,"name":"Gro\u00dfe D\u00fcwelstr. 7 Hannover \/ S\u00fcdstadt - Am S\u00fcdbahnhof","strasse":"Gro\u00dfe D\u00fcwelstr. 7","ort":"Hannover \/ S\u00fcdstadt","breitengrad":52.369457724244,"laengengrad":9.7607870104271,"wertstoffinsel":{"glas":true,"kleider":false,"papier":false}},{"typ":5,"name":"Hildesheimer Str. 27 Hannover \/ S\u00fcdstadt - Ecke Adelheidsstr.","strasse":"Hildesheimer Str. 27","ort":"Hannover \/ S\u00fcdstadt","breitengrad":52.365058938102,"laengengrad":9.7470675816681,"wertstoffinsel":{"glas":true,"kleider":false,"papier":true}},{"typ":5,"name":"Hoppenstedtstr. 4 Hannover \/ S\u00fcdstadt - N\u00e4he Sch\u00fctzengesellschaft","strasse":"Hoppenstedtstr. 4","ort":"Hannover \/ S\u00fcdstadt","breitengrad":52.35244639809,"laengengrad":9.7581603777453,"wertstoffinsel":{"glas":true,"kleider":false,"papier":true}},{"typ":5,"name":"Jordanstr. 17 Hannover \/ S\u00fcdstadt - Bertha-von-Suttner-Platz","strasse":"Jordanstr. 17","ort":"Hannover \/ S\u00fcdstadt","breitengrad":52.360684440007,"laengengrad":9.7619432955359,"wertstoffinsel":{"glas":true,"kleider":false,"papier":true}},{"typ":5,"name":"Krausenstr. 27A Hannover \/ S\u00fcdstadt - Ecke Heidornstr.","strasse":"Krausenstr. 27A","ort":"Hannover \/ S\u00fcdstadt","breitengrad":52.364636324037,"laengengrad":9.7583690358512,"wertstoffinsel":{"glas":true,"kleider":false,"papier":true}},{"typ":5,"name":"Luhterstr. 42 Hannover \/ S\u00fcdstadt - Ecke Gro\u00dfe Barlinge","strasse":"Luhterstr. 42","ort":"Hannover \/ S\u00fcdstadt","breitengrad":52.366802821598,"laengengrad":9.7527809413373,"wertstoffinsel":{"glas":true,"kleider":false,"papier":true}},{"typ":5,"name":"Mendelssohnstr. 26A Hannover \/ S\u00fcdstadt - H\u00f6he Engelhardstr.","strasse":"Mendelssohnstr. 26A","ort":"Hannover \/ S\u00fcdstadt","breitengrad":52.357175298286,"laengengrad":9.7553779255931,"wertstoffinsel":{"glas":true,"kleider":false,"papier":false}},{"typ":5,"name":"Stephansplatz Hannover \/ S\u00fcdstadt - H\u00f6he Bandelstr.","strasse":"Stephansplatz","ort":"Hannover \/ S\u00fcdstadt","breitengrad":52.362013697093,"laengengrad":9.7537422224429,"wertstoffinsel":{"glas":true,"kleider":false,"papier":true}},{"typ":5,"name":"Stresemannallee 34 Hannover \/ S\u00fcdstadt - N\u00e4he Bugenhagen-Kirche","strasse":"Stresemannallee 34","ort":"Hannover \/ S\u00fcdstadt","breitengrad":52.354323174093,"laengengrad":9.7640950831546,"wertstoffinsel":{"glas":true,"kleider":false,"papier":true}},{"typ":5,"name":"Tiestestr. 8 Hannover \/ S\u00fcdstadt - ","strasse":"Tiestestr. 8","ort":"Hannover \/ S\u00fcdstadt","breitengrad":52.365187759372,"laengengrad":9.7620942035962,"wertstoffinsel":{"glas":true,"kleider":false,"papier":false}},{"typ":5,"name":"Dresdener Str. Hannover \/ Vahrenheide - Ecke Leipziger Str.","strasse":"Dresdener Str.","ort":"Hannover \/ Vahrenheide","breitengrad":52.411953945027,"laengengrad":9.7526967373875,"wertstoffinsel":{"glas":true,"kleider":false,"papier":true}},{"typ":5,"name":"Holzwiesen Hannover \/ Vahrenheide - Ecke Emmy Lanzke Weg","strasse":"Holzwiesen","ort":"Hannover \/ Vahrenheide","breitengrad":52.41329376716,"laengengrad":9.7624820977016,"wertstoffinsel":{"glas":true,"kleider":false,"papier":false}},{"typ":5,"name":"Kugelfangtrift Hannover \/ Vahrenheide - H\u00f6he Peter-Strasser-Allee","strasse":"Kugelfangtrift","ort":"Hannover \/ Vahrenheide","breitengrad":52.420363334992,"laengengrad":9.756413249198,"wertstoffinsel":{"glas":true,"kleider":false,"papier":true}},{"typ":5,"name":"Leipziger Str. 120 Hannover \/ Vahrenheide - Vogtl\u00e4nder Hof","strasse":"Leipziger Str. 120","ort":"Hannover \/ Vahrenheide","breitengrad":52.416838866902,"laengengrad":9.7606464526401,"wertstoffinsel":{"glas":true,"kleider":false,"papier":true}},{"typ":5,"name":"Plauener Str.26 Hannover \/ Vahrenheide - N\u00e4he Sahlkamp","strasse":"Plauener Str.26","ort":"Hannover \/ Vahrenheide","breitengrad":52.411164381328,"laengengrad":9.7594755854376,"wertstoffinsel":{"glas":true,"kleider":false,"papier":true}},{"typ":5,"name":"Weimarer Allee 4 Hannover \/ Vahrenheide - H\u00f6he Th\u00fcringer Str.","strasse":"Weimarer Allee 4","ort":"Hannover \/ Vahrenheide","breitengrad":52.413176867745,"laengengrad":9.7412789449753,"wertstoffinsel":{"glas":true,"kleider":false,"papier":true}},{"typ":5,"name":"Auf dem Dorn 18 Hannover \/ Vahrenwald - H\u00f6he Bunnenbergstr. \/ KIK","strasse":"Auf dem Dorn 18","ort":"Hannover \/ Vahrenwald","breitengrad":52.39474991336,"laengengrad":9.7232756241084,"wertstoffinsel":{"glas":true,"kleider":false,"papier":false}},{"typ":5,"name":"B\u00fcttnerstr. 21 Hannover \/ Vahrenwald - Vor dem DHL-Geb\u00e4ude","strasse":"B\u00fcttnerstr. 21","ort":"Hannover \/ Vahrenwald","breitengrad":52.404143448362,"laengengrad":9.7322930781774,"wertstoffinsel":{"glas":true,"kleider":false,"papier":true}},{"typ":5,"name":"Dragonerstr. 17 Hannover \/ Vahrenwald - N\u00e4he Vahrenwalder Kirche","strasse":"Dragonerstr. 17","ort":"Hannover \/ Vahrenwald","breitengrad":52.394978534432,"laengengrad":9.7343164502839,"wertstoffinsel":{"glas":true,"kleider":false,"papier":true}},{"typ":5,"name":"Dragonerstr. 34 Hannover \/ Vahrenwald - N\u00e4he Isernhagener Str.","strasse":"Dragonerstr. 34","ort":"Hannover \/ Vahrenwald","breitengrad":52.394384814618,"laengengrad":9.7387007988234,"wertstoffinsel":{"glas":true,"kleider":false,"papier":true}},{"typ":5,"name":"Grabbestr. 20 Hannover \/ Vahrenwald - Ecke Halkettstra\u00dfe","strasse":"Grabbestr. 20","ort":"Hannover \/ Vahrenwald","breitengrad":52.39322088688,"laengengrad":9.732141669945,"wertstoffinsel":{"glas":true,"kleider":false,"papier":false}},{"typ":5,"name":"Heinrich-Kirchweger-Platz Hannover \/ Vahrenwald - Emil-Meyer-Str. 3","strasse":"Heinrich-Kirchweger-Platz","ort":"Hannover \/ Vahrenwald","breitengrad":52.39100634092,"laengengrad":9.7282401867487,"wertstoffinsel":{"glas":true,"kleider":false,"papier":true}},{"typ":5,"name":"Isernhagener Str. 103-107 Hannover \/ Vahrenwald - gg\u00fc. bei Aral","strasse":"Isernhagener Str. 103-107","ort":"Hannover \/ Vahrenwald","breitengrad":52.397838275222,"laengengrad":9.739963661379,"wertstoffinsel":{"glas":true,"kleider":false,"papier":true}},{"typ":5,"name":"Philipsbornstr. 1 Hannover \/ Vahrenwald - vor Conti-Einfahrt","strasse":"Philipsbornstr. 1","ort":"Hannover \/ Vahrenwald","breitengrad":52.388570793352,"laengengrad":9.7324614782719,"wertstoffinsel":{"glas":true,"kleider":false,"papier":true}},{"typ":5,"name":"Pl\u00fcschowstr. 2 Hannover \/ Vahrenwald - Ecke Hirtenweg \/ Parkplatz","strasse":"Pl\u00fcschowstr. 2","ort":"Hannover \/ Vahrenwald","breitengrad":52.403404029823,"laengengrad":9.7398656885012,"wertstoffinsel":{"glas":true,"kleider":false,"papier":true}},{"typ":5,"name":"Raiffeisenstr. Hannover \/ Vahrenwald - Ecke Hamburger Allee 74","strasse":"Raiffeisenstr.","ort":"Hannover \/ Vahrenwald","breitengrad":52.384892857018,"laengengrad":9.735486172317,"wertstoffinsel":{"glas":true,"kleider":false,"papier":true}},{"typ":5,"name":"Rolandstr. 1 Hannover \/ Vahrenwald - Ecke Iserhagener Str","strasse":"Rolandstr. 1","ort":"Hannover \/ Vahrenwald","breitengrad":52.388072532094,"laengengrad":9.735965152575,"wertstoffinsel":{"glas":true,"kleider":false,"papier":true}},{"typ":5,"name":"Rotermundstr. 22 Hannover \/ Vahrenwald - Ecke Melanchthonstr.","strasse":"Rotermundstr. 22","ort":"Hannover \/ Vahrenwald","breitengrad":52.396871141562,"laengengrad":9.7350239356041,"wertstoffinsel":{"glas":true,"kleider":false,"papier":true}},{"typ":5,"name":"Windausstr. 2 Hannover \/ Vahrenwald - vor Finanz\u00e4mtern \/ BBS","strasse":"Windausstr. 2","ort":"Hannover \/ Vahrenwald","breitengrad":52.406495730846,"laengengrad":9.7371537469749,"wertstoffinsel":{"glas":true,"kleider":false,"papier":true}},{"typ":5,"name":"Alt-Vinnhorst 21 Hannover \/ Vinnhorst - im Krummen Sieke","strasse":"Alt-Vinnhorst 21","ort":"Hannover \/ Vinnhorst","breitengrad":52.420915203818,"laengengrad":9.6973521284739,"wertstoffinsel":{"glas":true,"kleider":false,"papier":true}},{"typ":5,"name":"Beneckeallee 8 Hannover \/ Vinnhorst - H\u00f6he Zufahrt Dammstr.","strasse":"Beneckeallee 8","ort":"Hannover \/ Vinnhorst","breitengrad":52.416658630878,"laengengrad":9.7041074981087,"wertstoffinsel":{"glas":true,"kleider":false,"papier":true}},{"typ":5,"name":"Friedenauer Str. 40 Hannover \/ Vinnhorst - N\u00e4he Eibenweg","strasse":"Friedenauer Str. 40","ort":"Hannover \/ Vinnhorst","breitengrad":52.414478986625,"laengengrad":9.7137620522404,"wertstoffinsel":{"glas":true,"kleider":false,"papier":true}},{"typ":5,"name":"Riepestr. 9 Hannover \/ Waldhausen - N\u00e4he Heuerstr.","strasse":"Riepestr. 9","ort":"Hannover \/ Waldhausen","breitengrad":52.3440100019,"laengengrad":9.7600565273179,"wertstoffinsel":{"glas":true,"kleider":false,"papier":true}},{"typ":5,"name":"Wiener Str.28 Hannover \/ Waldhausen - N\u00e4he Salzburger Str. DB Br\u00fccke","strasse":"Wiener Str.28","ort":"Hannover \/ Waldhausen","breitengrad":52.345524090094,"laengengrad":9.7678336103428,"wertstoffinsel":{"glas":true,"kleider":false,"papier":false}},{"typ":5,"name":"Danziger Str. 5 Hannover \/ Wettbergen - Wendehammer","strasse":"Danziger Str. 5","ort":"Hannover \/ Wettbergen","breitengrad":52.325823310945,"laengengrad":9.6971472628386,"wertstoffinsel":{"glas":true,"kleider":false,"papier":true}},{"typ":5,"name":"Hauptstr. 8 Hannover \/ Wettbergen - gegen\u00fcber Einm\u00fcndung Peperfeld","strasse":"Hauptstr. 8","ort":"Hannover \/ Wettbergen","breitengrad":52.326646650916,"laengengrad":9.6839537524658,"wertstoffinsel":{"glas":true,"kleider":false,"papier":true}},{"typ":5,"name":"In der Rehre 22 Hannover \/ Wettbergen - Ecke Auf dem Kampe","strasse":"In der Rehre 22","ort":"Hannover \/ Wettbergen","breitengrad":52.328829016008,"laengengrad":9.6951400743206,"wertstoffinsel":{"glas":true,"kleider":false,"papier":true}},{"typ":5,"name":"J\u00fctlandstr. Hannover \/ Wettbergen - Ecke Kopenhagener Str. 91","strasse":"J\u00fctlandstr.","ort":"Hannover \/ Wettbergen","breitengrad":52.332565957569,"laengengrad":9.6926157178371,"wertstoffinsel":{"glas":true,"kleider":false,"papier":true}},{"typ":5,"name":"Parkplatz Rewe Hannover \/ Wettbergen - ","strasse":"Parkplatz Rewe","ort":"Hannover \/ Wettbergen","breitengrad":52.32870783391,"laengengrad":9.7049701070052,"wertstoffinsel":{"glas":true,"kleider":false,"papier":false}},{"typ":5,"name":"Tresckowstr. 32 Hannover \/ Wettbergen - Ecke Wehrleweg","strasse":"Tresckowstr. 32","ort":"Hannover \/ Wettbergen","breitengrad":52.33812943085,"laengengrad":9.6929081228542,"wertstoffinsel":{"glas":true,"kleider":false,"papier":true}},{"typ":5,"name":"Tresckowstr. 72 Hannover \/ Wettbergen - Bereich \"An den Sportpl\u00e4tze","strasse":"Tresckowstr. 72","ort":"Hannover \/ Wettbergen","breitengrad":52.336010122231,"laengengrad":9.6894112429065,"wertstoffinsel":{"glas":true,"kleider":false,"papier":true}},{"typ":5,"name":"Am Eisenwerk Hannover \/ W\u00fclfel - Richtung Hildesheimer Str.","strasse":"Am Eisenwerk","ort":"Hannover \/ W\u00fclfel","breitengrad":52.326589032478,"laengengrad":9.7830160391709,"wertstoffinsel":{"glas":true,"kleider":false,"papier":true}},{"typ":5,"name":"Loccumer Str. 53 Hannover \/ W\u00fclfel - Ecke V\u00f6lgerstr.","strasse":"Loccumer Str. 53","ort":"Hannover \/ W\u00fclfel","breitengrad":52.332239241823,"laengengrad":9.7769519940474,"wertstoffinsel":{"glas":true,"kleider":false,"papier":true}},{"typ":5,"name":"Wilkenburger Str. 2 Hannover \/ W\u00fclfel - Ecke Dorfstr.","strasse":"Wilkenburger Str. 2","ort":"Hannover \/ W\u00fclfel","breitengrad":52.324547301653,"laengengrad":9.780426853481,"wertstoffinsel":{"glas":true,"kleider":false,"papier":true}},{"typ":5,"name":"Hoyerstr. 1 Hannover \/ W\u00fclferode - Ecke Kirchbichler Stra\u00dfe","strasse":"Hoyerstr. 1","ort":"Hannover \/ W\u00fclferode","breitengrad":52.326875639045,"laengengrad":9.8507857216515,"wertstoffinsel":{"glas":true,"kleider":false,"papier":true}},{"typ":5,"name":"gg\u00fc. Haus Nr. 37 Hannover \/ Zoo - N\u00e4he Kaiserallee","strasse":"gg\u00fc. Haus Nr. 37","ort":"Hannover \/ Zoo","breitengrad":52.379965510188,"laengengrad":9.7625249063002,"wertstoffinsel":{"glas":true,"kleider":false,"papier":true}},{"typ":5,"name":"Hiddestorfer Str. Hemmingen \/ Arnum - Am Freibad","strasse":"Hiddestorfer Str.","ort":"Hemmingen \/ Arnum","breitengrad":52.295670023397,"laengengrad":9.7340219370875,"wertstoffinsel":{"glas":true,"kleider":false,"papier":true}},{"typ":5,"name":"Hoher Holzweg Hemmingen \/ Arnum - vor Betriebshof Stadt Hemmingen \/ Auf Parkplatz","strasse":"Hoher Holzweg","ort":"Hemmingen \/ Arnum","breitengrad":52.308723042988,"laengengrad":9.7255250594615,"wertstoffinsel":{"glas":true,"kleider":false,"papier":true}},{"typ":5,"name":"Pattenser Feldweg Hemmingen \/ Arnum - Ecke Blumenweg","strasse":"Pattenser Feldweg","ort":"Hemmingen \/ Arnum","breitengrad":52.296104984335,"laengengrad":9.7421088695054,"wertstoffinsel":{"glas":true,"kleider":false,"papier":true}},{"typ":5,"name":"Arnumer Str Hemmingen \/ Harkenbleck - Apfelbaumallee","strasse":"Arnumer Str","ort":"Hemmingen \/ Harkenbleck","breitengrad":52.291626507666,"laengengrad":9.7634409967241,"wertstoffinsel":{"glas":true,"kleider":false,"papier":true}},{"typ":5,"name":"Hohe B\u00fcnte Hemmingen \/ Hemmingen-Westerfe - Am Schwimmbad \/ Parkplatz","strasse":"Hohe B\u00fcnte","ort":"Hemmingen \/ Hemmingen-Westerfe","breitengrad":52.328672613369,"laengengrad":9.7401297261742,"wertstoffinsel":{"glas":true,"kleider":false,"papier":true}},{"typ":5,"name":"Max-von-Laue-Str. 999 Hemmingen \/ Hemmingen-Westerfe - ","strasse":"Max-von-Laue-Str. 999","ort":"Hemmingen \/ Hemmingen-Westerfe","breitengrad":52.320978302865,"laengengrad":9.7209570920917,"wertstoffinsel":{"glas":true,"kleider":false,"papier":false}},{"typ":5,"name":"Sundernstr. \/ Wertstoffinsel Hemmingen \/ Hemmingen-Westerfe - ","strasse":"Sundernstr. \/ Wertstoffinsel","ort":"Hemmingen \/ Hemmingen-Westerfe","wertstoffinsel":{"glas":true,"kleider":false,"papier":false}},{"typ":5,"name":"Am Damm Hemmingen \/ Wilkenburg - Ecke Kirchstr. Teppichscheune","strasse":"Am Damm","ort":"Hemmingen \/ Wilkenburg","breitengrad":52.31327927502,"laengengrad":9.7601607984007,"wertstoffinsel":{"glas":true,"kleider":false,"papier":false}},{"typ":5,"name":"Am Walde Isernhagen \/ Altwarmb\u00fcchen - Ecke Hannoversche Stra\u00dfe","strasse":"Am Walde","ort":"Isernhagen \/ Altwarmb\u00fcchen","breitengrad":52.435342520234,"laengengrad":9.8724523174887,"wertstoffinsel":{"glas":true,"kleider":false,"papier":false}},{"typ":5,"name":"Farrelweg Isernhagen \/ Altwarmb\u00fcchen - zw. Mozartstr. und K\u00f6nigsberger Str.","strasse":"Farrelweg","ort":"Isernhagen \/ Altwarmb\u00fcchen","breitengrad":52.434225260666,"laengengrad":9.8493213187149,"wertstoffinsel":{"glas":true,"kleider":false,"papier":false}},{"typ":5,"name":"Seestr. Isernhagen \/ Altwarmb\u00fcchen - Am Sportverein Parkplatz","strasse":"Seestr.","ort":"Isernhagen \/ Altwarmb\u00fcchen","breitengrad":52.428873305656,"laengengrad":9.8596316389023,"wertstoffinsel":{"glas":true,"kleider":false,"papier":false}},{"typ":5,"name":"Stettiner Str. Isernhagen \/ Altwarmb\u00fcchen - Parkplatz Rathaus","strasse":"Stettiner Str.","ort":"Isernhagen \/ Altwarmb\u00fcchen","breitengrad":52.430656608815,"laengengrad":9.8517384522663,"wertstoffinsel":{"glas":true,"kleider":false,"papier":false}},{"typ":5,"name":"Wietzeaue Isernhagen \/ Altwarmb\u00fcchen - N\u00e4he Etternkamp","strasse":"Wietzeaue","ort":"Isernhagen \/ Altwarmb\u00fcchen","breitengrad":52.437947839384,"laengengrad":9.8467449294631,"wertstoffinsel":{"glas":true,"kleider":false,"papier":false}},{"typ":5,"name":"Burgwedeler Str. Isernhagen \/ Isernhagen Hb - Ecke An der Beeke","strasse":"Burgwedeler Str.","ort":"Isernhagen \/ Isernhagen Hb","breitengrad":52.47285297609,"laengengrad":9.7943252830647,"wertstoffinsel":{"glas":true,"kleider":false,"papier":false}},{"typ":5,"name":"Stahlstr. Ecke Bahnhofstr. Isernhagen \/ Isernhagen Hb - Sch\u00fctzengesellschaft","strasse":"Stahlstr. Ecke Bahnhofstr.","ort":"Isernhagen \/ Isernhagen Hb","breitengrad":52.485024340702,"laengengrad":9.8025705022684,"wertstoffinsel":{"glas":true,"kleider":false,"papier":true}},{"typ":5,"name":"Kircher Vorfeld Ecke Simon-Win Isernhagen \/ Isernhagen Kb - Parkplatz","strasse":"Kircher Vorfeld Ecke Simon-Win","ort":"Isernhagen \/ Isernhagen Kb","breitengrad":52.460447535638,"laengengrad":9.8217578397577,"wertstoffinsel":{"glas":true,"kleider":false,"papier":true}},{"typ":5,"name":"Auf Dem Kley 45 Isernhagen \/ Neuwarmb\u00fcchen - Wendehammer","strasse":"Auf Dem Kley 45","ort":"Isernhagen \/ Neuwarmb\u00fcchen","breitengrad":52.454751549416,"laengengrad":9.8799439630656,"wertstoffinsel":{"glas":true,"kleider":false,"papier":false}},{"typ":5,"name":"Faster Str. Isernhagen \/ Neuwarmb\u00fcchen - Ecke An d. Worth Parkplatz","strasse":"Faster Str.","ort":"Isernhagen \/ Neuwarmb\u00fcchen","breitengrad":52.467136975372,"laengengrad":9.8840330416996,"wertstoffinsel":{"glas":true,"kleider":false,"papier":false}},{"typ":5,"name":"Alter Markt Ecke Alte Rathauss Laatzen \/ Alt-Laatzen - Am Flebbehof","strasse":"Alter Markt Ecke Alte Rathauss","ort":"Laatzen \/ Alt-Laatzen","breitengrad":52.317036632936,"laengengrad":9.7850187015335,"wertstoffinsel":{"glas":true,"kleider":false,"papier":false}},{"typ":5,"name":"Auf der Dehne Laatzen \/ Alt-Laatzen - gg\u00fc. Sportliche Vereinigung Laatzen Parkplatz","strasse":"Auf der Dehne","ort":"Laatzen \/ Alt-Laatzen","breitengrad":52.320721475356,"laengengrad":9.7838661385155,"wertstoffinsel":{"glas":true,"kleider":false,"papier":true}},{"typ":5,"name":"Dammackerweg 999 \/ Ecke Osterb Laatzen \/ Gleidingen - ","strasse":"Dammackerweg 999 \/ Ecke Osterb","ort":"Laatzen \/ Gleidingen","wertstoffinsel":{"glas":true,"kleider":false,"papier":false}},{"typ":5,"name":"Ritterstr. 1 Laatzen \/ Gleidingen - Richtung Sch\u00fctzenhaus","strasse":"Ritterstr. 1","ort":"Laatzen \/ Gleidingen","breitengrad":52.276204606536,"laengengrad":9.8317426367476,"wertstoffinsel":{"glas":true,"kleider":false,"papier":false}},{"typ":5,"name":"Ahornstra\u00dfe Laatzen \/ Grasdorf - Ecke Bahnweg","strasse":"Ahornstra\u00dfe","ort":"Laatzen \/ Grasdorf","breitengrad":52.302185093516,"laengengrad":9.8062121403643,"wertstoffinsel":{"glas":true,"kleider":false,"papier":false}},{"typ":5,"name":"Gladiolenweg Laatzen \/ Grasdorf - gg\u00fc. Garagenhof","strasse":"Gladiolenweg","ort":"Laatzen \/ Grasdorf","breitengrad":52.302778841872,"laengengrad":9.8087894820735,"wertstoffinsel":{"glas":true,"kleider":false,"papier":false}},{"typ":5,"name":"Hermann-L\u00f6ns-Str. Laatzen \/ Grasdorf - Ecke Eduard-M\u00f6rike-Stra\u00dfe","strasse":"Hermann-L\u00f6ns-Str.","ort":"Laatzen \/ Grasdorf","breitengrad":52.290519649285,"laengengrad":9.8147242245547,"wertstoffinsel":{"glas":true,"kleider":false,"papier":true}},{"typ":5,"name":"Heidfeldweg Laatzen \/ Ingeln\/Oesselse - Ecke Heinrich-Heine-Weg","strasse":"Heidfeldweg","ort":"Laatzen \/ Ingeln\/Oesselse","breitengrad":52.28026244256,"laengengrad":9.8760877343646,"wertstoffinsel":{"glas":true,"kleider":false,"papier":false}},{"typ":5,"name":"Mannheimer Str. Laatzen \/ Mitte I - Ecke W\u00fcrzburger Str. hinter Bauhaus","strasse":"Mannheimer Str.","ort":"Laatzen \/ Mitte I","breitengrad":52.306897750563,"laengengrad":9.8033495990516,"wertstoffinsel":{"glas":true,"kleider":false,"papier":false}},{"typ":5,"name":"Domagkstr. Laatzen \/ Mitte II - Ecke Albert-Schweitzer-Str.","strasse":"Domagkstr.","ort":"Laatzen \/ Mitte II","breitengrad":52.307985268549,"laengengrad":9.8099844460373,"wertstoffinsel":{"glas":true,"kleider":false,"papier":true}},{"typ":5,"name":"Mergenthaler Str. Laatzen \/ Mitte II - Ecke Senefelderstr.","strasse":"Mergenthaler Str.","ort":"Laatzen \/ Mitte II","breitengrad":52.311522004695,"laengengrad":9.8042254374961,"wertstoffinsel":{"glas":true,"kleider":false,"papier":true}},{"typ":5,"name":"Pestalozzistr. 20 Laatzen \/ Mitte II - gg\u00fc. Garagenhof","strasse":"Pestalozzistr. 20","ort":"Laatzen \/ Mitte II","breitengrad":52.309700494851,"laengengrad":9.8155017103887,"wertstoffinsel":{"glas":true,"kleider":false,"papier":true}},{"typ":5,"name":"Lange Weihe 16 Laatzen \/ Mitte III - gg\u00fc. Lortzingweg","strasse":"Lange Weihe 16","ort":"Laatzen \/ Mitte III","breitengrad":52.300385278778,"laengengrad":9.8221059225713,"wertstoffinsel":{"glas":true,"kleider":false,"papier":true}},{"typ":5,"name":"Burgstr. Laatzen \/ Rethen\/Leine - Ecke Steinweg","strasse":"Burgstr.","ort":"Laatzen \/ Rethen\/Leine","breitengrad":52.286186629516,"laengengrad":9.8250097635987,"wertstoffinsel":{"glas":true,"kleider":false,"papier":true}},{"typ":5,"name":"Marggraf Laatzen \/ Rethen\/Leine - Ecke Spindelweg","strasse":"Marggraf","ort":"Laatzen \/ Rethen\/Leine","breitengrad":52.280189419287,"laengengrad":9.8289148388449,"wertstoffinsel":{"glas":true,"kleider":false,"papier":true}},{"typ":5,"name":"Pattenser Str. \/ Laatzen \/ Rethen\/Leine - ","strasse":"Pattenser Str. \/","ort":"Laatzen \/ Rethen\/Leine","breitengrad":52.290539459823,"laengengrad":9.8183607659794,"wertstoffinsel":{"glas":true,"kleider":false,"papier":false}},{"typ":5,"name":"Zur Sehlwiese Laatzen \/ Rethen\/Leine - Ecke Am Bahnhof","strasse":"Zur Sehlwiese","ort":"Laatzen \/ Rethen\/Leine","breitengrad":52.284179709664,"laengengrad":9.8214247870208,"wertstoffinsel":{"glas":true,"kleider":false,"papier":false}},{"typ":5,"name":"Klusmoor Langenhagen \/ Engelbostel - H\u00f6he Tennisplatz","strasse":"Klusmoor","ort":"Langenhagen \/ Engelbostel","breitengrad":52.444110222501,"laengengrad":9.6614217920664,"wertstoffinsel":{"glas":true,"kleider":false,"papier":false}},{"typ":5,"name":"Am Kielenkamp Ecke Berliner Al Langenhagen \/ Godshorn - Parkplatz","strasse":"Am Kielenkamp Ecke Berliner Al","ort":"Langenhagen \/ Godshorn","breitengrad":52.433235515821,"laengengrad":9.6967817051611,"wertstoffinsel":{"glas":true,"kleider":false,"papier":false}},{"typ":5,"name":"Desbrocksriede Langenhagen \/ Godshorn - Ecke Eschenweg","strasse":"Desbrocksriede","ort":"Langenhagen \/ Godshorn","breitengrad":52.431253094745,"laengengrad":9.6790119251455,"wertstoffinsel":{"glas":true,"kleider":false,"papier":true}},{"typ":5,"name":"Lohkamp Langenhagen \/ Godshorn - Ecke Alt-Godshorn","strasse":"Lohkamp","ort":"Langenhagen \/ Godshorn","breitengrad":52.439394242333,"laengengrad":9.6982617164982,"wertstoffinsel":{"glas":true,"kleider":false,"papier":true}},{"typ":5,"name":"Schulenburger M\u00fchle Ecke Sch\u00e4f Langenhagen \/ Godshorn - Wendeplatz","strasse":"Schulenburger M\u00fchle Ecke Sch\u00e4f","ort":"Langenhagen \/ Godshorn","breitengrad":52.435735490395,"laengengrad":9.6812431974651,"wertstoffinsel":{"glas":true,"kleider":false,"papier":true}},{"typ":5,"name":"Bertha-von-Suttner-Ring Langenhagen \/ Kaltenweide - Ecke Kaltenweider Platz","strasse":"Bertha-von-Suttner-Ring","ort":"Langenhagen \/ Kaltenweide","breitengrad":52.480744853245,"laengengrad":9.7347717827654,"wertstoffinsel":{"glas":true,"kleider":false,"papier":false}},{"typ":5,"name":"Hainh\u00e4user Weg Langenhagen \/ Kaltenweide - Siedlung Twenge Richtung Hainhaus","strasse":"Hainh\u00e4user Weg","ort":"Langenhagen \/ Kaltenweide","breitengrad":52.481010908106,"laengengrad":9.7567462009247,"wertstoffinsel":{"glas":true,"kleider":false,"papier":true}},{"typ":5,"name":"Zellerie Langenhagen \/ Kaltenweide - An der Feuerwehr","strasse":"Zellerie","ort":"Langenhagen \/ Kaltenweide","breitengrad":52.474776933003,"laengengrad":9.7286800710506,"wertstoffinsel":{"glas":true,"kleider":false,"papier":true}},{"typ":5,"name":"An Der Celler Bahn Langenhagen \/ Kr\u00e4henwinkel - Ecke Hoher Kamp","strasse":"An Der Celler Bahn","ort":"Langenhagen \/ Kr\u00e4henwinkel","breitengrad":52.463721073671,"laengengrad":9.7527109420449,"wertstoffinsel":{"glas":true,"kleider":false,"papier":true}},{"typ":5,"name":"Emil-Berliner-Str. Langenhagen \/ Langenhagen - Ecke Ilmenauweg","strasse":"Emil-Berliner-Str.","ort":"Langenhagen \/ Langenhagen","breitengrad":52.430506942824,"laengengrad":9.7532333898074,"wertstoffinsel":{"glas":true,"kleider":false,"papier":true}},{"typ":5,"name":"Hans-B\u00f6ckler-Str. 54 Langenhagen \/ Langenhagen - vor Parkplatz Famila","strasse":"Hans-B\u00f6ckler-Str. 54","ort":"Langenhagen \/ Langenhagen","breitengrad":52.430635978402,"laengengrad":9.7180384194869,"wertstoffinsel":{"glas":true,"kleider":false,"papier":false}},{"typ":5,"name":"H\u00f6he Nr. 27 Langenhagen \/ Langenhagen - Parkplatz IGS Langenhagen","strasse":"H\u00f6he Nr. 27","ort":"Langenhagen \/ Langenhagen","breitengrad":52.439984217795,"laengengrad":9.7459362672805,"wertstoffinsel":{"glas":true,"kleider":false,"papier":false}},{"typ":5,"name":"Konrad-Adenauer-Str. Langenhagen \/ Langenhagen - N\u00e4he Iffezheimer Weg","strasse":"Konrad-Adenauer-Str.","ort":"Langenhagen \/ Langenhagen","breitengrad":52.440020175882,"laengengrad":9.7459368745651,"wertstoffinsel":{"glas":true,"kleider":false,"papier":true}},{"typ":5,"name":"Kurt-Schumacher-Allee Langenhagen \/ Langenhagen - Richtung Emil-Berliner-Str.","strasse":"Kurt-Schumacher-Allee","ort":"Langenhagen \/ Langenhagen","breitengrad":52.43088350586,"laengengrad":9.7491508513737,"wertstoffinsel":{"glas":true,"kleider":false,"papier":false}},{"typ":5,"name":"Leibnizstra\u00dfe Langenhagen \/ Langenhagen - Ecke Heesternweg","strasse":"Leibnizstra\u00dfe","ort":"Langenhagen \/ Langenhagen","breitengrad":52.449240549802,"laengengrad":9.7451214738444,"wertstoffinsel":{"glas":true,"kleider":false,"papier":true}},{"typ":5,"name":"Leibnizstra\u00dfe Langenhagen \/ Langenhagen - Ecke Heesternweg h\u00f6he Sportplatz","strasse":"Leibnizstra\u00dfe","ort":"Langenhagen \/ Langenhagen","breitengrad":52.449004997613,"laengengrad":9.7510915923462,"wertstoffinsel":{"glas":true,"kleider":false,"papier":true}},{"typ":5,"name":"Niedersachsenstra\u00dfe Langenhagen \/ Langenhagen - Ecke Falterweg","strasse":"Niedersachsenstra\u00dfe","ort":"Langenhagen \/ Langenhagen","breitengrad":52.451327850626,"laengengrad":9.726085698274,"wertstoffinsel":{"glas":true,"kleider":false,"papier":true}},{"typ":5,"name":"Poggenaue Langenhagen \/ Langenhagen - Ecke Reuterdamm","strasse":"Poggenaue","ort":"Langenhagen \/ Langenhagen","breitengrad":52.453311616828,"laengengrad":9.7623048425268,"wertstoffinsel":{"glas":true,"kleider":false,"papier":true}},{"typ":5,"name":"Dorfstr. Langenhagen \/ Schulenburg - N\u00e4he Im Spann","strasse":"Dorfstr.","ort":"Langenhagen \/ Schulenburg","breitengrad":52.449721925111,"laengengrad":9.6770151381552,"wertstoffinsel":{"glas":true,"kleider":false,"papier":true}},{"typ":5,"name":"Parkplatz Schwanenburg","strasse":"Ahltener Str.","ort":"Lehrte \/ Ahlten","breitengrad":52.372987176819,"laengengrad":9.9579198535001,"wertstoffinsel":{"glas":true,"kleider":false,"papier":false}},{"typ":5,"name":"An der Feuerwehr Lehrte \/ Ahlten - Ecke Im Wiesengrund Parkplatz","strasse":"An der Feuerwehr","ort":"Lehrte \/ Ahlten","breitengrad":52.365276019864,"laengengrad":9.9050859903531,"wertstoffinsel":{"glas":true,"kleider":false,"papier":true}},{"typ":5,"name":"Im Kleifeld Lehrte \/ Ahlten - Parkplatz TSG Ahlten","strasse":"Im Kleifeld","ort":"Lehrte \/ Ahlten","breitengrad":52.360664222352,"laengengrad":9.9085455935987,"wertstoffinsel":{"glas":true,"kleider":false,"papier":true}},{"typ":5,"name":"Planetenstr. H\u00f6he Am Rehwinkel Lehrte \/ Ahlten - Kreisverkehr","strasse":"Planetenstr. H\u00f6he Am Rehwinkel","ort":"Lehrte \/ Ahlten","breitengrad":52.371441607208,"laengengrad":9.9216341886248,"wertstoffinsel":{"glas":true,"kleider":false,"papier":false}},{"typ":5,"name":"Bauernwinkel Lehrte \/ Aligse - Ecke Dammfeldstr.","strasse":"Bauernwinkel","ort":"Lehrte \/ Aligse","breitengrad":52.403265006566,"laengengrad":9.9747596964745,"wertstoffinsel":{"glas":true,"kleider":false,"papier":false}},{"typ":5,"name":"Kn\u00fcppelsdorfer Weg Lehrte \/ Arpke - H\u00f6he Bahnhof","strasse":"Kn\u00fcppelsdorfer Weg","ort":"Lehrte \/ Arpke","breitengrad":52.391361303627,"laengengrad":10.085170155844,"wertstoffinsel":{"glas":true,"kleider":false,"papier":true}},{"typ":5,"name":"Forellenweg Lehrte \/ H\u00e4melerwald - Ecke Dammweg","strasse":"Forellenweg","ort":"Lehrte \/ H\u00e4melerwald","breitengrad":52.344916272534,"laengengrad":10.107300793257,"wertstoffinsel":{"glas":true,"kleider":false,"papier":true}},{"typ":5,"name":"Heinrich-Kobbe-Str. Lehrte \/ H\u00e4melerwald - gg\u00fc. Haus-Nr. 2","strasse":"Heinrich-Kobbe-Str.","ort":"Lehrte \/ H\u00e4melerwald","breitengrad":52.354971048255,"laengengrad":10.110811862955,"wertstoffinsel":{"glas":true,"kleider":false,"papier":true}},{"typ":5,"name":"Riedweg Lehrte \/ H\u00e4melerwald - Parkplatz Schulzentrum","strasse":"Riedweg","ort":"Lehrte \/ H\u00e4melerwald","breitengrad":52.359004415125,"laengengrad":10.117859006937,"wertstoffinsel":{"glas":true,"kleider":false,"papier":true}},{"typ":5,"name":"Am Fleith Lehrte \/ Immensen - Parkplatz Sporthalle","strasse":"Am Fleith","ort":"Lehrte \/ Immensen","breitengrad":52.392965858161,"laengengrad":10.058932697027,"wertstoffinsel":{"glas":true,"kleider":false,"papier":true}},{"typ":5,"name":"Grafhornstr. 23 Lehrte \/ Immensen - vor Hundewiese","strasse":"Grafhornstr. 23","ort":"Lehrte \/ Immensen","breitengrad":52.399573080026,"laengengrad":10.066043215141,"wertstoffinsel":{"glas":true,"kleider":false,"papier":true}},{"typ":5,"name":"Am Lindenberg Lehrte \/ Lehrte - Ecke Hofwinkel","strasse":"Am Lindenberg","ort":"Lehrte \/ Lehrte","breitengrad":52.370766262379,"laengengrad":9.9809624662311,"wertstoffinsel":{"glas":true,"kleider":false,"papier":false}},{"typ":5,"name":"Am Pfingstanger 3 Lehrte \/ Lehrte - Parkplatz gg\u00fc.","strasse":"Am Pfingstanger 3","ort":"Lehrte \/ Lehrte","breitengrad":52.375308958002,"laengengrad":9.9850001078855,"wertstoffinsel":{"glas":true,"kleider":false,"papier":false}},{"typ":5,"name":"An Der Masch Lehrte \/ Lehrte - Parkplatz Turnhalle","strasse":"An Der Masch","ort":"Lehrte \/ Lehrte","breitengrad":52.371858361171,"laengengrad":9.9782838700782,"wertstoffinsel":{"glas":true,"kleider":false,"papier":true}},{"typ":5,"name":"Bullenweg Ecke Westring Lehrte \/ Lehrte - Edeka","strasse":"Bullenweg Ecke Westring","ort":"Lehrte \/ Lehrte","breitengrad":52.369207030683,"laengengrad":9.9595272154092,"wertstoffinsel":{"glas":true,"kleider":false,"papier":true}},{"typ":5,"name":"D\u00fcrerring Lehrte \/ Lehrte - Gr\u00fcnanlage am Lehrter Bach","strasse":"D\u00fcrerring","ort":"Lehrte \/ Lehrte","breitengrad":52.363132443834,"laengengrad":9.9690591096399,"wertstoffinsel":{"glas":true,"kleider":false,"papier":true}},{"typ":5,"name":"Gartenstr. Lehrte \/ Lehrte - Rathausparkplatz","strasse":"Gartenstr.","ort":"Lehrte \/ Lehrte","breitengrad":52.373413663177,"laengengrad":9.9739407354197,"wertstoffinsel":{"glas":true,"kleider":false,"papier":true}},{"typ":5,"name":"Schillerstra\u00dfe Lehrte \/ Lehrte - Ecke Falkenstra\u00dfe","strasse":"Schillerstra\u00dfe","ort":"Lehrte \/ Lehrte","breitengrad":52.382814657013,"laengengrad":9.9710621309321,"wertstoffinsel":{"glas":true,"kleider":false,"papier":true}},{"typ":5,"name":"Stackmannstr. Lehrte \/ Lehrte - Ecke Burgdorfer Str.","strasse":"Stackmannstr.","ort":"Lehrte \/ Lehrte","breitengrad":52.383223894929,"laengengrad":9.9737745953895,"wertstoffinsel":{"glas":true,"kleider":false,"papier":false}},{"typ":5,"name":"Steinstra\u00dfe Lehrte \/ Lehrte - Ecke Hohnhorstweg","strasse":"Steinstra\u00dfe","ort":"Lehrte \/ Lehrte","breitengrad":52.387579628026,"laengengrad":9.9959266121571,"wertstoffinsel":{"glas":true,"kleider":false,"papier":false}},{"typ":5,"name":"S\u00fcdring Lehrte \/ Lehrte - H\u00f6he K\u00f6hlerheide-Ost","strasse":"S\u00fcdring","ort":"Lehrte \/ Lehrte","breitengrad":52.364692214102,"laengengrad":9.97508541473,"wertstoffinsel":{"glas":true,"kleider":false,"papier":true}},{"typ":5,"name":"Westring Lehrte \/ Lehrte - H\u00f6he Iltener Str.","strasse":"Westring","ort":"Lehrte \/ Lehrte","breitengrad":52.365833211322,"laengengrad":9.9631258806289,"wertstoffinsel":{"glas":true,"kleider":false,"papier":false}},{"typ":5,"name":"Brinkstr. Lehrte \/ Sievershausen - gg\u00fc. Hausnummer 6","strasse":"Brinkstr.","ort":"Lehrte \/ Sievershausen","breitengrad":52.373193774077,"laengengrad":10.132774753147,"wertstoffinsel":{"glas":true,"kleider":false,"papier":true}},{"typ":5,"name":"H\u00e4melerwalder Str. Lehrte \/ Sievershausen - Wendehammer","strasse":"H\u00e4melerwalder Str.","ort":"Lehrte \/ Sievershausen","breitengrad":52.36427782629,"laengengrad":10.123044352193,"wertstoffinsel":{"glas":true,"kleider":false,"papier":true}},{"typ":5,"name":"Kleegarten Lehrte \/ Sievershausen - Parkplatz Walter Kolb Turnhalle","strasse":"Kleegarten","ort":"Lehrte \/ Sievershausen","breitengrad":52.371406214511,"laengengrad":10.125075986515,"wertstoffinsel":{"glas":true,"kleider":false,"papier":true}},{"typ":5,"name":"Am Sportheim bei der Feuerwehr Lehrte \/ Steinwedel - Parkplatz","strasse":"Am Sportheim bei der Feuerwehr","ort":"Lehrte \/ Steinwedel","breitengrad":52.411011196153,"laengengrad":9.9935727335839,"wertstoffinsel":{"glas":true,"kleider":false,"papier":false}},{"typ":5,"name":"Alte Dorfstr. Neustadt a. Rbge. \/ Bevensen - Ecke Alpestr.","strasse":"Alte Dorfstr.","ort":"Neustadt a. Rbge. \/ Bevensen","breitengrad":52.611923511162,"laengengrad":9.480428787345,"wertstoffinsel":{"glas":true,"kleider":false,"papier":true}},{"typ":5,"name":"Steinweg 29 Neustadt a. Rbge. \/ Bordenau - an der Feuerwehr","strasse":"Steinweg 29","ort":"Neustadt a. Rbge. \/ Bordenau","breitengrad":52.461618223298,"laengengrad":9.4776723619856,"wertstoffinsel":{"glas":true,"kleider":false,"papier":true}},{"typ":5,"name":"An Der Schule Neustadt a. Rbge. \/ Borstel - Ecke Im Or","strasse":"An Der Schule","ort":"Neustadt a. Rbge. \/ Borstel","breitengrad":52.587195616423,"laengengrad":9.3887020094568,"wertstoffinsel":{"glas":true,"kleider":false,"papier":true}},{"typ":5,"name":"Seutenborn Hinter Hausnummer 8 Neustadt a. Rbge. \/ B\u00fcren - ","strasse":"Seutenborn Hinter Hausnummer 8","ort":"Neustadt a. Rbge. \/ B\u00fcren","breitengrad":52.590762405202,"laengengrad":9.4974538342674,"wertstoffinsel":{"glas":true,"kleider":false,"papier":true}},{"typ":5,"name":"Speckenwiesen Neustadt a. Rbge. \/ Dudensen - Ecke Meyerkamp","strasse":"Speckenwiesen","ort":"Neustadt a. Rbge. \/ Dudensen","breitengrad":52.599267367064,"laengengrad":9.4501852638352,"wertstoffinsel":{"glas":true,"kleider":false,"papier":true}},{"typ":5,"name":"Zum Tannenbruch Neustadt a. Rbge. \/ Eilvese - Ecke Eilverser Hauptstr.","strasse":"Zum Tannenbruch","ort":"Neustadt a. Rbge. \/ Eilvese","breitengrad":52.546164814872,"laengengrad":9.4151195509952,"wertstoffinsel":{"glas":true,"kleider":false,"papier":true}},{"typ":5,"name":"Zur N\u00e4sch Neustadt a. Rbge. \/ Evensen - Ortsausgang","strasse":"Zur N\u00e4sch","ort":"Neustadt a. Rbge. \/ Evensen","breitengrad":52.575852105502,"laengengrad":9.5296171606942,"wertstoffinsel":{"glas":true,"kleider":false,"papier":true}},{"typ":5,"name":"Am G\u00e4nseberg 2b Neustadt a. Rbge. \/ Hagen - n\u00e4he Hagener Str.","strasse":"Am G\u00e4nseberg 2b","ort":"Neustadt a. Rbge. \/ Hagen","breitengrad":52.576870016831,"laengengrad":9.431657037192,"wertstoffinsel":{"glas":true,"kleider":false,"papier":true}},{"typ":5,"name":"Walsroder Str. Ecke Unterm Hei Neustadt a. Rbge. \/ Helstorf - Agravis","strasse":"Walsroder Str. Ecke Unterm Hei","ort":"Neustadt a. Rbge. \/ Helstorf","breitengrad":52.587823740278,"laengengrad":9.5893066462034,"wertstoffinsel":{"glas":true,"kleider":false,"papier":true}},{"typ":5,"name":"Zur Alten Schule Neustadt a. Rbge. \/ Laderholz - Ecke Brunnenbostel","strasse":"Zur Alten Schule","ort":"Neustadt a. Rbge. \/ Laderholz","breitengrad":52.624927090603,"laengengrad":9.4750016481056,"wertstoffinsel":{"glas":true,"kleider":false,"papier":true}},{"typ":5,"name":"Am Poggenpohl Neustadt a. Rbge. \/ Lutter - Ecke Lutterstr.","strasse":"Am Poggenpohl","ort":"Neustadt a. Rbge. \/ Lutter","breitengrad":52.616098807603,"laengengrad":9.5054215187152,"wertstoffinsel":{"glas":true,"kleider":false,"papier":true}},{"typ":5,"name":"Amedorfer Str. 25 Neustadt a. Rbge. \/ Mandelsloh - Parkplatz Combi Markt","strasse":"Amedorfer Str. 25","ort":"Neustadt a. Rbge. \/ Mandelsloh","breitengrad":52.59907683484,"laengengrad":9.5639886724167,"wertstoffinsel":{"glas":true,"kleider":false,"papier":true}},{"typ":5,"name":"Pferdeweg Neustadt a. Rbge. \/ Mardorf - Ecke Mardorfer Str.","strasse":"Pferdeweg","ort":"Neustadt a. Rbge. \/ Mardorf","breitengrad":52.492914950975,"laengengrad":9.2956377371034,"wertstoffinsel":{"glas":true,"kleider":false,"papier":true}},{"typ":5,"name":"Strandweg Neustadt a. Rbge. \/ Mardorf - Wei\u00dfe D\u00fcne","strasse":"Strandweg","ort":"Neustadt a. Rbge. \/ Mardorf","breitengrad":52.494074963462,"laengengrad":9.3327780586131,"wertstoffinsel":{"glas":true,"kleider":false,"papier":false}},{"typ":5,"name":"Warteweg Neustadt a. Rbge. \/ Mardorf - N\u00e4he Mardorfer Tennis Club","strasse":"Warteweg","ort":"Neustadt a. Rbge. \/ Mardorf","breitengrad":52.489224665342,"laengengrad":9.3044201364846,"wertstoffinsel":{"glas":true,"kleider":false,"papier":false}},{"typ":5,"name":"Zum Duvenwinkel Neustadt a. Rbge. \/ Mariensee - Hagener Bach","strasse":"Zum Duvenwinkel","ort":"Neustadt a. Rbge. \/ Mariensee","breitengrad":52.562205841573,"laengengrad":9.4919084531062,"wertstoffinsel":{"glas":true,"kleider":false,"papier":true}},{"typ":5,"name":"Im Wiebusche Neustadt a. Rbge. \/ Neustadt - Ecke Im Auenland","strasse":"Im Wiebusche","ort":"Neustadt a. Rbge. \/ Neustadt","breitengrad":52.51680893783,"laengengrad":9.4479567411581,"wertstoffinsel":{"glas":true,"kleider":false,"papier":true}},{"typ":5,"name":"Nicolaitorstra\u00dfe Ecke M\u00fcnchhau Neustadt a. Rbge. \/ Neustadt - Parkplatz","strasse":"Nicolaitorstra\u00dfe Ecke M\u00fcnchhau","ort":"Neustadt a. Rbge. \/ Neustadt","breitengrad":52.509810655465,"laengengrad":9.460675227299,"wertstoffinsel":{"glas":true,"kleider":false,"papier":true}},{"typ":5,"name":"Rudolf-Diesel-Ring Neustadt a. Rbge. \/ Neustadt - vorm Wertstoffhof","strasse":"Rudolf-Diesel-Ring","ort":"Neustadt a. Rbge. \/ Neustadt","breitengrad":52.507222188155,"laengengrad":9.4808334103445,"wertstoffinsel":{"glas":true,"kleider":false,"papier":false}},{"typ":5,"name":"Siemensstr. 2-4 Neustadt a. Rbge. \/ Neustadt - Parkpl. REWE","strasse":"Siemensstr. 2-4","ort":"Neustadt a. Rbge. \/ Neustadt","breitengrad":52.500525673056,"laengengrad":9.4555252603842,"wertstoffinsel":{"glas":true,"kleider":false,"papier":true}},{"typ":5,"name":"Niederst\u00f6ckener Str. Neustadt a. Rbge. \/ Niedernst\u00f6 - Im M\u00fchlenort (Raiffeisen)","strasse":"Niederst\u00f6ckener Str.","ort":"Neustadt a. Rbge. \/ Niedernst\u00f6","breitengrad":52.646962570607,"laengengrad":9.5724531005923,"wertstoffinsel":{"glas":true,"kleider":false,"papier":true}},{"typ":5,"name":"Am Heisterholz Neustadt a. Rbge. \/ N\u00f6pke - gg\u00fc. Freibad","strasse":"Am Heisterholz","ort":"Neustadt a. Rbge. \/ N\u00f6pke","breitengrad":52.599852949876,"laengengrad":9.3834101271149,"wertstoffinsel":{"glas":true,"kleider":false,"papier":true}},{"typ":5,"name":"An Der Waldb\u00fchne 37 gg\u00fc. Neustadt a. Rbge. \/ Otternhage - ","strasse":"An Der Waldb\u00fchne 37 gg\u00fc.","ort":"Neustadt a. Rbge. \/ Otternhage","breitengrad":52.513553736641,"laengengrad":9.5327581310438,"wertstoffinsel":{"glas":true,"kleider":false,"papier":true}},{"typ":5,"name":"Am Brinke Ecke Alter Sandberg Neustadt a. Rbge. \/ Schneeren - Feuerwehr","strasse":"Am Brinke Ecke Alter Sandberg","ort":"Neustadt a. Rbge. \/ Schneeren","breitengrad":52.531856078563,"laengengrad":9.3280365800832,"wertstoffinsel":{"glas":true,"kleider":false,"papier":true}},{"typ":5,"name":"Zum Barge Neustadt a. Rbge. \/ St\u00f6ckendre - Ecke L191 Ortseingang","strasse":"Zum Barge","ort":"Neustadt a. Rbge. \/ St\u00f6ckendre","breitengrad":52.661553590453,"laengengrad":9.5742849239196,"wertstoffinsel":{"glas":true,"kleider":false,"papier":true}},{"typ":5,"name":"In Suttorf Neustadt a. Rbge. \/ Suttorf - gg\u00fc. Im Eschfeld","strasse":"In Suttorf","ort":"Neustadt a. Rbge. \/ Suttorf","breitengrad":52.533164926508,"laengengrad":9.485996481666,"wertstoffinsel":{"glas":true,"kleider":false,"papier":true}},{"typ":5,"name":"Moorenne Neustadt a. Rbge. \/ Welze - Ecke Seufzerallee","strasse":"Moorenne","ort":"Neustadt a. Rbge. \/ Welze","breitengrad":52.584710188643,"laengengrad":9.5429043987073,"wertstoffinsel":{"glas":true,"kleider":false,"papier":true}},{"typ":5,"name":"Wiesenstra\u00dfe Pattensen \/ H\u00fcpede - zw. Bennigser Str. und An der Halbe","strasse":"Wiesenstra\u00dfe","ort":"Pattensen \/ H\u00fcpede","breitengrad":52.241163595128,"laengengrad":9.7289628960272,"wertstoffinsel":{"glas":true,"kleider":false,"papier":true}},{"typ":5,"name":"Zum Holze Pattensen \/ Jeinsen - gg\u00fc. Ostlandstr.","strasse":"Zum Holze","ort":"Pattensen \/ Jeinsen","breitengrad":52.21726963529,"laengengrad":9.789889456479,"wertstoffinsel":{"glas":true,"kleider":false,"papier":true}},{"typ":5,"name":"Ludwig-Erhard-Str. 22 Pattensen \/ Pattensen - Wertstoffhof","strasse":"Ludwig-Erhard-Str. 22","ort":"Pattensen \/ Pattensen","breitengrad":52.263132070253,"laengengrad":9.7790111230976,"wertstoffinsel":{"glas":true,"kleider":false,"papier":false}},{"typ":5,"name":"Piester Weg Pattensen \/ Pattensen - Ecke Braunschweiger Str.","strasse":"Piester Weg","ort":"Pattensen \/ Pattensen","breitengrad":52.258682078996,"laengengrad":9.7665819665644,"wertstoffinsel":{"glas":true,"kleider":false,"papier":true}},{"typ":5,"name":"Redener Weg 46 Pattensen \/ Pattensen - Parkplatz Fuchsbach","strasse":"Redener Weg 46","ort":"Pattensen \/ Pattensen","breitengrad":52.269102121473,"laengengrad":9.7707624756303,"wertstoffinsel":{"glas":true,"kleider":false,"papier":true}},{"typ":5,"name":"Rudolf-Harbig-Str. Pattensen \/ Pattensen - zum Motoballplatz","strasse":"Rudolf-Harbig-Str.","ort":"Pattensen \/ Pattensen","breitengrad":52.262533477223,"laengengrad":9.7478342950737,"wertstoffinsel":{"glas":true,"kleider":false,"papier":false}},{"typ":5,"name":"Gr\u00fcnes Tal 999 Pattensen \/ Schulenburg\/Leine - ","strasse":"Gr\u00fcnes Tal 999","ort":"Pattensen \/ Schulenburg\/Leine","breitengrad":52.193356056953,"laengengrad":9.7732847627543,"wertstoffinsel":{"glas":true,"kleider":false,"papier":false}},{"typ":5,"name":"Am Sportpark 7 Ronnenberg \/ Empelde - Parkplatz","strasse":"Am Sportpark 7","ort":"Ronnenberg \/ Empelde","breitengrad":52.338690636419,"laengengrad":9.6751714130545,"wertstoffinsel":{"glas":true,"kleider":false,"papier":true}},{"typ":5,"name":"Berliner Str. 25 hinter Penny Ronnenberg \/ Empelde - S Bahn Zugang","strasse":"Berliner Str. 25 hinter Penny","ort":"Ronnenberg \/ Empelde","breitengrad":52.340291756892,"laengengrad":9.6687079741359,"wertstoffinsel":{"glas":true,"kleider":false,"papier":false}},{"typ":5,"name":"Nenndorfer Str. Ronnenberg \/ Empelde - vor Bahn\u00fcbergang","strasse":"Nenndorfer Str.","ort":"Ronnenberg \/ Empelde","breitengrad":52.344378944468,"laengengrad":9.6724982800576,"wertstoffinsel":{"glas":true,"kleider":false,"papier":true}},{"typ":5,"name":"M\u00fchlenweg 28 Parkplatz Nabu Ronnenberg \/ Ihme-Roloven - Kindertagesst\u00e4tte","strasse":"M\u00fchlenweg 28 Parkplatz Nabu","ort":"Ronnenberg \/ Ihme-Roloven","breitengrad":52.301090584174,"laengengrad":9.6753913130855,"wertstoffinsel":{"glas":true,"kleider":false,"papier":true}},{"typ":5,"name":"Am Denkmal 999 Ronnenberg \/ Linderte - ","strasse":"Am Denkmal 999","ort":"Ronnenberg \/ Linderte","wertstoffinsel":{"glas":true,"kleider":false,"papier":true}},{"typ":5,"name":"Weetzer Kirchweg Ronnenberg \/ Ronnenberg - gg\u00fc. Friedhof","strasse":"Weetzer Kirchweg","ort":"Ronnenberg \/ Ronnenberg","breitengrad":52.311670531268,"laengengrad":9.6501165260969,"wertstoffinsel":{"glas":true,"kleider":false,"papier":false}},{"typ":5,"name":"Br\u00f6hnstr. Ronnenberg \/ Weetzen - Ecke Haferkamp","strasse":"Br\u00f6hnstr.","ort":"Ronnenberg \/ Weetzen","breitengrad":52.299964842675,"laengengrad":9.6368932559246,"wertstoffinsel":{"glas":true,"kleider":false,"papier":false}},{"typ":5,"name":"V\u00f6rier Str. Ronnenberg \/ Weetzen - Ecke Sutfeldweg","strasse":"V\u00f6rier Str.","ort":"Ronnenberg \/ Weetzen","breitengrad":52.290942576061,"laengengrad":9.6394176717308,"wertstoffinsel":{"glas":true,"kleider":false,"papier":true}},{"typ":5,"name":"Hatefeld Seelze \/ Almhorst - auf dem Festplatz","strasse":"Hatefeld","ort":"Seelze \/ Almhorst","breitengrad":52.379819350326,"laengengrad":9.5699322909192,"wertstoffinsel":{"glas":true,"kleider":false,"papier":true}},{"typ":5,"name":"Raiffeisenstr. Seelze \/ Dedensen - Festplatz \/ Dirtpark","strasse":"Raiffeisenstr.","ort":"Seelze \/ Dedensen","breitengrad":52.401029860323,"laengengrad":9.5083840988503,"wertstoffinsel":{"glas":true,"kleider":false,"papier":false}},{"typ":5,"name":"Friesenstr. Seelze \/ G\u00fcmmer - Ecke Graseweg","strasse":"Friesenstr.","ort":"Seelze \/ G\u00fcmmer","breitengrad":52.405448940076,"laengengrad":9.5318223639868,"wertstoffinsel":{"glas":true,"kleider":false,"papier":true}},{"typ":5,"name":"Wasserfurche Ecke Im Tale Seelze \/ Harenberg - R\u00fcckwertig Garagenhof","strasse":"Wasserfurche Ecke Im Tale","ort":"Seelze \/ Harenberg","breitengrad":52.381653934683,"laengengrad":9.6266670306973,"wertstoffinsel":{"glas":true,"kleider":false,"papier":true}},{"typ":5,"name":"Osterende Seelze \/ Kirchwehren - Ortsausgang Richtung L390","strasse":"Osterende","ort":"Seelze \/ Kirchwehren","breitengrad":52.364944992907,"laengengrad":9.5726340897835,"wertstoffinsel":{"glas":true,"kleider":false,"papier":true}},{"typ":5,"name":"Alte Aue Ecke Akazienstra\u00dfe Seelze \/ Letter - Mini Golf","strasse":"Alte Aue Ecke Akazienstra\u00dfe","ort":"Seelze \/ Letter","breitengrad":52.397516623347,"laengengrad":9.6327706370462,"wertstoffinsel":{"glas":true,"kleider":false,"papier":false}},{"typ":5,"name":"M\u00f6llerkamp Ecke Wiesenweg Seelze \/ Letter - Wendehammer","strasse":"M\u00f6llerkamp Ecke Wiesenweg","ort":"Seelze \/ Letter","breitengrad":52.401523003373,"laengengrad":9.6334011983279,"wertstoffinsel":{"glas":true,"kleider":false,"papier":false}},{"typ":5,"name":"Nico-Flatau-Platz Seelze \/ Letter - Parkplatz","strasse":"Nico-Flatau-Platz","ort":"Seelze \/ Letter","breitengrad":52.407004538268,"laengengrad":9.642226476529,"wertstoffinsel":{"glas":true,"kleider":false,"papier":true}},{"typ":5,"name":"Max-Planck-Str. Seelze \/ Letter-S\u00fcd - Ecke Albert-Einstein-Str.","strasse":"Max-Planck-Str.","ort":"Seelze \/ Letter-S\u00fcd","breitengrad":52.387982394091,"laengengrad":9.6419062899246,"wertstoffinsel":{"glas":true,"kleider":false,"papier":false}},{"typ":5,"name":"F\u00e4hrweg Seelze \/ Lohnde - Parkplatz SC Lohnde 96","strasse":"F\u00e4hrweg","ort":"Seelze \/ Lohnde","breitengrad":52.403317147426,"laengengrad":9.5612244500296,"wertstoffinsel":{"glas":true,"kleider":false,"papier":true}},{"typ":5,"name":"Werftstr. 14 Seelze \/ Lohnde - vor Wertstoffhof","strasse":"Werftstr. 14","ort":"Seelze \/ Lohnde","breitengrad":52.395402476672,"laengengrad":9.567517036546,"wertstoffinsel":{"glas":true,"kleider":false,"papier":false}},{"typ":5,"name":"Humboldtstr. Seelze \/ Seelze - Ecke Hannoversche Str.","strasse":"Humboldtstr.","ort":"Seelze \/ Seelze","breitengrad":52.394897610567,"laengengrad":9.5987844716277,"wertstoffinsel":{"glas":true,"kleider":false,"papier":false}},{"typ":5,"name":"Kantstr. Seelze \/ Seelze - zw. Heinrich-Heine-Str. und S\u00fcdstr.","strasse":"Kantstr.","ort":"Seelze \/ Seelze","breitengrad":52.392597856379,"laengengrad":9.5894804046995,"wertstoffinsel":{"glas":true,"kleider":false,"papier":true}},{"typ":5,"name":"Wunstorfer Str. Seelze \/ Seelze - H\u00f6he Parkplatz Moitje Kolonie","strasse":"Wunstorfer Str.","ort":"Seelze \/ Seelze","breitengrad":52.397123654776,"laengengrad":9.5778271007257,"wertstoffinsel":{"glas":true,"kleider":false,"papier":false}},{"typ":5,"name":"An den Grachten Seelze \/ Seelze-S\u00fcd - Wendeplatz","strasse":"An den Grachten","ort":"Seelze \/ Seelze-S\u00fcd","breitengrad":52.388601234547,"laengengrad":9.5868409665918,"wertstoffinsel":{"glas":true,"kleider":false,"papier":false}},{"typ":5,"name":"Heinrich-Beensen-Str. Seelze \/ Velber - Parkplatz Kita","strasse":"Heinrich-Beensen-Str.","ort":"Seelze \/ Velber","breitengrad":52.365403083701,"laengengrad":9.6508756208878,"wertstoffinsel":{"glas":true,"kleider":false,"papier":true}},{"typ":5,"name":"Freien Str. Sehnde \/ Bilm - Ecke Kleifeld","strasse":"Freien Str.","ort":"Sehnde \/ Bilm","breitengrad":52.340486141315,"laengengrad":9.9147520058177,"wertstoffinsel":{"glas":true,"kleider":false,"papier":true}},{"typ":5,"name":"Ost-West-Stra\u00dfe Ecke Fliederst Sehnde \/ Dolgen - Parkplatz Dorfkindergarten","strasse":"Ost-West-Stra\u00dfe Ecke Fliederst","ort":"Sehnde \/ Dolgen","breitengrad":52.318390214385,"laengengrad":10.050534750827,"wertstoffinsel":{"glas":true,"kleider":false,"papier":false}},{"typ":5,"name":"Stiegfeldweg Sehnde \/ Evern - Am Sportplatz \/ Feldwegzufahrt","strasse":"Stiegfeldweg","ort":"Sehnde \/ Evern","breitengrad":52.318826611576,"laengengrad":10.017108549099,"wertstoffinsel":{"glas":true,"kleider":false,"papier":true}},{"typ":5,"name":"Am Zimmerplatz Sehnde \/ Haimar - Ecke Harberstr.","strasse":"Am Zimmerplatz","ort":"Sehnde \/ Haimar","breitengrad":52.304975971732,"laengengrad":10.04443839631,"wertstoffinsel":{"glas":true,"kleider":false,"papier":true}},{"typ":5,"name":"Bilmer Str. Sehnde \/ H\u00f6ver - Richtung Hannoversche Str.","strasse":"Bilmer Str.","ort":"Sehnde \/ H\u00f6ver","breitengrad":52.35091239702,"laengengrad":9.8975543070786,"wertstoffinsel":{"glas":true,"kleider":false,"papier":false}},{"typ":5,"name":"Lerchengrund Sehnde \/ Ilten - Ecke Am Park","strasse":"Lerchengrund","ort":"Sehnde \/ Ilten","breitengrad":52.340208301825,"laengengrad":9.9353109056876,"wertstoffinsel":{"glas":true,"kleider":false,"papier":true}},{"typ":5,"name":"Rathausstr. Sehnde \/ Ilten - Ecke Gl\u00fcckauf-Sra\u00dfe","strasse":"Rathausstr.","ort":"Sehnde \/ Ilten","breitengrad":52.346072138514,"laengengrad":9.9373431215235,"wertstoffinsel":{"glas":true,"kleider":false,"papier":true}},{"typ":5,"name":"Wieck\u00e4ckernstr. Sehnde \/ Klein Lobke - N\u00e4he Schlosserberg","strasse":"Wieck\u00e4ckernstr.","ort":"Sehnde \/ Klein Lobke","breitengrad":52.283674135828,"laengengrad":10.016904442866,"wertstoffinsel":{"glas":true,"kleider":false,"papier":false}},{"typ":5,"name":"M\u00fcllinger Str. Sehnde \/ M\u00fcllingen - Ecke Alte Schmiede","strasse":"M\u00fcllinger Str.","ort":"Sehnde \/ M\u00fcllingen","breitengrad":52.293562442451,"laengengrad":9.9090487989123,"wertstoffinsel":{"glas":true,"kleider":false,"papier":true}},{"typ":5,"name":"Triftstr. Sehnde \/ Rethmar - N\u00e4he Bergfeld S","strasse":"Triftstr.","ort":"Sehnde \/ Rethmar","breitengrad":52.317321884585,"laengengrad":10.003826084167,"wertstoffinsel":{"glas":true,"kleider":false,"papier":true}},{"typ":5,"name":"Borsigring Sehnde \/ Sehnde - am Wertstoffhof","strasse":"Borsigring","ort":"Sehnde \/ Sehnde","breitengrad":52.323286711737,"laengengrad":9.9819662349034,"wertstoffinsel":{"glas":true,"kleider":false,"papier":false}},{"typ":5,"name":"Dieselstr. Sehnde \/ Sehnde - Ecke Borsigring nur Glascontainer","strasse":"Dieselstr.","ort":"Sehnde \/ Sehnde","breitengrad":52.31830288607,"laengengrad":9.9768969948911,"wertstoffinsel":{"glas":true,"kleider":false,"papier":false}},{"typ":5,"name":"Steinweg Sehnde \/ Sehnde - Parkplatz","strasse":"Steinweg","ort":"Sehnde \/ Sehnde","breitengrad":52.316557881135,"laengengrad":9.9660608886906,"wertstoffinsel":{"glas":true,"kleider":false,"papier":true}},{"typ":5,"name":"Hohenfelser Str. Sehnde \/ Wehmingen - zw. An der Landstr. u. Im Buchenkamp","strasse":"Hohenfelser Str.","ort":"Sehnde \/ Wehmingen","breitengrad":52.295347127994,"laengengrad":9.9338229978449,"wertstoffinsel":{"glas":true,"kleider":false,"papier":true}},{"typ":5,"name":"Kaiserstr. Springe \/ Alferde - Ecke Dr\u00fcstenstra\u00dfe","strasse":"Kaiserstr.","ort":"Springe \/ Alferde","breitengrad":52.16305702084,"laengengrad":9.704337852306,"wertstoffinsel":{"glas":true,"kleider":false,"papier":true}},{"typ":5,"name":"Hohbrink Springe \/ Altenhagen I - gg\u00fc. Dorfgemeinschaftshaus","strasse":"Hohbrink","ort":"Springe \/ Altenhagen I","breitengrad":52.171614890759,"laengengrad":9.5211187479886,"wertstoffinsel":{"glas":true,"kleider":false,"papier":false}},{"typ":5,"name":"Allerfeldstr. hinter Immengart Springe \/ Bennigsen - Stra\u00dfenknick","strasse":"Allerfeldstr. hinter Immengart","ort":"Springe \/ Bennigsen","breitengrad":52.235656417209,"laengengrad":9.6769310447239,"wertstoffinsel":{"glas":true,"kleider":false,"papier":false}},{"typ":5,"name":"Friedrich-Ludwig-Jahn-Str. Eck Springe \/ Bennigsen - Feuerwehr","strasse":"Friedrich-Ludwig-Jahn-Str. Eck","ort":"Springe \/ Bennigsen","breitengrad":52.242047501985,"laengengrad":9.6661024516405,"wertstoffinsel":{"glas":true,"kleider":false,"papier":false}},{"typ":5,"name":"Gleiwitzer Str. Springe \/ Bennigsen - Ecke Breslauer Str. H\u00f6he Freibad","strasse":"Gleiwitzer Str.","ort":"Springe \/ Bennigsen","breitengrad":52.237020804867,"laengengrad":9.6533892215457,"wertstoffinsel":{"glas":true,"kleider":false,"papier":false}},{"typ":5,"name":"Medefelder Str. Springe \/ Bennigsen - Parkplatz Grundschule","strasse":"Medefelder Str.","ort":"Springe \/ Bennigsen","breitengrad":52.235946404699,"laengengrad":9.6718100940946,"wertstoffinsel":{"glas":true,"kleider":false,"papier":false}},{"typ":5,"name":"Am Namenlosen Knick Springe \/ Eldagsen - Ecke Knickstra\u00dfe","strasse":"Am Namenlosen Knick","ort":"Springe \/ Eldagsen","breitengrad":52.171929498297,"laengengrad":9.6562663735647,"wertstoffinsel":{"glas":true,"kleider":false,"papier":false}},{"typ":5,"name":"Hindenburgallee Ecke Kirchhofs Springe \/ Eldagsen - Sportplatz","strasse":"Hindenburgallee Ecke Kirchhofs","ort":"Springe \/ Eldagsen","breitengrad":52.168030200843,"laengengrad":9.6606100957686,"wertstoffinsel":{"glas":true,"kleider":false,"papier":false}},{"typ":5,"name":"Suderbruchtrift Springe \/ Gestorf - Parkplatz TSV Gestorf","strasse":"Suderbruchtrift","ort":"Springe \/ Gestorf","breitengrad":52.211006451469,"laengengrad":9.7071302937946,"wertstoffinsel":{"glas":true,"kleider":false,"papier":true}},{"typ":5,"name":"Leftjestra\u00dfe Springe \/ Holtensen - Ecke Dorfstra\u00dfe","strasse":"Leftjestra\u00dfe","ort":"Springe \/ Holtensen","breitengrad":52.160948217752,"laengengrad":9.6775512878476,"wertstoffinsel":{"glas":true,"kleider":false,"papier":true}},{"typ":5,"name":"Zur Hallerm\u00fchle Springe \/ Mittelrode - Richtung Mittelroder Str.","strasse":"Zur Hallerm\u00fchle","ort":"Springe \/ Mittelrode","breitengrad":52.201206496312,"laengengrad":9.6508738323392,"wertstoffinsel":{"glas":true,"kleider":false,"papier":false}},{"typ":5,"name":"Auf dem Burghof 3 neben Polize Springe \/ Springe - Parkplatz","strasse":"Auf dem Burghof 3 neben Polize","ort":"Springe \/ Springe","breitengrad":52.206706099795,"laengengrad":9.5565048880556,"wertstoffinsel":{"glas":true,"kleider":false,"papier":true}},{"typ":5,"name":"Friedrich-B\u00e4hre-Str. Springe \/ Springe - gg\u00fc. K\u00e4the-Kollwitz-Str.","strasse":"Friedrich-B\u00e4hre-Str.","ort":"Springe \/ Springe","breitengrad":52.215434591873,"laengengrad":9.5662744305351,"wertstoffinsel":{"glas":true,"kleider":false,"papier":true}},{"typ":5,"name":"J\u00e4gerallee Springe \/ Springe - Ecke Industriestr.","strasse":"J\u00e4gerallee","ort":"Springe \/ Springe","breitengrad":52.215076370567,"laengengrad":9.552701423243,"wertstoffinsel":{"glas":true,"kleider":false,"papier":true}},{"typ":5,"name":"Oppelner Str. Springe \/ Springe - Wertstoffhof","strasse":"Oppelner Str.","ort":"Springe \/ Springe","breitengrad":52.205213606905,"laengengrad":9.5697004828154,"wertstoffinsel":{"glas":true,"kleider":false,"papier":false}},{"typ":5,"name":"Reichspr.-Ebert-Str. Springe \/ Springe - Ecke Sudetenstra\u00dfe","strasse":"Reichspr.-Ebert-Str.","ort":"Springe \/ Springe","breitengrad":52.211146059686,"laengengrad":9.5662638076452,"wertstoffinsel":{"glas":true,"kleider":false,"papier":true}},{"typ":5,"name":"Wolfstalstr. Ecke Schiergrund Springe \/ Springe - Bushaltestelle","strasse":"Wolfstalstr. Ecke Schiergrund","ort":"Springe \/ Springe","breitengrad":52.206219810594,"laengengrad":9.5392452894574,"wertstoffinsel":{"glas":true,"kleider":false,"papier":false}},{"typ":5,"name":"Nach den Dellen 13 Springe \/ V\u00f6lksen - Ecke Gartenstr.","strasse":"Nach den Dellen 13","ort":"Springe \/ V\u00f6lksen","breitengrad":52.218707435468,"laengengrad":9.619906374981,"wertstoffinsel":{"glas":true,"kleider":false,"papier":true}},{"typ":5,"name":"Spielburg Springe \/ V\u00f6lksen - H\u00f6he Am Sportplatz","strasse":"Spielburg","ort":"Springe \/ V\u00f6lksen","breitengrad":52.215799879858,"laengengrad":9.6307559956995,"wertstoffinsel":{"glas":true,"kleider":false,"papier":true}},{"typ":5,"name":"H\u00e4nigser Kirchweg N\u00e4he Schilfb Uetze \/ Altmerdingsen - Bushaltestelle","strasse":"H\u00e4nigser Kirchweg N\u00e4he Schilfb","ort":"Uetze \/ Altmerdingsen","breitengrad":52.463465576402,"laengengrad":10.129482452559,"wertstoffinsel":{"glas":true,"kleider":false,"papier":false}},{"typ":5,"name":"Zum Bahnhof Uetze \/ Dedenhausen - P+R Dedenhausen","strasse":"Zum Bahnhof","ort":"Uetze \/ Dedenhausen","breitengrad":52.432101253499,"laengengrad":10.237735638545,"wertstoffinsel":{"glas":true,"kleider":false,"papier":true}},{"typ":5,"name":"Bahnhofstr. 98 Uetze \/ Dollbergen - gg\u00fc. Autohaus Milan","strasse":"Bahnhofstr. 98","ort":"Uetze \/ Dollbergen","breitengrad":52.421351426613,"laengengrad":10.181170060406,"wertstoffinsel":{"glas":true,"kleider":false,"papier":true}},{"typ":5,"name":"K\u00f6tnerstr. 2 Uetze \/ Eltze - Ecke Peiner Str.","strasse":"K\u00f6tnerstr. 2","ort":"Uetze \/ Eltze","breitengrad":52.455781416053,"laengengrad":10.265082141099,"wertstoffinsel":{"glas":true,"kleider":false,"papier":true}},{"typ":5,"name":"Am \u00d6lfeld Uetze \/ H\u00e4nigsen - Ecke Altmerdingser Str.","strasse":"Am \u00d6lfeld","ort":"Uetze \/ H\u00e4nigsen","breitengrad":52.477662181216,"laengengrad":10.102767679763,"wertstoffinsel":{"glas":true,"kleider":false,"papier":true}},{"typ":5,"name":"Uetzer Kirchweg Ecke Am Immenb Uetze \/ Katensen - Feldweg","strasse":"Uetzer Kirchweg Ecke Am Immenb","ort":"Uetze \/ Katensen","breitengrad":52.438055209367,"laengengrad":10.172245597084,"wertstoffinsel":{"glas":true,"kleider":false,"papier":true}},{"typ":5,"name":"Hauptstr. Uetze \/ Obershagen - K 125 Bus Wendeschleife","strasse":"Hauptstr.","ort":"Uetze \/ Obershagen","breitengrad":52.504623857884,"laengengrad":10.060612246964,"wertstoffinsel":{"glas":true,"kleider":false,"papier":true}},{"typ":5,"name":"Hooptweg Uetze \/ Schw\u00fcblingsen - An den Keimh\u00e4usern","strasse":"Hooptweg","ort":"Uetze \/ Schw\u00fcblingsen","breitengrad":52.41276431608,"laengengrad":10.129745134788,"wertstoffinsel":{"glas":true,"kleider":false,"papier":true}},{"typ":5,"name":"Am Spring Uetze \/ Uetze - Bodestr.11 Freibad","strasse":"Am Spring","ort":"Uetze \/ Uetze","breitengrad":52.460033094221,"laengengrad":10.202251937026,"wertstoffinsel":{"glas":true,"kleider":false,"papier":true}},{"typ":5,"name":"Praklastr. Uetze \/ Uetze - Wendehammer","strasse":"Praklastr.","ort":"Uetze \/ Uetze","breitengrad":52.469374563255,"laengengrad":10.216315566402,"wertstoffinsel":{"glas":true,"kleider":false,"papier":true}},{"typ":5,"name":"Am M\u00fchlenberg Sportplatz Wedemark \/ Bissendorf - Festplatz","strasse":"Am M\u00fchlenberg Sportplatz","ort":"Wedemark \/ Bissendorf","breitengrad":52.527440068194,"laengengrad":9.7506600490179,"wertstoffinsel":{"glas":true,"kleider":false,"papier":true}},{"typ":5,"name":"Auf Der Haube 9 Wedemark \/ Bissendorf - Wendeplatte","strasse":"Auf Der Haube 9","ort":"Wedemark \/ Bissendorf","breitengrad":52.516655524196,"laengengrad":9.7357243946674,"wertstoffinsel":{"glas":true,"kleider":false,"papier":true}},{"typ":5,"name":"Georg-Reimann-Str. Wedemark \/ Bissendorf - gg\u00fc. Hausnummer 11","strasse":"Georg-Reimann-Str.","ort":"Wedemark \/ Bissendorf","breitengrad":52.523975195413,"laengengrad":9.7383671500319,"wertstoffinsel":{"glas":true,"kleider":false,"papier":true}},{"typ":5,"name":"Am Sportplatz Wedemark \/ Brelingen - Parkplatz Sportgastst\u00e4tte","strasse":"Am Sportplatz","ort":"Wedemark \/ Brelingen","breitengrad":52.552093429511,"laengengrad":9.6725720352471,"wertstoffinsel":{"glas":true,"kleider":false,"papier":false}},{"typ":5,"name":"Wasserwerkstr. Ecke Bruchweg Wedemark \/ Elze - Kuckucksweg","strasse":"Wasserwerkstr. Ecke Bruchweg","ort":"Wedemark \/ Elze","breitengrad":52.585233686462,"laengengrad":9.7429091083534,"wertstoffinsel":{"glas":true,"kleider":false,"papier":true}},{"typ":5,"name":"Hessenweg 2 Wedemark \/ Gailhof - Autohof Mellendorf","strasse":"Hessenweg 2","ort":"Wedemark \/ Gailhof","breitengrad":52.552707694062,"laengengrad":9.7777724734579,"wertstoffinsel":{"glas":true,"kleider":false,"papier":false}},{"typ":5,"name":"Sommerbosteler Str. Wedemark \/ Hellendorf - Ecke Meitzer Str.","strasse":"Sommerbosteler Str.","ort":"Wedemark \/ Hellendorf","breitengrad":52.563022032102,"laengengrad":9.733726455865,"wertstoffinsel":{"glas":true,"kleider":false,"papier":true}},{"typ":5,"name":"Hastraweg Wedemark \/ Meitze - Richtung Umspannwerk","strasse":"Hastraweg","ort":"Wedemark \/ Meitze","breitengrad":52.566559281134,"laengengrad":9.7685160109289,"wertstoffinsel":{"glas":true,"kleider":false,"papier":true}},{"typ":5,"name":"Am Freizeitpark Wedemark \/ Mellendorf - Jugendhalle","strasse":"Am Freizeitpark","ort":"Wedemark \/ Mellendorf","breitengrad":52.546711844619,"laengengrad":9.7497942903796,"wertstoffinsel":{"glas":true,"kleider":false,"papier":false}},{"typ":5,"name":"Am Rutenberge Wedemark \/ Mellendorf - Ecke Hermann-L\u00f6ns-Str.","strasse":"Am Rutenberge","ort":"Wedemark \/ Mellendorf","breitengrad":52.544095283867,"laengengrad":9.7238552221658,"wertstoffinsel":{"glas":true,"kleider":false,"papier":true}},{"typ":5,"name":"Am Spring Wedemark \/ Negenborn - Ecke Werner-von-Negenborn-Stra\u00dfe","strasse":"Am Spring","ort":"Wedemark \/ Negenborn","breitengrad":52.553110830929,"laengengrad":9.6365256919853,"wertstoffinsel":{"glas":true,"kleider":false,"papier":true}},{"typ":5,"name":"Osterbergstr. Wedemark \/ Resse - gg\u00fc. Waldfriedhof","strasse":"Osterbergstr.","ort":"Wedemark \/ Resse","breitengrad":52.502950541593,"laengengrad":9.6202434755409,"wertstoffinsel":{"glas":true,"kleider":false,"papier":false}},{"typ":5,"name":"Fuhrenkamp Wedemark \/ Scherenbostel - Ecke Ostpreu\u00dfenweg Bushaltestelle","strasse":"Fuhrenkamp","ort":"Wedemark \/ Scherenbostel","breitengrad":52.525009762849,"laengengrad":9.7222295802438,"wertstoffinsel":{"glas":true,"kleider":false,"papier":true}},{"typ":5,"name":"Lindenstra\u00dfe 37 Wedemark \/ Wennebostel - Parkplatz Edeka","strasse":"Lindenstra\u00dfe 37","ort":"Wedemark \/ Wennebostel","breitengrad":52.529219409474,"laengengrad":9.7521940019276,"wertstoffinsel":{"glas":true,"kleider":false,"papier":true}},{"typ":5,"name":"Im B\u00fcntefeld Wennigsen \/ Holtensen - Ecke Am Sportplatz","strasse":"Im B\u00fcntefeld","ort":"Wennigsen \/ Holtensen","breitengrad":52.264741169152,"laengengrad":9.626482772814,"wertstoffinsel":{"glas":true,"kleider":false,"papier":false}},{"typ":5,"name":"Weetzener Str. Wennigsen \/ Sorsum - H\u00f6he Buschweg","strasse":"Weetzener Str.","ort":"Wennigsen \/ Sorsum","breitengrad":52.279612381208,"laengengrad":9.6074315333237,"wertstoffinsel":{"glas":true,"kleider":false,"papier":true}},{"typ":5,"name":"Hauptstr. Wennigsen \/ Wennigsen - Friedhofsparkplatz","strasse":"Hauptstr.","ort":"Wennigsen \/ Wennigsen","breitengrad":52.273243117826,"laengengrad":9.5740604101119,"wertstoffinsel":{"glas":true,"kleider":false,"papier":true}},{"typ":5,"name":"Heisterweg Wennigsen \/ Wennigsen - Ecke Werner-von-Siemens-Str.","strasse":"Heisterweg","ort":"Wennigsen \/ Wennigsen","breitengrad":52.279605112042,"laengengrad":9.5710497321691,"wertstoffinsel":{"glas":true,"kleider":false,"papier":true}},{"typ":5,"name":"Am Waldwinkel Wennigsen \/ Wennigser Mark - Neue Kohlenstra\u00dfe \/ Wanderparkplatz","strasse":"Am Waldwinkel","ort":"Wennigsen \/ Wennigser Mark","breitengrad":52.274060925933,"laengengrad":9.5156800259915,"wertstoffinsel":{"glas":true,"kleider":false,"papier":true}},{"typ":5,"name":"Am Bruche Wunstorf \/ Blumenau - Ecke Leinechaussee","strasse":"Am Bruche","ort":"Wunstorf \/ Blumenau","breitengrad":52.432184427619,"laengengrad":9.4523639654537,"wertstoffinsel":{"glas":true,"kleider":false,"papier":false}},{"typ":5,"name":"Am Bruche Ecke Leinechaussee Wunstorf \/ Blumenau - Garagenhof","strasse":"Am Bruche Ecke Leinechaussee","ort":"Wunstorf \/ Blumenau","breitengrad":52.432195160844,"laengengrad":9.4519081052385,"wertstoffinsel":{"glas":true,"kleider":false,"papier":true}},{"typ":5,"name":"Alte Dorfstr Wunstorf \/ Bokeloh - h\u00f6he Alter Damm","strasse":"Alte Dorfstr","ort":"Wunstorf \/ Bokeloh","breitengrad":52.411064668732,"laengengrad":9.3813446407786,"wertstoffinsel":{"glas":true,"kleider":false,"papier":true}},{"typ":5,"name":"Am Sch\u00fctzenplatz Wunstorf \/ Bokeloh - Ecke Schaumburger Str.","strasse":"Am Sch\u00fctzenplatz","ort":"Wunstorf \/ Bokeloh","breitengrad":52.417915554802,"laengengrad":9.3784776572647,"wertstoffinsel":{"glas":true,"kleider":false,"papier":true}},{"typ":5,"name":"Hattorfstr. Wunstorf \/ Bokeloh - gg\u00fc. Hausnummer 19","strasse":"Hattorfstr.","ort":"Wunstorf \/ Bokeloh","breitengrad":52.42141846248,"laengengrad":9.3878306811254,"wertstoffinsel":{"glas":true,"kleider":false,"papier":true}},{"typ":5,"name":"Sigmundshaller Str. Ecke Stein Wunstorf \/ Bokeloh - Parkplatz","strasse":"Sigmundshaller Str. Ecke Stein","ort":"Wunstorf \/ Bokeloh","breitengrad":52.420542036862,"laengengrad":9.3752503859407,"wertstoffinsel":{"glas":true,"kleider":false,"papier":true}},{"typ":5,"name":"Am Bahnhof Wunstorf \/ Gro\u00dfenheidorn - Ecke an der Mehrzweckhalle","strasse":"Am Bahnhof","ort":"Wunstorf \/ Gro\u00dfenheidorn","breitengrad":52.456408387788,"laengengrad":9.3852241027356,"wertstoffinsel":{"glas":true,"kleider":false,"papier":true}},{"typ":5,"name":"Brahmsstr. Wunstorf \/ Gro\u00dfenheidorn - Ecke Wagnerstr.","strasse":"Brahmsstr.","ort":"Wunstorf \/ Gro\u00dfenheidorn","breitengrad":52.460583668652,"laengengrad":9.4003319222637,"wertstoffinsel":{"glas":true,"kleider":false,"papier":true}},{"typ":5,"name":"Zur Gro\u00dfen Loh Wunstorf \/ Idensen - Mehrzweckhalle","strasse":"Zur Gro\u00dfen Loh","ort":"Wunstorf \/ Idensen","breitengrad":52.398281112603,"laengengrad":9.3551171592848,"wertstoffinsel":{"glas":true,"kleider":false,"papier":true}},{"typ":5,"name":"Brinkstra\u00dfe Wunstorf \/ Idensermoor - Ecke Im Busche","strasse":"Brinkstra\u00dfe","ort":"Wunstorf \/ Idensermoor","breitengrad":52.391573975795,"laengengrad":9.3522124660058,"wertstoffinsel":{"glas":true,"kleider":false,"papier":false}},{"typ":5,"name":"Schulstr. gg\u00fc. Grundschule Wunstorf \/ Klein Heidorn - Parkplatz","strasse":"Schulstr. gg\u00fc. Grundschule","ort":"Wunstorf \/ Klein Heidorn","breitengrad":52.445714865167,"laengengrad":9.4181766411746,"wertstoffinsel":{"glas":true,"kleider":false,"papier":true}},{"typ":5,"name":"Ewipper Weg Wunstorf \/ Kolenfeld - Ecke M\u00fchlenweg","strasse":"Ewipper Weg","ort":"Wunstorf \/ Kolenfeld","breitengrad":52.394031612745,"laengengrad":9.4540753010353,"wertstoffinsel":{"glas":true,"kleider":false,"papier":true}},{"typ":5,"name":"Kirchdamm 13 Wunstorf \/ Kolenfeld - Parkplatz Grundschule","strasse":"Kirchdamm 13","ort":"Wunstorf \/ Kolenfeld","breitengrad":52.385868019119,"laengengrad":9.451802233121,"wertstoffinsel":{"glas":true,"kleider":false,"papier":true}},{"typ":5,"name":"Kastanienallee Wunstorf \/ Liethe - Ecke Liether Schweiz gg\u00fc. Hausnr. 15","strasse":"Kastanienallee","ort":"Wunstorf \/ Liethe","breitengrad":52.449460000578,"laengengrad":9.4533796586767,"wertstoffinsel":{"glas":true,"kleider":false,"papier":true}},{"typ":5,"name":"Adolf-Oesterheld-Str. Wunstorf \/ Luthe - Ecke Ahornstr. Kleintierpraxis","strasse":"Adolf-Oesterheld-Str.","ort":"Wunstorf \/ Luthe","breitengrad":52.424769476341,"laengengrad":9.4679943332994,"wertstoffinsel":{"glas":true,"kleider":false,"papier":true}},{"typ":5,"name":"Am Lehmstich 23 Wunstorf \/ Luthe - N\u00e4he Am Lehmgraben","strasse":"Am Lehmstich 23","ort":"Wunstorf \/ Luthe","breitengrad":52.429017319219,"laengengrad":9.4691571043735,"wertstoffinsel":{"glas":true,"kleider":false,"papier":true}},{"typ":5,"name":"An Der Tongrube Wunstorf \/ Luthe - Ecke Buchfinkenweg","strasse":"An Der Tongrube","ort":"Wunstorf \/ Luthe","breitengrad":52.42471161706,"laengengrad":9.477964546806,"wertstoffinsel":{"glas":true,"kleider":false,"papier":false}},{"typ":5,"name":"Sahlenkamp Wunstorf \/ Luthe - Bauhof","strasse":"Sahlenkamp","ort":"Wunstorf \/ Luthe","breitengrad":52.414456399175,"laengengrad":9.4544467817345,"wertstoffinsel":{"glas":true,"kleider":false,"papier":true}},{"typ":5,"name":"Sportplatzstr. Wunstorf \/ Mesmerode - Parkplatz","strasse":"Sportplatzstr.","ort":"Wunstorf \/ Mesmerode","breitengrad":52.413099157907,"laengengrad":9.3574709175834,"wertstoffinsel":{"glas":true,"kleider":false,"papier":true}},{"typ":5,"name":"Bleichenstr. Wunstorf \/ Steinhude - Ecke Pickertsberg","strasse":"Bleichenstr.","ort":"Wunstorf \/ Steinhude","breitengrad":52.461966029128,"laengengrad":9.3763384206193,"wertstoffinsel":{"glas":true,"kleider":false,"papier":true}},{"typ":5,"name":"Hohenfelder Str. 15a Wunstorf \/ Steinhude - H\u00f6he Autoh\u00e4ndler","strasse":"Hohenfelder Str. 15a","ort":"Wunstorf \/ Steinhude","breitengrad":52.453133396984,"laengengrad":9.3719661535956,"wertstoffinsel":{"glas":true,"kleider":false,"papier":true}},{"typ":5,"name":"Masurenplatz 8 Wunstorf \/ Steinhude - am Spielplatz","strasse":"Masurenplatz 8","ort":"Wunstorf \/ Steinhude","breitengrad":52.460557863105,"laengengrad":9.3752961446814,"wertstoffinsel":{"glas":true,"kleider":false,"papier":true}},{"typ":5,"name":"Meerstra\u00dfe 10 Wunstorf \/ Steinhude - Ecke Bruchdamm Sporthalle Steinhude","strasse":"Meerstra\u00dfe 10","ort":"Wunstorf \/ Steinhude","breitengrad":52.450729423162,"laengengrad":9.3525811648154,"wertstoffinsel":{"glas":true,"kleider":false,"papier":true}},{"typ":5,"name":"Zum Pageskampe Wunstorf \/ Steinhude - gg\u00fc Hausnr. 30 Ecke S\u00f6lterweg","strasse":"Zum Pageskampe","ort":"Wunstorf \/ Steinhude","breitengrad":52.450474595224,"laengengrad":9.3595833544696,"wertstoffinsel":{"glas":true,"kleider":false,"papier":true}},{"typ":5,"name":"Amtsstr. Wunstorf \/ Wunstorf - Ecke Schlobbenriede Parkplatz","strasse":"Amtsstr.","ort":"Wunstorf \/ Wunstorf","breitengrad":52.423664709998,"laengengrad":9.4248503147221,"wertstoffinsel":{"glas":true,"kleider":false,"papier":false}},{"typ":5,"name":"D\u00fcendorfer Weg Wunstorf \/ Wunstorf - gg\u00fc. Hausnummer 59","strasse":"D\u00fcendorfer Weg","ort":"Wunstorf \/ Wunstorf","breitengrad":52.41704875998,"laengengrad":9.4245808771618,"wertstoffinsel":{"glas":true,"kleider":false,"papier":false}},{"typ":5,"name":"Hagenburger Str. 20 Wunstorf \/ Wunstorf - Parkplatz Marktkauf","strasse":"Hagenburger Str. 20","ort":"Wunstorf \/ Wunstorf","breitengrad":52.430451666743,"laengengrad":9.4200324751905,"wertstoffinsel":{"glas":true,"kleider":false,"papier":false}},{"typ":5,"name":"K\u00f6nig-Ludwig-Str. Wunstorf \/ Wunstorf - H\u00f6he Spielplatz","strasse":"K\u00f6nig-Ludwig-Str.","ort":"Wunstorf \/ Wunstorf","breitengrad":52.418482774219,"laengengrad":9.4453421940413,"wertstoffinsel":{"glas":true,"kleider":false,"papier":false}},{"typ":5,"name":"Nordrehr Wendehammer Wunstorf \/ Wunstorf - Grabmale Krapf","strasse":"Nordrehr Wendehammer","ort":"Wunstorf \/ Wunstorf","breitengrad":52.430100163294,"laengengrad":9.425309306107,"wertstoffinsel":{"glas":true,"kleider":false,"papier":true}},{"typ":5,"name":"Rembrandtstr. Wunstorf \/ Wunstorf - Ecke Barnestra\u00dfe","strasse":"Rembrandtstr.","ort":"Wunstorf \/ Wunstorf","breitengrad":52.416703210936,"laengengrad":9.430635419154,"wertstoffinsel":{"glas":true,"kleider":false,"papier":true}},{"typ":5,"name":"Senator-Meier-Str. Wunstorf \/ Wunstorf - Ecke Klein Heidorner Str. Friedhof","strasse":"Senator-Meier-Str.","ort":"Wunstorf \/ Wunstorf","breitengrad":52.435283079201,"laengengrad":9.4240647461969,"wertstoffinsel":{"glas":true,"kleider":false,"papier":true}},{"typ":5,"name":"Senator-Meier-Str. Ecke Astern Wunstorf \/ Wunstorf - Spielplatz","strasse":"Senator-Meier-Str. Ecke Astern","ort":"Wunstorf \/ Wunstorf","breitengrad":52.437486114706,"laengengrad":9.4314117053471,"wertstoffinsel":{"glas":true,"kleider":false,"papier":true}},{"typ":1,"name":"D\u00f6hrbruch 8 30559 Hannover","strasse":"D\u00f6hrbruch","nummer":"8","plz":"30559","ort":"Hannover","breitengrad":52.35302529265699,"laengengrad":9.823802777724918},{"name":"Immelmannstr. 17, 30419 Ledeburg","strasse":"Immelmannstr.","nummer":"17","plz":"30419","ort":"Ledeburg","breitengrad":52.41314583572483,"laengengrad":9.678545542862214}]